address,city,phone,name,category
"585 Doon Village Road, Unit 2, Kitchener, ON",Kitchener,519-894-3880,M&M Food Market,deli meat cheese
"102 Weber St. N., Waterloo, ON",Waterloo,519-746-1123,M&M Food Market,deli meat cheese
"5 McMurchy Ave. N., Brampton, ON",Brampton,905-454-3224,M&M Food Market,deli meat cheese
"357 Trunk Rd., Unit 1, Sault Ste. Marie, ON",Sault Ste. Marie,705-942-6660,M&M Food Market,deli meat cheese
"635 Fourth Line, Oakville, ON",Oakville,905-842-4233,M&M Food Market,deli meat cheese
"216 Second Line West, Sault Ste. Marie, ON",Sault Ste. Marie,705-942-6328,M&M Food Market,deli meat cheese
"959 Dundas Street, Woodstock, ON",Woodstock,519-539-3313,M&M Food Market,deli meat cheese
"852 Ontario Street, Unit B1, Stratford, ON",Stratford,519-273-5969,M&M Food Market,deli meat cheese
"2732 Barton St. E, Stoney Creek, ON",Stoney Creek,905-578-3577,M&M Food Market,deli meat cheese
"1362 Lambton Mall Road, Unit 18, Sarnia, ON",Sarnia,519-542-8398,M&M Food Market,deli meat cheese
"Huron Heights Plaza, Unit #3A, 1355 Huron Street
Unit #3A, 1355 Huron Street, London, ON",London,519-439-6971,M&M Food Market,deli meat cheese
"1485 Lasalle Blvd., Unit B2A
Unit B2A, Sudbury, ON",Sudbury,705-560-2661,M&M Food Market,deli meat cheese
"400-420 Main St. E, Units 104 & 105
Units 104 & 105, Milton, ON",Milton,905-878-1848,M&M Food Market,deli meat cheese
"810 - 10th Street West, Owen Sound, ON",Owen Sound,519-376-1770,M&M Food Market,deli meat cheese
"308 Wellington Street, St. Thomas, ON",St. Thomas,519-631-8547,M&M Food Market,deli meat cheese
"1500 Paris St., Sudbury, ON",Sudbury,705-522-0466,M&M Food Market,deli meat cheese
"1900 Lakeshore Rd W, Mississauga, ON",Mississauga,905-855-0716,M&M Food Market,deli meat cheese
"645 Westmount Road East Unit 6, Ottawa-Westmount Centre
Ottawa-Westmount Centre, Kitchener, ON",Kitchener,519-744-5797,M&M Food Market,deli meat cheese
"190 Minet`s Point Road Unit 1B, Whiskey Creek Square
Whiskey Creek Square, Barrie, ON",Barrie,705-737-3497,M&M Food Market,deli meat cheese
"2172 Mountain Grove Ave., Burlington, ON",Burlington,905-336-8757,M&M Food Market,deli meat cheese
"420 Vansickle Road
Unit J03B, St. Catharines, ON",St. Catharines,905-682-6328,M&M Food Market,deli meat cheese
"1801 Dundas St. E., Kendalwood Park Plaza
Kendalwood Park Plaza, Whitby, ON",Whitby,905-436-3066,M&M Food Market,deli meat cheese
"795 Gardiners Rd., Unit 4
Unit 4, Kingston, ON",Kingston,613-384-6892,M&M Food Market,deli meat cheese
"Centre Point Mall, 149 Bell Boulevard, Unit A3
149 Bell Boulevard, Unit A3, Belleville, ON",Belleville,613-967-1366,M&M Food Market,deli meat cheese
"998 Upper Wentworth St., Hamilton, ON",Hamilton,905-385-6155,M&M Food Market,deli meat cheese
"455 Grand Ave. E, Chatham, ON",Chatham,519-351-2484,M&M Food Market,deli meat cheese
"1371 Beaverbrook Ave, London, ON",London,519-472-9051,M&M Food Market,deli meat cheese
"20 Harwood Avenue South, Ajax, ON",Ajax,905-428-8827,M&M Food Market,deli meat cheese
"100 Waterloo Rd., Timmins, ON",Timmins,705-267-2066,M&M Food Market,deli meat cheese
"2163 Sixth Line, Oakville, ON",Oakville,905-338-3459,M&M Food Market,deli meat cheese
"Morningside Crossing, 4525 Kingston Road, Unit H11
4525 Kingston Road, Unit H11, Scarborough, ON",Scarborough,416-286-6860,M&M Food Market,deli meat cheese
"425-427 West Street North, #FS-2A, Orillia, ON",Orillia,705-326-5798,M&M Food Market,deli meat cheese
"1400 Clyde Ave., Nepean, ON",Nepean,613-225-4637,M&M Food Market,deli meat cheese
"1091 Chemong Rd., Unit 2, Peterborough, ON",Peterborough,705-748-2944,M&M Food Market,deli meat cheese
"841 Sydney Street, Unit 13-14, Cornwall, ON",Cornwall,613-937-3778,M&M Food Market,deli meat cheese
"9185 Torbram Rd., Brampton, ON",Brampton,905-791-4486,M&M Food Market,deli meat cheese
"975 Elgin Street West, Cobourg, ON",Cobourg,905-372-3116,M&M Food Market,deli meat cheese
"211 Guelph Street, Hwy 7, Georgetown, ON",Georgetown,905-873-2151,M&M Food Market,deli meat cheese
"16925 Yonge St., Newmarket, ON",Newmarket,905-853-2279,M&M Food Market,deli meat cheese
"47 Broadway Ave., ORANGEVILLE, ON",ORANGEVILLE,519-942-2573,M&M Food Market,deli meat cheese
"536 Montreal Rd., Ottawa, ON",Ottawa,613-744-6164,M&M Food Market,deli meat cheese
"367 Goderich St., Port Elgin, ON",Port Elgin,519-389-4566,M&M Food Market,deli meat cheese
"95 Queensway West, Simcoe, ON",Simcoe,519-428-6328,M&M Food Market,deli meat cheese
"15005 Yonge Street West, Unit 6, Aurora, ON",Aurora,905-727-1250,M&M Food Market,deli meat cheese
"257 Dundas St. E, Trenton, ON",Trenton,613-392-6659,M&M Food Market,deli meat cheese
"705 Kingston Road, Unit 15
Unit 15, Pickering, ON",Pickering,905-420-3223,M&M Food Market,deli meat cheese
"277 Bath Road, Kingston, ON",Kingston,613-531-8888,M&M Food Market,deli meat cheese
"843 Red River Rd., Thunder Bay, ON",Thunder Bay,807-768-1122,M&M Food Market,deli meat cheese
"295 Wellington Street North, Unit 11, Bracebridge, ON",Bracebridge,705-645-7827,M&M Food Market,deli meat cheese
"8-368 Speedvale Ave. E, Guelph, ON",Guelph,519-824-9629,M&M Food Market,deli meat cheese
"2340 Council Ring Rd., Mississauga, ON",Mississauga,905-820-0142,M&M Food Market,deli meat cheese
"3-1 King William St., Huntsville, ON",Huntsville,705-789-4502,M&M Food Market,deli meat cheese
"30 Rice Rd., Welland, ON",Welland,905-735-6819,M&M Food Market,deli meat cheese
"220 Wexford Rd., Unit 1A, Kennedy Place
Kennedy Place, Brampton, ON",Brampton,905-840-7293,M&M Food Market,deli meat cheese
"771 Pembroke Street East, Pembroke, ON",Pembroke,613-735-7294,M&M Food Market,deli meat cheese
"305 Caradoc St. S., Unit B4, Southdale Plaza
Southdale Plaza, Strathroy, ON",Strathroy,519-245-6355,M&M Food Market,deli meat cheese
"288 Erie St. S., Bldg. G, Unit 3, Leamington, ON",Leamington,519-326-1660,M&M Food Market,deli meat cheese
"9275 Markham Rd., Markham, ON",Markham,905-472-2028,M&M Food Market,deli meat cheese
"395 Daniel Street South,, Arnprior, ON",Arnprior,613-623-9620,M&M Food Market,deli meat cheese
"560 First Street,, Collingwood, ON",Collingwood,705-444-8248,M&M Food Market,deli meat cheese
"1166 Commissioners Rd. E, London, ON",London,519-685-6581,M&M Food Market,deli meat cheese
"12-1476 Dundas St E
Building D4, Mississauga, ON",Mississauga,905-896-7726,M&M Food Market,deli meat cheese
"394 Huron Rd, Goderich, ON",Goderich,519-524-1305,M&M Food Market,deli meat cheese
"West Bowmanville Shopping Centre, 2384 Hwy #2, Unit 2
2384 Hwy #2, Unit 2, Bowmanville, ON",Bowmanville,905-697-1202,M&M Food Market,deli meat cheese
"509 North Edward St., Thunder Bay, ON",Thunder Bay,807-473-8129,M&M Food Market,deli meat cheese
"7700 Bathurst St, Thornhill, ON",Thornhill,905-886-2220,M&M Food Market,deli meat cheese
"5230 Dundas Street West, Etobicoke, ON",Etobicoke,416-231-1639,M&M Food Market,deli meat cheese
"9319 County Road #93, Midland, ON",Midland,705-527-4197,M&M Food Market,deli meat cheese
"207 Brockville St., Smith Falls, ON",Smith Falls,613-284-0052,M&M Food Market,deli meat cheese
"180 Shirreff Ave., North Bay, ON",North Bay,705-497-7920,M&M Food Market,deli meat cheese
"4646 Heritage Hills Blvd., Unit 14, Mississauga, ON",Mississauga,905-507-9741,M&M Food Market,deli meat cheese
"4 Pine Drive, Parry Sound, ON",Parry Sound,705-746-1200,M&M Food Market,deli meat cheese
"2625 B Weston Road, Crossroads Centre
Crossroads Centre, North York, ON",North York,416-243-8878,M&M Food Market,deli meat cheese
"1920 Dundas St., Unit M, Eastwood Centre
Eastwood Centre, London, ON",London,519-457-5528,M&M Food Market,deli meat cheese
"2249 Carling Avenue, Ottawa, ON",Ottawa,613-829-6356,M&M Food Market,deli meat cheese
"3850 Sheppard Ave., E. Unit 0510, Agincourt Mall
Agincourt Mall, Scarborough, ON",Scarborough,416-297-0491,M&M Food Market,deli meat cheese
"76 Arlington Drive, Unit 15
Unit 15, Keswick, ON",Keswick,905-476-6688,M&M Food Market,deli meat cheese
"University Plaza, 101 Osler Drive, Unit 140
101 Osler Drive, Unit 140, Dundas, ON",Dundas,905-628-9298,M&M Food Market,deli meat cheese
"3030 Hwy 69 North, Val Caron, ON",Val Caron,705-897-1700,M&M Food Market,deli meat cheese
"1347 King St. E, Oshawa, ON",Oshawa,905-571-7701,M&M Food Market,deli meat cheese
"329 Stewart Blvd., Brockville, ON",Brockville,613-498-2694,M&M Food Market,deli meat cheese
"36 Main St. E, Grimsby, ON",Grimsby,905-945-9400,M&M Food Market,deli meat cheese
"6225 Thorold Stone Rd., Niagara Falls, ON",Niagara Falls,905-354-0186,M&M Food Market,deli meat cheese
"1080 Lansdowne St. W, Peterborough, ON",Peterborough,705-740-9684,M&M Food Market,deli meat cheese
"732 10th Street, Hanover, ON",Hanover,519-364-7747,M&M Food Market,deli meat cheese
"478 Holland Street, Unit 2, Bradford, ON",Bradford,905-775-2982,M&M Food Market,deli meat cheese
"250 Wincott Dr, Toronto, ON",Toronto,416-247-9858,M&M Food Market,deli meat cheese
"450 Appleby Line, Burlington, ON",Burlington,905-632-1038,M&M Food Market,deli meat cheese
"774 Tower Street South, Unit 2, Fergus, ON",Fergus,519-787-1270,M&M Food Market,deli meat cheese
"353 Lake Street
Unit 19, St. Catharines, ON",St. Catharines,905-646-8812,M&M Food Market,deli meat cheese
"1 Queensgate Blvd., Unit 19, Bolton, ON",Bolton,905-951-3685,M&M Food Market,deli meat cheese
"153 Great Northern Rd., Sault Ste. Marie, ON",Sault Ste. Marie,705-256-7334,M&M Food Market,deli meat cheese
"4-3003 Danforth Ave
Shoppers World Plaza, Toronto, ON",Toronto,416-694-7634,M&M Food Market,deli meat cheese
"781 Broadway Street, Unit 2, Kincardine, ON",Kincardine,519-396-1815,M&M Food Market,deli meat cheese
"51 Simcoe Street, Tillsonburg, ON",Tillsonburg,519-842-4641,M&M Food Market,deli meat cheese
"Young King Plaza, 37 Young Street
37 Young Street, Alliston, ON",Alliston,705-435-1405,M&M Food Market,deli meat cheese
"2 Snow Road, Bancroft, ON",Bancroft,613-332-8251,M&M Food Market,deli meat cheese
"370 Kent Street West, Lindsay, ON",Lindsay,705-328-3656,M&M Food Market,deli meat cheese
"5758 Main Street, Stouffville, ON",Stouffville,905-642-9334,M&M Food Market,deli meat cheese
"4 - 2848 Laurier Street, Carrefour Lalonde
Carrefour Lalonde, Rockland, ON",Rockland,613-446-6641,M&M Food Market,deli meat cheese
"439 Government Street, Unit 8
Unit 8, Dryden, ON",Dryden,807-221-6667,M&M Food Market,deli meat cheese
"Pineview Plaza, 121 Toronto Road
121 Toronto Road, Port Hope, ON",Port Hope,905-885-9445,M&M Food Market,deli meat cheese
"355 Franktown Road, Unit 4, Beckwith Mall
Beckwith Mall, Carleton Place, ON",Carleton Place,613-257-5782,M&M Food Market,deli meat cheese
"Senic River Mall, 130 Second Street East
130 Second Street East, Fort Frances, ON",Fort Frances,807-274-4040,M&M Food Market,deli meat cheese
"975 Wallace Avenue North, Listowel, ON",Listowel,519-291-3330,M&M Food Market,deli meat cheese
"1100 Davis Drive, Newmarket, ON",Newmarket,905-836-0230,M&M Food Market,deli meat cheese
"3221 Derry Road West, Unit 9, Mississauga, ON",Mississauga,905-785-8268,M&M Food Market,deli meat cheese
"610 Lakeview Drive, Kenora, ON",Kenora,807-468-1530,M&M Food Market,deli meat cheese
"385 Tompkins Ave, Orleans, ON",Orleans,613-834-4343,M&M Food Market,deli meat cheese
"3351 Lawrence Avenue East, Scarborough, ON",Scarborough,416-431-1921,M&M Food Market,deli meat cheese
"1202 Lakeshore Rd., Sarnia, ON",Sarnia,519-542-1795,M&M Food Market,deli meat cheese
"1250 Main Street, Unit C7, Crossing Bridge Square
Crossing Bridge Square, Stittsville, ON",Stittsville,613-831-7608,M&M Food Market,deli meat cheese
"55 Northfield Dr. E., Unit 2, Northport Landing
Northport Landing, Waterloo, ON",Waterloo,519-884-8648,M&M Food Market,deli meat cheese
"Barrie View Plaza, 75 Barrie View Drive, Unit 102
75 Barrie View Drive, Unit 102, Barrie, ON",Barrie,705-725-6296,M&M Food Market,deli meat cheese
"32 Hamilton St. N., Unit 10, Village Shopping Plaza
Village Shopping Plaza, Waterdown, ON",Waterdown,905-690-4212,M&M Food Market,deli meat cheese
"250 Dundas St. Unit 9, Dundas & Franklin Plaza
Dundas & Franklin Plaza, Cambridge, ON",Cambridge,519-620-1360,M&M Food Market,deli meat cheese
"1673 Richmond St. N. Unit 20A, Masonville Plaza
Masonville Plaza, London, ON",London,519-204-7200,M&M Food Market,deli meat cheese
"2446 Bank St. #120, Towngate Shopping Centre
Towngate Shopping Centre, Ottawa, ON",Ottawa,613-260-7908,M&M Food Market,deli meat cheese
"953, rue Notre Dame, PO Box 1260, Notre Dame Plaza
Notre Dame Plaza, Embrun, ON",Embrun,613-443-0298,M&M Food Market,deli meat cheese
"1020 Ottawa St. N., Unit 109A, River Road Shopping Centre
River Road Shopping Centre, Kitchener, ON",Kitchener,519-748-9295,M&M Food Market,deli meat cheese
"595 West Street, Unit 7, Brantford, ON",Brantford,519-750-1107,M&M Food Market,deli meat cheese
"926 Paisley Road, Paisley Plaza
Paisley Plaza, Guelph, ON",Guelph,519-824-7476,M&M Food Market,deli meat cheese
"305 Boler Road, London, ON",London,519-471-4487,M&M Food Market,deli meat cheese
"Village Square Mall, 1581 Greenbank Road, Unit 11
1581 Greenbank Road, Unit 11, Nepean, ON",Nepean,613-823-8535,M&M Food Market,deli meat cheese
"400 Bayfield Street, Unit 69, Kozlov Shopping Centre
Kozlov Shopping Centre, Barrie, ON",Barrie,705-725-9954,M&M Food Market,deli meat cheese
"The Brock Taunton Plaza, 3920 Brock Street North, Unit D8
3920 Brock Street North, Unit D8, Whitby, ON",Whitby,905-668-3439,M&M Food Market,deli meat cheese
"304 Toronto St. S, Unit 2, 47 South Square
47 South Square, Uxbridge, ON",Uxbridge,905-862-0351,M&M Food Market,deli meat cheese
"140 Queen Street, Lakefield, ON",Lakefield,705-652-3221,M&M Food Market,deli meat cheese
"2026 Tenth Line Road, Unit 6, Orleans, ON",Orleans,613-830-1553,M&M Food Market,deli meat cheese
"4120 Walker Road, Windsor, ON",Windsor,519-966-7737,M&M Food Market,deli meat cheese
"540 Westforest Trail, Unit D, Kitchener, ON",Kitchener,519-741-1075,M&M Food Market,deli meat cheese
"361 King Avenue East, Unit 4
Unit 4, Newcastle, ON",Newcastle,905-987-5877,M&M Food Market,deli meat cheese
"1067 Wellington Road, Unit 107/109, London, ON",London,519-686-3999,M&M Food Market,deli meat cheese
"160 B Main Street ,North., Mount Forest, ON",Mount Forest,519-323-3202,M&M Food Market,deli meat cheese
"2868 County Road 43, Unit #2
Unit #2, Kemptville, ON",Kemptville,613-258-7979,M&M Food Market,deli meat cheese
"766 Taunton Road East, Unit 6
Unit 6, Oshawa, ON",Oshawa,905-576-2727,M&M Food Market,deli meat cheese
"110 Government Road, Kapuskasing, ON",Kapuskasing,705-335-6710,M&M Food Market,deli meat cheese
"Shoppes on Dundas, 2525 Prince Michael Drive, Unit 2B
2525 Prince Michael Drive, Unit 2B, Oakville, ON",Oakville,905-257-2412,M&M Food Market,deli meat cheese
"1695 Manning Road, RR 1, Tecumseh, ON",Tecumseh,519-735-7388,M&M Food Market,deli meat cheese
"3068 Mayfield Road, Unit 5, Brampton, ON",Brampton,905-840-6191,M&M Food Market,deli meat cheese
"25 Doxsee Avenue South, Unit 8, Campbellford, ON",Campbellford,705-653-3709,M&M Food Market,deli meat cheese
"4119 Petrolia Line, Unit 2
Unit 2, Petrolia, ON",Petrolia,519-882-4316,M&M Food Market,deli meat cheese
"5841 Malden Road, La Salle, ON",La Salle,519-969-2240,M&M Food Market,deli meat cheese
"1070 Innisfil Beach Road, Unit #8, Innisfil, ON",Innisfil,705-436-2279,M&M Food Market,deli meat cheese
"480 Hespeler Road
Unit 22, Cambridge, ON",Cambridge,519-623-5055,M&M Food Market,deli meat cheese
"39 King George Road, Canada Trust Square
Canada Trust Square, Brantford, ON",Brantford,519-752-4400,M&M Food Market,deli meat cheese
"25 Baseline Rd. W., London, ON",London,519-432-1343,M&M Food Market,deli meat cheese
"1979 Hyde Park Road, Unit 104, London, ON",London,519-472-0505,M&M Food Market,deli meat cheese
"197 Trainyards Drive, Unit 3
Unit 3, Ottawa, ON",Ottawa,613-241-9054,M&M Food Market,deli meat cheese
"8750 Bayview Avenue, Unit 17, Richmond Hill, ON",Richmond Hill,905-597-1099,M&M Food Market,deli meat cheese
"1090 Wilson Street West, unit E7
Unit 7, Ancaster, ON",Ancaster,905-648-8781,M&M Food Market,deli meat cheese
"1900 Eglinton Avenue East, Unit D20
Unit D2B, Toronto, ON",Toronto,416-752-2499,M&M Food Market,deli meat cheese
"22 Clair Road West, Unit 2, Guelph
Unit 2, Guelph, ON",Guelph,519-829-1911,M&M Food Market,deli meat cheese
"3467 Yonge Street, Toronto, ON",Toronto,16473418600,M&M Food Market,deli meat cheese
"399 Spadina Ave., Toronto, ON",Toronto,16473463399,M&M Food Market,deli meat cheese
"442 Hazeldean Rd., Unit 6, Kanata, ON",Kanata,613-836-7116,M&M Food Market,deli meat cheese
