name,cost_center,ccs,address,city,latitude,longitude,franchise,store_brand,display_brand,op_status,division_name,distance,country,url,services,franchise_brand
404,404,1,1023 Wellington Street,OTTAWA,45.4047842,-75.723925,0,Circle K,Circle K,Open,ontario,1.991161176837779,Canada,/store-ontario/Canada/ottawa/1023-wellington-street/404,"atm, coffee, polar_pop, froster",NA
610,610,0,51 BOUL. FOURNIER,GATINEAU,45.4463463,-75.7130504,0,Couche-Tard,Couche-Tard,Open,quebec,2.0775871907042087,CA,/store-locator/CA/gatineau/51-boul-fournier/610,"diesel, public_restrooms, atm, roller_grill, sloche, redbull_shop, ca_coffee",NA
1817,1817,1,395 Montreal Road,OTTAWA,45.4390492,-75.6540399,0,MACS,Mac's,Open,ontario,2.1437765512090667,Canada,/store-ontario/Canada/ottawa/395-montreal-road/1817,"gas, atm, coffee, polar_pop, froster",NA
454,454,1,437 St. Laurent Blvd.,OTTAWA,45.4473684,-75.6498646,0,Circle K,Circle K,Open,ontario,2.665715271002204,Canada,/store-ontario/Canada/ottawa/437-st-laurent-blvd/454,"atm, coffee, polar_pop, froster, roller_grill, redbull_shop",NA
1098,1098,0,480 BOUL. ST-JOSEPH,GATINEAU,45.4464211,-75.7323619,0,Couche-Tard,Couche-Tard,Open,quebec,2.7025264323014446,CA,/store-locator/CA/gatineau/480-boul-st-joseph/1098,"car_wash, diesel, public_restrooms, roller_grill, ca_coffee",NA
219,219,1,"598 Montreal Road,",OTTAWA,45.4421259,-75.6429469,0,Circle K,Circle K,Open,ontario,2.708461177130521,Canada,/store-ontario/Canada/ottawa/598-montreal-road/219,"atm, coffee, polar_pop, froster",NA
52384,52384,1,1600 Bank ST,OTTAWA,45.3777288,-75.6675807,0,Circle K,Circle K,Open,ontario,3.1819218678615795,Canada,/store-ontario/Canada/ottawa/1600-bank-st/52384,"car_wash, gas, diesel, atm, redbull_shop",NA
616,616,0,265 BOUL. SAINT-RAYMOND,GATINEAU,45.4269774,-75.7611743,0,Couche-Tard,Couche-Tard,Open,quebec,3.4764689895772958,CA,/store-locator/CA/gatineau/265-boul-saint-raymond/616,"public_restrooms, atm, roller_grill, sloche, ca_coffee",NA
1279,1279,1,256 Richmond Rd.,OTTAWA,45.393417,-75.750335,0,Circle K,Circle K,Open,ontario,3.493615144057951,Canada,/store-ontario/Canada/ottawa/256-richmond-rd/1279,"gas, diesel, atm, coffee, polar_pop, froster, roller_grill, redbull_shop",NA
68048,68048,1,"1025 Merivale Rd.,",OTTAWA,45.378943,-75.7328951,0,MACS,Mac's,Open,ontario,3.575031532963693,Canada,/store-ontario/Canada/ottawa/1025-merivale-rd/68048,"atm, coffee, polar_pop, froster, roller_grill, redbull_shop",NA
1389,1389,1,"2213 Arch St.,",OTTAWA,45.3895238,-75.6304321,0,Circle K,Circle K,Open,ontario,3.6177021295118696,Canada,/store-ontario/Canada/ottawa/2213-arch-st/1389,"atm, coffee, polar_pop, froster, roller_grill",NA
822,822,1,"780 Baseline Rd.,",OTTAWA,45.3705807,-75.7172098,0,Circle K,Circle K,Open,ontario,3.7259877892960884,Canada,/store-ontario/Canada/ottawa/780-baseline-rd/822,"atm, coffee, polar_pop, froster, roller_grill, redbull_shop",NA
487,487,1,1420 Walkley Road,OTTAWA,45.3734543,-75.6535618,0,Circle K,Circle K,Open,ontario,3.7313284990393796,Canada,/store-ontario/Canada/ottawa/1420-walkley-road/487,"atm, coffee, polar_pop, froster, roller_grill, redbull_shop",NA
68037,68037,1,"888 Meadowlands Dr. E.,",OTTAWA,45.3673081,-75.7014928,0,MACS,Mac's,Open,ontario,3.7518330484625952,Canada,/store-ontario/Canada/ottawa/888-meadowlands-dr-e/68037,"coffee, polar_pop, froster, redbull_shop",NA
52723,52723,1,1970 Walkley RD,OTTAWA,45.3829911,-75.6307413,0,Circle K,Circle K,Open,ontario,3.8949394817455936,Canada,/store-ontario/Canada/ottawa/1970-walkley-rd/52723,"EU_ROUTEX_ATLAS, EU_TRUCKDIESEL_NETWORK, car_wash, gas, diesel, atm, redbull_shop",NA
1225,1225,0,"320, BOULEVARD GREBER",GATINEAU,45.4777091,-75.7014885,0,Couche-Tard,Couche-Tard,Open,quebec,3.9579416959347706,CA,/store-locator/CA/gatineau/320-boulevard-greber/1225,"car_wash, diesel, public_restrooms, atm, redbull_shop, ca_coffee",NA
612,612,0,9 RUE DANIEL-JOHNSON,GATINEAU,45.4625748,-75.7475764,0,Couche-Tard,Couche-Tard,Open,quebec,4.005068403912596,CA,/store-locator/CA/gatineau/9-rue-daniel-johnson/612,"public_restrooms, atm, roller_grill, sloche, ca_coffee",NA
52557,52557,1,1494 Innes RD,GLOUCESTER,45.4146989,-75.6045069,0,Circle K,Circle K,Open,ontario,4.169980571072753,Canada,/store-ontario/Canada/gloucester/1494-innes-rd/52557,"car_wash, gas, diesel, atm",NA
608,608,0,4 RUE D'ORLÉANS,GATINEAU,45.4811876,-75.7009465,0,Couche-Tard,Couche-Tard,Open,quebec,4.192645471094858,CA,/store-locator/CA/gatineau/4-rue-d-orleans/608,"public_restrooms, atm, roller_grill, redbull_shop, ca_coffee",NA
609,609,0,35 RUE DU BARRY,GATINEAU,45.4810679,-75.7052333,0,Couche-Tard,Couche-Tard,Open,quebec,4.2158048804546215,CA,/store-locator/CA/gatineau/35-rue-du-barry/609,"public_restrooms, atm, roller_grill, sloche, ca_coffee",NA
68014,68014,1,"2063 Meadowbrook Rd.,",GLOUCESTER,45.427358,-75.6013072,0,Circle K,Circle K,Open,ontario,4.323815117141726,Canada,/store-ontario/Canada/gloucester/2063-meadowbrook-rd/68014,"atm, coffee, polar_pop, froster, roller_grill, redbull_shop",NA
52428,52428,1,"1859 Carling Ave.,",OTTAWA,45.376346,-75.757319,0,Circle K,Circle K,Open,ontario,4.494370161204896,Canada,/store-ontario/Canada/ottawa/1859-carling-ave/52428,"car_wash, gas, atm, coffee",NA
1017,1017,0,476 RUE GRAVELINE,GATINEAU,45.486378,-75.6687119,0,Couche-Tard,Couche-Tard,Open,quebec,4.633851430180432,CA,/store-locator/CA/gatineau/476-rue-graveline/1017,"public_restrooms, atm, roller_grill, sloche, redbull_shop, ca_coffee",NA
601,601,0,882 BOUL. SAINT-RENÉ OUEST,GATINEAU,45.4892103,-75.6893638,0,Couche-Tard,Couche-Tard,Open,quebec,4.713432497959423,CA,/store-locator/CA/gatineau/882-boul-saint-rene-ouest/601,"car_wash, diesel, public_restrooms, atm, roller_grill, ca_coffee",NA
604,604,0,585 BOUL. DES GRIVES,GATINEAU,45.4435358,-75.7859961,0,Couche-Tard,Couche-Tard,Open,quebec,4.907896412381123,CA,/store-locator/CA/gatineau/585-boul-des-grives/604,"diesel, public_restrooms, atm, roller_grill, redbull_shop, ca_coffee",NA
602,602,0,245 RUE DE CANNES,GATINEAU,45.4894734,-75.7235629,0,Couche-Tard,Couche-Tard,Open,quebec,5.003089878859898,CA,/store-locator/CA/gatineau/245-rue-de-cannes/602,"public_restrooms, roller_grill, sloche, redbull_shop, ca_coffee",NA
1227,1227,0,"410, BOUL. MALONEY EST",GATINEAU,45.4842196,-75.6392184,0,Couche-Tard,Couche-Tard,Open,quebec,5.013661581384554,CA,/store-locator/CA/gatineau/410-boul-maloney-est/1227,"diesel, public_restrooms, atm, ca_coffee",NA
52625,52625,1,2075 Montreal RD,OTTAWA,45.4480174,-75.5939265,0,Circle K,Circle K,Open,ontario,5.017900490532089,Canada,/store-ontario/Canada/ottawa/2075-montreal-rd/52625,"gas, diesel, atm, redbull_shop",NA
52527,52527,1,2100 Hunt Club RD,OTTAWA,45.3640885,-75.6201797,0,Circle K,Circle K,Open,ontario,5.192010250583862,Canada,/store-ontario/Canada/ottawa/2100-hunt-club-rd/52527,"car_wash, gas, atm",NA
600,600,0,730 BOUL. DU MONT-ROYAL,GATINEAU,45.4960625,-75.6962775,0,Couche-Tard,Couche-Tard,Open,quebec,5.195724322026934,CA,/store-locator/CA/gatineau/730-boul-du-mont-royal/600,"public_restrooms, atm, roller_grill, redbull_shop, ca_coffee",NA
52278,52278,1,1584 Merivale RD,NEPEAN,45.3502421,-75.7337817,0,Circle K,Circle K,Open,ontario,5.331679019664536,Canada,/store-ontario/Canada/nepean/1584-merivale-rd/52278,"car_wash, gas, diesel, atm, coffee, redbull_shop",NA
625,625,0,725 BOUL. DES HAUTES-PLAINES,GATINEAU,45.474538,-75.7719339,0,Couche-Tard,Couche-Tard,Open,quebec,5.426745638383937,CA,/store-locator/CA/gatineau/725-boul-des-hautes-plaines/625,"public_restrooms, atm, ca_coffee",NA
52656,52656,1,3705 Riverside DR,OTTAWA,45.3423632,-75.6904317,0,Circle K,Circle K,Open,ontario,5.433843336160619,Canada,/store-ontario/Canada/ottawa/3705-riverside-dr/52656,"car_wash, gas, atm, coffee",NA
68049,68049,1,4000 Bridle Path,GLOUCESTER,45.3483871,-75.6457041,0,Circle K,Circle K,Open,ontario,5.459285101383667,Canada,/store-ontario/Canada/gloucester/4000-bridle-path/68049,"atm, coffee, polar_pop, froster, redbull_shop",NA
68065,68065,1,"1827 Baseline Rd.,",OTTAWA,45.3547943,-75.7560522,0,Circle K,Circle K,Open,ontario,5.587229557174649,Canada,/store-ontario/Canada/ottawa/1827-baseline-rd/68065,"atm, coffee, polar_pop, froster, roller_grill, redbull_shop",NA
1137,1137,0,495 VANIER,GATINEAU,45.4161897,-75.8070988,0,Couche-Tard,Couche-Tard,Open,quebec,5.689915793868234,CA,/store-locator/CA/gatineau/495-vanier/1137,"diesel, public_restrooms, atm, roller_grill, sloche, ca_coffee",NA
627,627,0,725 RUE DAVIDSON O,GATINEAU,45.5052661,-75.6764137,0,Couche-Tard,Couche-Tard,Open,quebec,5.859848049160724,CA,/store-locator/CA/gatineau/725-rue-davidson-o/627,"diesel, public_restrooms, atm, roller_grill, ca_coffee",NA
626,626,0,630 BOUL. LABROSSE,GATINEAU,45.501143,-75.6421697,0,Couche-Tard,Couche-Tard,Open,quebec,6.0029147637443465,CA,/store-locator/CA/gatineau/630-boul-labrosse/626,"public_restrooms, atm, roller_grill, sloche, ca_coffee",NA
52536,52536,1,2162 Prince Of Wales DR,NEPEAN,45.3335779,-75.7018768,0,Circle K,Circle K,Open,ontario,6.068357023122924,Canada,/store-ontario/Canada/nepean/2162-prince-of-wales-dr/52536,"car_wash, gas, diesel, atm, polar_pop, froster, redbull_shop",NA
68079,68079,1,"2672 Innes Rd.,",GLOUCESTER,45.4320149,-75.56268,0,Circle K,Circle K,Open,ontario,6.221012361572053,Canada,/store-ontario/Canada/gloucester/2672-innes-rd/68079,"atm, coffee, polar_pop, froster, roller_grill, redbull_shop",NA
802,802,1,1402 Highgate Street,OTTAWA,45.3489085,-75.7698565,0,Circle K,Circle K,Open,ontario,6.313204416157956,Canada,/store-ontario/Canada/ottawa/1402-highgate-street/802,"atm, coffee, polar_pop, froster, roller_grill, redbull_shop",NA
1226,1226,0,873 MALONEY EST,GATINEAU,45.4882202,-75.6011971,0,Couche-Tard,Couche-Tard,Open,quebec,6.331159254568463,CA,/store-locator/CA/gatineau/873-maloney-est/1226,"car_wash, diesel, public_restrooms, atm, redbull_shop, ca_coffee",NA
1039,1039,0,511 RUE A GIBAULT,GATINEAU,45.5067038,-75.6360866,0,Couche-Tard,Couche-Tard,Open,quebec,6.472178603369263,CA,/store-locator/CA/gatineau/511-rue-a-gibault/1039,"public_restrooms, atm, roller_grill, redbull_shop, ca_coffee",NA
52287,52287,1,"1545 Woodroffe Ave.,",NEPEAN,45.3345262,-75.7517782,0,Circle K,Circle K,Open,ontario,6.686627723963754,Canada,/store-ontario/Canada/nepean/1545-woodroffe-ave/52287,"car_wash, gas, diesel, atm, coffee, polar_pop, froster",NA
1224,1224,0,"209, CHEMIN AYLMER",GATINEAU,45.3959535,-75.8322898,0,Couche-Tard,Couche-Tard,Open,quebec,7.118235837622584,CA,/store-locator/CA/gatineau/209-chemin-aylmer/1224,"diesel, public_restrooms, atm, ca_coffee",NA
1236,1236,0,209 Chemin d'Aylmer,LAVAL,45.3959535,-75.8322898,0,Couche-Tard,Couche-Tard,Open,quebec,7.118235837622584,CA,/store-locator/CA/laval/209-chemin-d-aylmer/1236,"diesel, public_restrooms, atm, ca_coffee",NA
624,624,0,348 BOUL. LORRAIN,GATINEAU,45.5069413,-75.6089149,0,Couche-Tard,Couche-Tard,Open,quebec,7.119486360941291,CA,/store-locator/CA/gatineau/348-boul-lorrain/624,"public_restrooms, atm, roller_grill, redbull_shop, ca_coffee",NA
52389,52389,1,2545 Baseline RD,OTTAWA,45.3421276,-75.7863083,0,Circle K,Circle K,Open,ontario,7.182298221690598,Canada,/store-ontario/Canada/ottawa/2545-baseline-rd/52389,"car_wash, gas, atm",NA
605,605,0,790 BOUL. WILFRID-LAVIGNE,GATINEAU,45.4110993,-75.8386017,0,Couche-Tard,Couche-Tard,Open,quebec,7.241372875006274,CA,/store-locator/CA/gatineau/790-boul-wilfrid-lavigne/605,"public_restrooms, atm, roller_grill, ca_coffee",NA
1756,1756,1,1600 Forest Valley Drive,ORLEANS,45.4488546,-75.535982,0,Circle K,Circle K,Open,ontario,7.710832416696702,Canada,/store-ontario/Canada/orleans/1600-forest-valley-drive/1756,"gas, atm, coffee, polar_pop, froster, redbull_shop",NA
52678,52678,1,"1980 St. Joseph Blvd.,",ORLEANS,45.4635594,-75.5404122,0,Circle K,Circle K,Open,ontario,7.823826795994132,Canada,/store-ontario/Canada/orleans/1980-st-joseph-blvd/52678,"car_wash, gas, diesel, atm",NA
1321,1321,0,"1051, Boulevard Lorrain",Gatineau,45.5257946,-75.626707,0,Couche-Tard,Couche-Tard,Open,quebec,7.862955800100866,CA,/store-locator/CA/gatineau/1051-boulevard-lorrain/1321,"car_wash, diesel, public_restrooms, atm, sloche, redbull_shop, ca_coffee",NA
1280,1280,1,"299 Greenbank Rd.,",NEPEAN,45.3237882,-75.7773955,0,Circle K,Circle K,Open,ontario,7.946921559812866,Canada,/store-ontario/Canada/nepean/299-greenbank-rd/1280,"gas, diesel, atm, coffee, polar_pop, froster, roller_grill, redbull_shop",NA
1051,1051,0,1545 BOUL. MALONEY EST,GATINEAU,45.4995794,-75.5691542,0,Couche-Tard,Couche-Tard,Open,quebec,7.983996563843547,CA,/store-locator/CA/gatineau/1545-boul-maloney-est/1051,"diesel, public_restrooms, atm, roller_grill, ca_coffee",NA
1816,1816,1,6469 Jeanne D'Arc Blvd North,OTTAWA,45.4802779,-75.536767,0,MACS,Mac's,Open,ontario,8.479503388205362,Canada,/store-ontario/Canada/ottawa/6469-jeanne-d-arc-blvd-north/1816,"gas, diesel, atm, coffee",NA
52327,52327,1,3869 Innes RD,ORLEANS,45.453285,-75.5121725,0,Circle K,Circle K,Open,ontario,8.904336721334682,Canada,/store-ontario/Canada/orleans/3869-innes-rd/52327,"gas, atm",NA
52655,52655,1,1856 Robertson RD,OTTAWA,45.3270832,-75.8198599,0,Circle K,Circle K,Open,ontario,9.051012786701005,Canada,/store-ontario/Canada/ottawa/1856-robertson-rd/52655,"car_wash, gas, diesel, atm, coffee",NA
1538,1538,1,"4184 Spratt Road, Unit 1",OTTAWA,45.2832373,-75.6857113,0,Circle K,Circle K,Open,ontario,9.521686178342923,Canada,/store-ontario/Canada/ottawa/4184-spratt-road-unit-1/1538,"atm, coffee, polar_pop, froster, roller_grill, redbull_shop",NA
1373,1373,1,418 Moodie Drive,NEPEAN,45.3208341,-75.8331709,0,Circle K,Circle K,Open,ontario,9.813313586222932,Canada,/store-ontario/Canada/nepean/418-moodie-drive/1373,"atm, coffee, polar_pop, froster, roller_grill, redbull_shop",NA
68062,68062,1,"385 Tompkins Ave.,",ORLEANS,45.4774353,-75.4985302,0,Circle K,Circle K,Open,ontario,10.063948409675529,Canada,/store-ontario/Canada/orleans/385-tompkins-ave/68062,"atm, coffee, polar_pop, froster, roller_grill, redbull_shop",NA
1815,1815,1,2302 Tenth Line Road,OTTAWA,45.4507803,-75.4830486,0,MACS,Mac's,Open,ontario,10.24146454115975,Canada,/store-ontario/Canada/ottawa/2302-tenth-line-road/1815,"car_wash, gas, diesel, atm, coffee, polar_pop, froster, redbull_shop",NA
52695,52695,1,3580 Strandherd RD,OTTAWA,45.274561,-75.738233,0,Circle K,Circle K,Open,ontario,10.387221596057591,Canada,/store-ontario/Canada/ottawa/3580-strandherd-rd/52695,"EU_CARWASH_JETWASH, EU_ROUTEX_ATLAS, EU_SHOWER, EU_SIMPLY_GREAT_COFFEE, EU_TRUCKDIESEL_NETWORK, EU_WIFI, EU_CARWASH, EU_GAS, EU_TRAILER_RENTAL, EU_MOBILE_PAYMENTS_CARWASH, EU_MOBILE_PAYMENTS_FUEL, car_wash, gas, atm, redbull_shop",NA
68071,68071,1,1 Tartan Dr.,NEPEAN,45.269884,-75.7540622,0,MACS,Mac's,Open,ontario,10.896992471075974,Canada,/store-ontario/Canada/nepean/1-tartan-dr/68071,"atm, coffee, polar_pop, froster",NA
1814,1814,1,1985 Trim Road,OTTAWA,45.4713098,-75.4539885,0,MACS,Mac's,Open,ontario,11.953874906904415,Canada,/store-ontario/Canada/ottawa/1985-trim-road/1814,"car_wash, gas, diesel, atm, coffee, polar_pop, froster, redbull_shop",NA
358,358,1,"1031 Teron Rd.,",KANATA,45.3305788,-75.9003508,0,MACS,Mac's,Open,ontario,11.97784527809063,Canada,/store-ontario/Canada/kanata/1031-teron-rd/358,"atm, coffee, polar_pop, froster, roller_grill, redbull_shop",NA
1339,1339,1,62 Stonehaven,KANATA,45.2923085,-75.8578066,0,Circle K,Circle K,Open,ontario,12.067600597024514,Canada,/store-ontario/Canada/kanata/62-stonehaven/1339,"atm, coffee, polar_pop, froster, roller_grill, redbull_shop",NA
68080,68080,1,"13 Kakulu Rd.,",KANATA,45.3095761,-75.8812653,0,MACS,Mac's,Open,ontario,12.069965882903052,Canada,/store-ontario/Canada/kanata/13-kakulu-rd/68080,"atm, coffee, polar_pop, froster, redbull_shop",NA
614,614,0,1225 RUE DE NEUVILLE,GATINEAU,45.5310494,-75.4960703,0,Couche-Tard,Couche-Tard,Open,quebec,12.08141460244815,CA,/store-locator/CA/gatineau/1225-rue-de-neuville/614,"public_restrooms, atm, roller_grill, redbull_shop, ca_coffee",NA
52519,52519,1,401 Hazeldean RD,KANATA,45.304242,-75.877695,0,Circle K,Circle K,Open,ontario,12.178494836671673,Canada,/store-ontario/Canada/kanata/401-hazeldean-rd/52519,"car_wash, gas, diesel, atm, redbull_shop",NA
52609,52609,1,479 March RD,KANATA,45.342126,-75.9169608,0,Circle K,Circle K,Open,ontario,12.297496751745353,Canada,/store-ontario/Canada/kanata/479-march-rd/52609,"car_wash, gas, diesel, coffee, polar_pop, froster",NA
68050,68050,1,"100 Castlefrank Rd.,",KANATA,45.293711,-75.8818123,0,MACS,Mac's,Open,ontario,12.81837787410429,Canada,/store-ontario/Canada/kanata/100-castlefrank-rd/68050,"atm, coffee, polar_pop, froster, roller_grill, redbull_shop",NA
1033,1033,0,101 RUE GEORGES,GATINEAU,45.5540846,-75.4363994,0,Couche-Tard,Couche-Tard,Open,quebec,15.334907549918977,CA,/store-locator/CA/gatineau/101-rue-georges/1033,"public_restrooms, atm, redbull_shop, ca_coffee",NA
52704,52704,1,44 Edgewater ST,KANATA,45.2975402,-75.9009766,0,Circle K,Circle K,Open,ontario,13.33993929999555,Canada,/store-ontario/Canada/kanata/44-edgewater-st/52704,"car_wash, gas, coffee, redbull_shop",NA
68044,68044,1,5511 Main Street,MANOTICK,45.2271049,-75.6861776,0,MACS,Mac's,Open,ontario,13.399442917468692,Canada,/store-ontario/Canada/manotick/5511-main-street/68044,"atm, coffee, polar_pop, froster, redbull_shop",NA
52703,52703,1,501 Terry Fox DR,KANATA,45.3101234,-75.9184265,0,Circle K,Circle K,Open,ontario,13.488414142797666,Canada,/store-ontario/Canada/kanata/501-terry-fox-dr/52703,"car_wash, gas, diesel, atm, redbull_shop",NA
68024,68024,1,1 Hobin St.,STITTSVILLE,45.2647162,-75.9292944,0,MACS,Mac's,Open,ontario,15.877115208235846,Canada,/store-ontario/Canada/stittsville/1-hobin-st/68024,"atm, coffee, polar_pop, froster, roller_grill, redbull_shop",NA
68029,68029,1,6138 Perth Street,RICHMOND,45.1938724,-75.8389807,0,Circle K,Circle K,Open,ontario,17.290300104337852,Canada,/store-ontario/Canada/richmond/6138-perth-street/68029,"atm, coffee, polar_pop, froster, roller_grill, redbull_shop",NA
1042,1042,0,175 Avenue Lépine,Buckingham,45.5758929,-75.400335,0,Couche-Tard,Couche-Tard,Open,quebec,17.631516247317673,CA,/store-locator/CA/buckingham/175-avenue-lepine/1042,"car_wash, diesel, public_restrooms, roller_grill, redbull_shop, ca_coffee",NA
1749,1749,1,9061 County Road 17,ROCKLAND,45.5454896,-75.3017648,0,Circle K,Circle K,Open,ontario,20.6648110820946,Canada,/store-ontario/Canada/rockland/9061-county-road-17/1749,"gas, diesel, atm, coffee, polar_pop, froster, roller_grill, redbull_shop",NA
1813,1813,1,715 Limoges Road,LIMOGES,45.3185145,-75.2443612,0,Circle K,Circle K,Open,ontario,22.7828715757285,Canada,/store-ontario/Canada/limoges/715-limoges-road/1813,"gas, diesel, atm, coffee, polar_pop, froster, roller_grill, redbull_shop",NA
1808,1808,1,5525 Appleton Side Road,ALMONTE,45.2367095,-76.1792507,0,Circle K,Circle K,Open,ontario,26.999549270165005,Canada,/store-ontario/Canada/almonte/5525-appleton-side-road/1808,"car_wash, gas, diesel, atm, coffee, polar_pop, froster, roller_grill, redbull_shop",NA
68034,68034,1,421 Rideau Street,KEMPTVILLE,45.0194748,-75.6506178,0,MACS,Mac's,Open,ontario,27.81200127764635,Canada,/store-ontario/Canada/kemptville/421-rideau-street/68034,"gas, atm, coffee, polar_pop, froster, redbull_shop",NA
68055,68055,1,"86 Bridge St.,                                                ",ALMONTE,45.2243153,-76.1950639,0,Circle K,Circle K,Open,ontario,28.089451463839204,Canada,/store-ontario/Canada/almonte/86-bridge-st/68055,"atm, coffee, polar_pop, froster",NA
68064,68064,1,542 St. Lawrence St.,WINCHESTER,45.0905082,-75.3523885,0,Circle K,Circle K,Open,ontario,28.157054236014492,Canada,/store-ontario/Canada/winchester/542-st-lawrence-st/68064,"atm, coffee, polar_pop, froster, redbull_shop",NA
0878001,0878001,0,324 COLEMAN ST,OTTAWA,45.139580,-76.127937,1,Circle K,Circle K,Open,franchise,28.87648677012826,US,/store-locator/US/ottawa/324-coleman-st/0878001,"gas, diesel, public_restrooms, atm, coffee, polar_pop, froster, roller_grill",CIRCLEK
52547,52547,1,10483 HWY 7,CALETON PLACE,45.1324077,-76.1211595,0,Circle K,Circle K,Open,ontario,28.97391573934237,Canada,/store-ontario/Canada/caleton-place/10483-hwy-7/52547,"gas, diesel, atm, redbull_shop",NA
1372,1372,1,"355 Franktown Rd., ",CARLETON PLACE,45.1309426,-76.1287832,0,MACS,Mac's,Open,ontario,29.314188475496458,Canada,/store-ontario/Canada/carleton-place/355-franktown-rd/1372,"atm, coffee, polar_pop, froster, redbull_shop",NA
68043,68043,1,163 Town Line W.,CARLETON PLACE,45.1405071,-76.1557846,0,MACS,Mac's,Open,ontario,29.852036838893923,Canada,/store-ontario/Canada/carleton-place/163-town-line-w/68043,"atm, coffee, polar_pop, froster, redbull_shop",NA
68042,68042,1,80 Madawaska Street,ARNPRIOR,45.4347485,-76.3555146,0,Circle K,Circle K,Open,ontario,32.28598332047761,Canada,/store-ontario/Canada/arnprior/80-madawaska-street/68042,"atm, coffee, polar_pop, froster, roller_grill, redbull_shop",NA
68077,68077,1,"395 Daniel St, South",ARNPRIOR,45.423869,-76.3688736,0,Circle K,Circle K,Open,ontario,32.92674653018759,Canada,/store-ontario/Canada/arnprior/395-daniel-st-south/68077,"gas, diesel, atm, coffee, redbull_shop",NA
68013,68013,1,45 Main Street,SMITH FALLS,44.8994917,-76.0175383,0,Circle K,Circle K,Open,ontario,39.441875713061684,Canada,/store-ontario/Canada/smith-falls/45-main-street/68013,"atm, coffee, polar_pop, froster, redbull_shop",NA
1005,1005,1,201 Brockville Street,SMITH FALLS,44.8886923,-76.0197762,0,Circle K,Circle K,Open,ontario,40.169940820519905,Canada,/store-ontario/Canada/smith-falls/201-brockville-street/1005,"gas, atm, coffee, polar_pop, froster, roller_grill, redbull_shop",NA
68007,68007,1,1 Plaza Drive,IROQUOIS,44.8496394,-75.3165388,0,MACS,Mac's,Open,ontario,43.51454895729876,Canada,/store-ontario/Canada/iroquois/1-plaza-drive/68007,"atm, coffee, polar_pop, froster, roller_grill, redbull_shop",NA
0878000,0878000,0,2375 VINCENT MASSEY DR.,CORNWALL,45.32452,-74.791311,1,Circle K,Circle K,Open,franchise,44.170094284234864,US,/store-locator/US/cornwall/2375-vincent-massey-dr/0878000,"gas, diesel, atm",CIRCLEK
68020,68020,1,14805 County Road 2,INGLESIDE,44.994547,-74.990873,0,MACS,Mac's,Open,ontario,45.11792060148887,Canada,/store-ontario/Canada/ingleside/14805-county-road-2/68020,"gas, atm, coffee, polar_pop, froster, redbull_shop",NA
1017,1017,1,139 Gore Street East,PERTH,44.897192,-76.2457625,0,Circle K,Circle K,Open,ontario,45.27937174184022,Canada,/store-ontario/Canada/perth/139-gore-street-east/1017,"atm, coffee, polar_pop, froster, redbull_shop",NA
795,795,1,32 Wilson Street,PERTH,44.9015315,-76.2544174,0,MACS,Mac's,Open,ontario,45.29592755904845,Canada,/store-ontario/Canada/perth/32-wilson-street/795,"atm, coffee, polar_pop, froster, redbull_shop",NA
1754,1754,1,100 Dufferin Street,PERTH,44.9064511,-76.2689608,0,MACS,Mac's,Open,ontario,45.46575267893936,Canada,/store-ontario/Canada/perth/100-dufferin-street/1754,"gas, diesel, atm, coffee, polar_pop, froster, roller_grill, redbull_shop",NA
1710,1710,1,629 Hwy 2,CARDINAL,44.7877637,-75.3836234,0,MACS,Mac's,Open,ontario,46.264740004460364,Canada,/store-ontario/Canada/cardinal/629-hwy-2/1710,"gas, diesel, atm, coffee, polar_pop, froster, roller_grill, redbull_shop",NA
68025,68025,1,"7 Moulinette Rd.,",LONG SAULT,45.0282336,-74.8969554,0,MACS,Mac's,Open,ontario,47.29448563863358,Canada,/store-ontario/Canada/long-sault/7-moulinette-rd/68025,"atm, coffee, polar_pop, froster, redbull_shop",NA
68054,68054,1,367 Raglan St. S.,RENFREW,45.4697778,-76.680566,0,Circle K,Circle K,Open,ontario,48.12269486731127,Canada,/store-ontario/Canada/renfrew/367-raglan-st-s/68054,"gas, diesel, atm, coffee, polar_pop, froster, roller_grill, redbull_shop",NA
1712,1712,1,8 Raglan Street South,RENFREW,45.4729179,-76.6855897,0,MACS,Mac's,Open,ontario,48.37848227800385,Canada,/store-ontario/Canada/renfrew/8-raglan-street-south/1712,"gas, atm, coffee, polar_pop, froster",NA
1818,1818,1,909 Edward Street,PRESCOTT,44.7167383,-75.5205907,0,MACS,Mac's,Open,ontario,49.3703823387905,Canada,/store-ontario/Canada/prescott/909-edward-street/1818,"gas, diesel, atm, coffee, redbull_shop",NA
68073,68073,1,297 King St. W.,PRESCOTT,44.7083254,-75.515656,0,MACS,Mac's,Open,ontario,49.9846436368228,Canada,/store-ontario/Canada/prescott/297-king-st-w/68073,"atm, coffee, polar_pop, froster, redbull_shop",NA
1707,1707,1,3250 Brookdale Avenue,CORNWALL,45.053774,-74.7758557,0,MACS,Mac's,Open,ontario,51.33664700359332,Canada,/store-ontario/Canada/cornwall/3250-brookdale-avenue/1707,"gas, diesel, atm, coffee, polar_pop, froster, redbull_shop",NA
68022,68022,1,"439 13th., Street West",CORNWALL,45.0301213,-74.7512451,0,Circle K,Circle K,Open,ontario,53.211677997157686,Canada,/store-ontario/Canada/cornwall/439-13th-street-west/68022,"gas, atm, coffee, polar_pop, froster, redbull_shop",NA
1374,1374,1,1292 Pitt St.,CORNWALL,45.033888,-74.740634,0,MACS,Mac's,Open,ontario,53.52564244533086,Canada,/store-ontario/Canada/cornwall/1292-pitt-st/1374,"atm, coffee, polar_pop, froster, redbull_shop",NA
1753,1753,1,"132 Marlborough St., North",CORNWALL,45.0208052,-74.7184484,0,Circle K,Circle K,Open,ontario,54.92576449128512,Canada,/store-ontario/Canada/cornwall/132-marlborough-st-north/1753,"gas, atm, coffee, polar_pop, froster, roller_grill, redbull_shop",NA
786,786,1,1330 Second St. East,CORNWALL,45.0267545,-74.7057897,0,Circle K,Circle K,Open,ontario,55.25270815109835,Canada,/store-ontario/Canada/cornwall/1330-second-st-east/786,"atm, coffee, polar_pop, froster, redbull_shop",NA
1809,1809,1,"578 Stewart Blvd., ",BROCKVILLE,44.6038768,-75.7151312,0,MACS,Mac's,Open,ontario,56.476749976491824,Canada,/store-ontario/Canada/brockville/578-stewart-blvd/1809,"gas, diesel, atm, coffee, polar_pop, froster",NA
68036,68036,1,250 King St. W.,BROCKVILLE,44.5867525,-75.6899956,0,Circle K,Circle K,Open,ontario,57.64650225040647,Canada,/store-ontario/Canada/brockville/250-king-st-w/68036,"gas, atm, coffee, polar_pop, froster",NA
52538,52538,1,20387 Country RD 2 South,LANCASTER,45.1345522,-74.4943888,0,Circle K,Circle K,Open,ontario,61.554153995345104,Canada,/store-ontario/Canada/lancaster/20387-country-rd-2-south/52538,"gas, diesel, atm, coffee, redbull_shop",NA
1759,1759,1,73 Concession Street,WESTPORT,44.6733127,-76.395731,0,Circle K,Circle K,Open,ontario,62.225797394505776,Canada,/store-ontario/Canada/westport/73-concession-street/1759,"gas, diesel, atm, coffee, polar_pop, froster, roller_grill, redbull_shop",NA
1315,1315,0,334 RUE DES ÉRABLES,BROWNSBURG,45.6762764,-74.4048681,0,Couche-Tard,Couche-Tard,Open,quebec,64.50968827250044,CA,/store-locator/CA/brownsburg/334-rue-des-erables/1315,"diesel, public_restrooms, atm, roller_grill, sloche, redbull_shop, ca_coffee",NA
666,666,0,419 RUE PRINCIPALE,LACHUTE,45.6566097,-74.3376917,0,Couche-Tard,Couche-Tard,Open,quebec,67.31604839719947,CA,/store-locator/CA/lachute/419-rue-principale/666,"public_restrooms, atm, roller_grill, sloche, redbull_shop, ca_coffee",NA
1045,1045,0,"100 AUTOROUTE 20, LOCAL 190",RIVIÈRE BEAUDETTE ,45.2121602,-74.3385845,0,Couche-Tard,Couche-Tard,Open,quebec,67.35458525878316,CA,/store-locator/CA/riviere-beaudette/100-autoroute-20-local-190/1045,"diesel, public_restrooms, atm, redbull_shop, ca_coffee",NA
1130,1130,0,446 Avenue Bethany,Lachute,45.6416579,-74.3288551,0,Couche-Tard,Couche-Tard,Open,quebec,67.50647049740772,CA,/store-locator/CA/lachute/446-avenue-bethany/1130,"public_restrooms, roller_grill, sloche, ca_coffee",NA
1044,1044,0,"420 CH. DE LA MAIRIE, LOCAL 190",RIGAUD,45.4766288,-74.2835519,0,Couche-Tard,Couche-Tard,Open,quebec,68.2589025348507,CA,/store-locator/CA/rigaud/420-ch-de-la-mairie-local-190/1044,"diesel, public_restrooms, atm, redbull_shop, ca_coffee",NA
1276,1276,0,"1757, ROUTE 117",MONT-TREMBLANT (ST-JOVITE),46.132029,-74.614209,0,Couche-Tard,Couche-Tard,Open,quebec,71.1909060547006,CA,/store-locator/CA/mont-tremblant-st-jovite/1757-route-117/1276,"diesel, public_restrooms, atm, ca_coffee",NA
1275,1275,0,1012 RUE DE ST-JOVITE,MONT-TREMBLANT,46.1187037,-74.5964357,0,Couche-Tard,Couche-Tard,Open,quebec,71.19174793267949,CA,/store-locator/CA/mont-tremblant/1012-rue-de-st-jovite/1275,"diesel, public_restrooms, atm, ca_coffee",NA
1706,1706,1,1751 Paul Martin Drive,PEMBROKE,45.7981831,-77.1148195,0,Circle K,Circle K,Open,ontario,73.4271379713786,Canada,/store-ontario/Canada/pembroke/1751-paul-martin-drive/1706,"gas, diesel, atm, coffee, polar_pop, froster, roller_grill, redbull_shop",NA
1293,1293,0,"2662, MONTÉE ST-CHARLES",ST-LAZARE,45.4344451,-74.1748219,0,Couche-Tard,Couche-Tard,Open,quebec,73.47998675784865,CA,/store-locator/CA/st-lazare/2662-montee-st-charles/1293,"diesel, public_restrooms, atm, redbull_shop, ca_coffee",NA
68053,68053,1,"320 Pembroke St. E.,",PEMBROKE,45.8270623,-77.1057423,0,Circle K,Circle K,Open,ontario,73.72161742490876,Canada,/store-ontario/Canada/pembroke/320-pembroke-st-e/68053,"atm, coffee, polar_pop, froster, redbull_shop",NA
887,887,1,100 Pembroke Street East,PEMBROKE,45.826092,-77.1113908,0,MACS,Mac's,Open,ontario,73.94891255968574,Canada,/store-ontario/Canada/pembroke/100-pembroke-street-east/887,"atm, coffee, polar_pop, froster, redbull_shop",NA
1452,1452,1,868 Pembroke Street West,PEMBROKE,45.8270373,-77.1351259,0,MACS,Mac's,Open,ontario,75.03136854746343,Canada,/store-ontario/Canada/pembroke/868-pembroke-street-west/1452,"atm, coffee, polar_pop, froster",NA
419,419,0,1135 BOUL. MONSEIGNEUR-LANGLOIS,SALABERRY-DE-VALLEYFIELD,45.2697226,-74.1368403,0,Couche-Tard,Couche-Tard,Open,quebec,76.25528257602187,CA,/store-locator/CA/salaberry-de-valleyfield/1135-boul-monseigneur-langlois/419,"car_wash, public_restrooms, atm, redbull_shop, ca_coffee",NA
456,456,0,298 CH. LAROCQUE,SALABERRY-DE-VALLEYFIELD,45.2463285,-74.1303049,0,Couche-Tard,Couche-Tard,Open,quebec,76.83837996568008,CA,/store-locator/CA/salaberry-de-valleyfield/298-ch-larocque/456,"atm, redbull_shop, ca_coffee",NA
653,653,0,723 CH. DU VILLAGE,MORIN-HEIGHTS,45.9041868,-74.2470624,0,Couche-Tard,Couche-Tard,Open,quebec,77.00155629450482,CA,/store-locator/CA/morin-heights/723-ch-du-village/653,"public_restrooms, atm, ca_coffee",NA
213,213,0,585 ROUTE DE LA CITÉ-DES-JEUNES,SAINT-LAZARE,45.3823457,-74.0961006,0,Couche-Tard,Couche-Tard,Open,quebec,77.40887721478886,CA,/store-locator/CA/saint-lazare/585-route-de-la-cite-des-jeunes/213,"public_restrooms, atm, redbull_shop, ca_coffee",NA
463,463,0,32 RUE CHÂTEAUGUAY,HUNTINGDON,45.089755,-74.1726169,0,Couche-Tard,Couche-Tard,Open,quebec,77.48681915323866,CA,/store-locator/CA/huntingdon/32-rue-chateauguay/463,"diesel, public_restrooms, atm, roller_grill, redbull_shop, ca_coffee",NA
1099,1099,0,395 rue des Erables,Valleyfield,45.2440873,-74.1084807,0,Couche-Tard,Couche-Tard,Open,quebec,77.91434560890211,CA,/store-locator/CA/valleyfield/395-rue-des-erables/1099,"redbull_shop, ca_coffee",NA
1144,1144,0,3170 Monseigneur Langlois,Valleyfield,45.2718463,-74.0988467,0,Couche-Tard,Couche-Tard,Open,quebec,78.06362802506956,CA,/store-locator/CA/valleyfield/3170-monseigneur-langlois/1144,"car_wash, roller_grill, sloche, redbull_shop, ca_coffee",NA
1245,1245,0,"853, BOUL. ALBINY-PAQUETTE",MONT-LAURIER,46.5512158,-75.4880697,0,Couche-Tard,Couche-Tard,Open,quebec,78.68529279977146,CA,/store-locator/CA/mont-laurier/853-boul-albiny-paquette/1245,"atm, ca_coffee",NA
1115,1115,0,9225 Boul St Canut ,Mirabel ,45.7067431,-74.0970975,0,Couche-Tard,Couche-Tard,Open,quebec,79.36496647901487,CA,/store-locator/CA/mirabel/9225-boul-st-canut/1115,"diesel, public_restrooms, atm, roller_grill, sloche, redbull_shop, ca_coffee",NA
1126,1126,0,"2933, de la Gare",Vaudreuil,45.3918961,-74.0541848,0,Couche-Tard,Couche-Tard,Open,quebec,79.40929956417864,CA,/store-locator/CA/vaudreuil/2933-de-la-gare/1126,"diesel, public_restrooms, atm, roller_grill, sloche, redbull_shop, ca_coffee",NA
652,652,0,145 RUE PRINCIPALE E,SAINTE-AGATHE-DES-MONTS,46.0459721,-74.2822811,0,Couche-Tard,Couche-Tard,Open,quebec,80.14929538568573,CA,/store-locator/CA/sainte-agathe-des-monts/145-rue-principale-e/652,"public_restrooms, atm, roller_grill, sloche, ca_coffee",NA
1297,1297,0,"504, AVENUE ST-CHARLES",VAUDREUIL,45.4046634,-74.0322213,0,Couche-Tard,Couche-Tard,Open,quebec,80.4394369238715,CA,/store-locator/CA/vaudreuil/504-avenue-st-charles/1297,"diesel, public_restrooms, atm, redbull_shop, ca_coffee",NA
1318,1318,0,14855 rue Dupuis,Mirabel,45.7188662,-74.0773577,0,Couche-Tard,Couche-Tard,Open,quebec,80.48175390744845,CA,/store-locator/CA/mirabel/14855-rue-dupuis/1318,"car_wash, diesel, public_restrooms, atm, roller_grill, sloche, redbull_shop, ca_coffee",NA
289,289,0,433 AV. SAINT-CHARLES,VAUDREUIL-DORION,45.4006606,-74.0275878,0,Couche-Tard,Couche-Tard,Open,quebec,80.67427906725823,CA,/store-locator/CA/vaudreuil-dorion/433-av-saint-charles/289,"atm, ca_coffee",NA
1789,1789,1,2959 Petawawa Blvd.,PETAWAWA,45.8864907,-77.2575503,0,Circle K,Circle K,Open,ontario,81.97663143500364,Canada,/store-ontario/Canada/petawawa/2959-petawawa-blvd/1789,"gas, diesel, atm, coffee, polar_pop, froster, roller_grill, redbull_shop",NA
1124,1124,0,4289 Chemin d'OKA,SAINT-JOSPEH DU LAC,45.5022707,-74.0001893,0,Couche-Tard,Couche-Tard,Open,quebec,82.03632665116082,CA,/store-locator/CA/saint-jospeh-du-lac/4289-chemin-d-oka/1124,"diesel, public_restrooms, atm, redbull_shop, ca_coffee",NA
1117,1117,0,"1349,  Québec 117",Val-David,46.0257962,-74.2147787,0,Couche-Tard,Couche-Tard,Open,quebec,82.19971024929232,CA,/store-locator/CA/val-david/1349-quebec-117/1117,"public_restrooms, roller_grill, sloche, redbull_shop, ca_coffee",NA
264,264,0,115 BOUL. CARDINAL-LÉGER,L'ÎLE-PERROT,45.381531,-73.992164,0,Couche-Tard,Couche-Tard,Open,quebec,82.45383674247984,CA,/store-locator/CA/l-ile-perrot/115-boul-cardinal-leger/264,"public_restrooms, atm, roller_grill, redbull_shop, ca_coffee",NA
1134,1134,0,720 boulevard de la salette,Saint-Jérôme,45.7903437,-74.0528187,0,Couche-Tard,Couche-Tard,Open,quebec,82.91381803754355,CA,/store-locator/CA/saint-jerome/720-boulevard-de-la-salette/1134,"car_wash, diesel, public_restrooms, atm, roller_grill, sloche, redbull_shop, ca_coffee",NA
68076,68076,1,3389 Petawa Blvd,PETAWAWA,45.8966969,-77.2808685,0,Circle K,Circle K,Open,ontario,83.27240285769838,Canada,/store-ontario/Canada/petawawa/3389-petawa-blvd/68076,"gas, atm, coffee, polar_pop, froster, redbull_shop",NA
671,671,0,955 BOUL. DE SAINTE-ADELE,SAINTE-ADÈLE,45.9506348,-74.1323394,0,Couche-Tard,Couche-Tard,Open,quebec,83.30951051821258,CA,/store-locator/CA/sainte-adele/955-boul-de-sainte-adele/671,"public_restrooms, atm, ca_coffee",NA
1043,1043,0,1050 AUTOROUTE DES LAURENTIDES,ST-JÉRÔME,45.84251,-74.0685161,0,Couche-Tard,Couche-Tard,Open,quebec,83.3156537442756,CA,/store-locator/CA/st-jerome/1050-autoroute-des-laurentides/1043,"diesel, public_restrooms, atm, redbull_shop, ca_coffee",NA
650,650,0,784 RUE DE LA STATION,PRÉVOST,45.8733735,-74.0778818,0,Couche-Tard,Couche-Tard,Open,quebec,83.62663487049957,CA,/store-locator/CA/prevost/784-rue-de-la-station/650,"public_restrooms, atm, ca_coffee",NA
679,679,0,2903 BOUL. DU CURÉ-LABELLE,PRÉVOST,45.859585,-74.0693382,0,Couche-Tard,Couche-Tard,Open,quebec,83.67621574968463,CA,/store-locator/CA/prevost/2903-boul-du-cure-labelle/679,"diesel, public_restrooms, atm, redbull_shop, ca_coffee",NA
1289,1289,0,2 RUE J-F KENNEDY,ST-JEROME,45.7615602,-74.0228961,0,Couche-Tard,Couche-Tard,Open,quebec,83.7458330885883,CA,/store-locator/CA/st-jerome/2-rue-j-f-kennedy/1289,"diesel, public_restrooms, atm, redbull_shop, ca_coffee",NA
1149,1149,0,8855 St-Jacques ,"St-Augustin, Mirabel",45.6368903,-73.9844109,0,Couche-Tard,Couche-Tard,Open,quebec,83.7497319970356,CA,/store-locator/CA/st-augustin-mirabel/8855-st-jacques/1149,"diesel, public_restrooms, atm, roller_grill, sloche, redbull_shop, ca_coffee",NA
256,256,0,50 BOUL. DON-QUICHOTTE,L'ÎLE-PERROT,45.389135,-73.9644704,0,Couche-Tard,Couche-Tard,Open,quebec,83.7705770110176,CA,/store-locator/CA/l-ile-perrot/50-boul-don-quichotte/256,"public_restrooms, atm, roller_grill, redbull_shop, ca_coffee",NA
676,676,0,10 BOUL. DE LA SALETTE,ST-JÉRÔME,45.7964558,-74.0280902,0,Couche-Tard,Couche-Tard,Open,quebec,84.16917434616636,CA,/store-locator/CA/st-jerome/10-boul-de-la-salette/676,"public_restrooms, atm, redbull_shop, ca_coffee",NA
215,215,0,56 RUE SAINTE-ANNE,SAINTE-ANNE-DE-BELLEVUE,45.4027702,-73.9495292,0,Couche-Tard,Couche-Tard,Open,quebec,84.45576541339844,CA,/store-locator/CA/sainte-anne-de-bellevue/56-rue-sainte-anne/215,"atm, redbull_shop, ca_coffee",NA
654,654,0,401 RUE SAINT-GEORGES,SAINT-JÉRÔME,45.7786376,-74.0023131,0,Couche-Tard,Couche-Tard,Open,quebec,85.01021406734239,CA,/store-locator/CA/saint-jerome/401-rue-saint-georges/654,"public_restrooms, atm, roller_grill, ca_coffee",NA
1291,1291,0,"370, BOULEVARD DES LAURENTIDES",ST-JÉRÔME (ST-ANTOINE),45.7641536,-73.9955599,0,Couche-Tard,Couche-Tard,Open,quebec,85.05755869382496,CA,/store-locator/CA/st-jerome-st-antoine/370-boulevard-des-laurentides/1291,"diesel, public_restrooms, atm, redbull_shop, ca_coffee",NA
1290,1290,0,"188, RUE BÉLANGER",ST-JEROME,45.794191,-74.0055042,0,Couche-Tard,Couche-Tard,Open,quebec,85.16066727633057,CA,/store-locator/CA/st-jerome/188-rue-belanger/1290,"diesel, public_restrooms, atm, ca_coffee",NA
1285,1285,0,"3010, CHEMIN OKA",STE-MARTHE-SUR-LE-LAC,45.5289159,-73.9344863,0,Couche-Tard,Couche-Tard,Open,quebec,85.31241212703632,CA,/store-locator/CA/ste-marthe-sur-le-lac/3010-chemin-oka/1285,"diesel, public_restrooms, atm, ca_coffee",NA
657,657,0,760 RUE BÉLANGER,SAINT-JÉRÔME,45.7953368,-73.9957407,0,Couche-Tard,Couche-Tard,Open,quebec,85.63140808962606,CA,/store-locator/CA/saint-jerome/760-rue-belanger/657,"atm, ca_coffee",NA
647,647,0,2260 RUE SCHULZ,SAINT-JÉRÔME,45.8065265,-73.9984019,0,Couche-Tard,Couche-Tard,Open,quebec,85.73069718796884,CA,/store-locator/CA/saint-jerome/2260-rue-schulz/647,"public_restrooms, atm, roller_grill, sloche, redbull_shop, ca_coffee",NA
659,659,0,520 36E AVENUE,SAINT-JÉRÔME,45.774949,-73.9814892,0,Couche-Tard,Couche-Tard,Open,quebec,85.90328448390845,CA,/store-locator/CA/saint-jerome/520-36e-avenue/659,"public_restrooms, atm, roller_grill, redbull_shop, ca_coffee",NA
156,156,0,207 BOUL. INDUSTRIEL,SAINT-EUSTACHE,45.5687486,-73.9242184,0,Couche-Tard,Couche-Tard,Open,quebec,86.03035590449382,CA,/store-locator/CA/saint-eustache/207-boul-industriel/156,"atm, redbull_shop, ca_coffee",NA
161,161,0,2700 BOUL. DES PROMENADES,DEUX-MONTAGNES,45.5413161,-73.9203666,0,Couche-Tard,Couche-Tard,Open,quebec,86.0531025014229,CA,/store-locator/CA/deux-montagnes/2700-boul-des-promenades/161,"public_restrooms, atm, roller_grill, redbull_shop, ca_coffee",NA
1079,1079,0,802 BOUL. ARTHUR SAUVE ,ST- EUSTACHE,45.5819776,-73.9228591,0,Couche-Tard,Couche-Tard,Open,quebec,86.18886306000098,CA,/store-locator/CA/st-eustache/802-boul-arthur-sauve/1079,"public_restrooms, atm, redbull_shop, ca_coffee",NA
1132,1132,0,1535 boulevard Saint-Antoine,Saint-Jérôme,45.7717951,-73.9718989,0,Couche-Tard,Couche-Tard,Open,quebec,86.28951000233879,CA,/store-locator/CA/saint-jerome/1535-boulevard-saint-antoine/1132,"diesel, public_restrooms, atm, redbull_shop, ca_coffee",NA
1770,1770,1,1636 Hwy 15,KINGSTON,44.2853067,-76.4335436,0,MACS,Mac's,Open,ontario,86.66899736679441,Canada,/store-ontario/Canada/kingston/1636-hwy-15/1770,"gas, diesel, atm, coffee, polar_pop, froster, roller_grill, redbull_shop",NA
201,201,0,19795 CH. SAINTE-MARIE,KIRKLAND,45.436828,-73.8979789,0,Couche-Tard,Couche-Tard,Open,quebec,86.90201574779687,CA,/store-locator/CA/kirkland/19795-ch-sainte-marie/201,"atm, ca_coffee",NA
1286,1286,0,"7, CHEMIN OKA",ST-EUSTACHE,45.5523316,-73.8940129,0,Couche-Tard,Couche-Tard,Open,quebec,87.38156315178459,CA,/store-locator/CA/st-eustache/7-chemin-oka/1286,"car_wash, diesel, public_restrooms, atm, redbull_shop, ca_coffee",NA
1278,1278,0,"720, CHEMIN JEAN-ADAM",PIEDMONT,"45,8898482","-74,1475114",0,Couche-Tard,Couche-Tard,Open,quebec,87.55425991609535,CA,/store-locator/CA/piedmont/720-chemin-jean-adam/1278,"car_wash, diesel, public_restrooms, atm, ca_coffee, car_wash_subscription",NA
284,284,0,459 BOUL. BEACONSFIELD,BEACONSFIELD,45.4199571,-73.880919,0,Couche-Tard,Couche-Tard,Open,quebec,87.74861555804695,CA,/store-locator/CA/beaconsfield/459-boul-beaconsfield/284,"diesel, public_restrooms, atm, ca_coffee",NA
241,241,0,4930 BOUL. SAINT-CHARLES,PIERREFONDS,45.4687658,-73.876367,0,Couche-Tard,Couche-Tard,Open,quebec,87.95526712418173,CA,/store-locator/CA/pierrefonds/4930-boul-saint-charles/241,"public_restrooms, atm, roller_grill, sloche, redbull_shop, ca_coffee",NA
291,291,0,551 BOUL. JACQUES-BIZARD,L'ÎLE-BIZARD,45.4946761,-73.8756878,0,Couche-Tard,Couche-Tard,Open,quebec,88.03314404744981,CA,/store-locator/CA/l-ile-bizard/551-boul-jacques-bizard/291,"public_restrooms, atm, redbull_shop, ca_coffee",NA
196,196,0,1031 RUE GILLES-VIGNEAULT,BLAINVILLE,45.668945,-73.8971499,0,Couche-Tard,Couche-Tard,Open,quebec,88.25605284587594,CA,/store-locator/CA/blainville/1031-rue-gilles-vigneault/196,"public_restrooms, atm",NA
178,178,0,251 25E AVENUE,SAINT-EUSTACHE,45.5761438,-73.87496,0,Couche-Tard,Couche-Tard,Open,quebec,88.44592214185037,CA,/store-locator/CA/saint-eustache/251-25e-avenue/178,"diesel, public_restrooms, atm, roller_grill, sloche, redbull_shop, ca_coffee",NA
1230,1230,0,"3671, boulevard St-Charles",Kirkland,45.4583778,-73.8638929,0,Couche-Tard,Couche-Tard,Open,quebec,88.55182245813805,CA,/store-locator/CA/kirkland/3671-boulevard-st-charles/1230,"atm, ca_coffee",NA
1271,1271,0,"15200, BOUL DE PIERREFONDS",MONTRÉAL (PIERREFONDS),45.4816354,-73.8623946,0,Couche-Tard,Couche-Tard,Open,quebec,88.64930395422746,CA,/store-locator/CA/montreal-pierrefonds/15200-boul-de-pierrefonds/1271,"diesel, public_restrooms, atm, ca_coffee",NA
1088,1088,1,106 Sutherland Drive,KINGSTON,44.268165,-76.47948,0,Circle K,Circle K,Open,ontario,88.72460341965426,Canada,/store-ontario/Canada/kingston/106-sutherland-drive/1088,"gas, atm, coffee, polar_pop, froster, roller_grill, redbull_shop",NA
426,426,0,53 RUE ELLICE,BEAUHARNOIS,45.3159298,-73.8695669,0,Couche-Tard,Couche-Tard,Open,quebec,88.75916331786578,CA,/store-locator/CA/beauharnois/53-rue-ellice/426,"atm, ca_coffee",NA
173,173,0,1059 BOUL. DU CURE-LABELLE,BLAINVILLE,45.6764569,-73.8852571,0,Couche-Tard,Couche-Tard,Open,quebec,88.90962711138897,CA,/store-locator/CA/blainville/1059-boul-du-cure-labelle/173,"public_restrooms, atm, ca_coffee",NA
1244,1244,0,8990 BOUL. DE LA GRANDE-ALLÉE,MIRABEL,45.6422566,-73.8767056,0,Couche-Tard,Couche-Tard,Open,quebec,88.93015683943923,CA,/store-locator/CA/mirabel/8990-boul-de-la-grande-allee/1244,"car_wash, diesel, public_restrooms, atm, roller_grill, sloche, redbull_shop, ca_coffee",NA
1031,1031,0,1000 BOUL. CURÉ LABELLE,BLAINVILLE,45.6751188,-73.8819054,0,Couche-Tard,Couche-Tard,Open,quebec,89.05201130999953,CA,/store-locator/CA/blainville/1000-boul-cure-labelle/1031,"diesel, public_restrooms, atm, redbull_shop, ca_coffee",NA
52544,52544,1,1185 Division ST,KINGSTON,44.2660102,-76.498101,0,Circle K,Circle K,Open,ontario,89.26791795512909,Canada,/store-ontario/Canada/kingston/1185-division-st/52544,"car_wash, gas, diesel, atm, redbull_shop",NA
285,285,0,4500 Boul Saint-Jean,DOLLARD-DES-ORMEAUX,45.4848008,-73.847011,0,Couche-Tard,Couche-Tard,Open,quebec,89.39934533958026,CA,/store-locator/CA/dollard-des-ormeaux/4500-boul-saint-jean/285,"public_restrooms, atm, sloche, redbull_shop",NA
1074,1074,0,99 AV. ELM,BEACONSFIELD,45.435863,-73.8462069,0,Couche-Tard,Couche-Tard,Open,quebec,89.41298537526126,CA,/store-locator/CA/beaconsfield/99-av-elm/1074,"public_restrooms, atm, redbull_shop, ca_coffee",NA
123,123,0,505 CH. DE LA GRANDE-COTE,SAINT-EUSTACHE,45.5864356,-73.8511905,0,Couche-Tard,Couche-Tard,Open,quebec,89.6590028319884,CA,/store-locator/CA/saint-eustache/505-ch-de-la-grande-cote/123,"public_restrooms, atm, redbull_shop, ca_coffee",NA
1223,1223,0,"4032, BOULEVARD ST-JEAN",DOLLARD-DES-ORMEAUX,45.4766908,-73.8390596,0,Couche-Tard,Couche-Tard,Open,quebec,89.77123704894993,CA,/store-locator/CA/dollard-des-ormeaux/4032-boulevard-st-jean/1223,"car_wash, diesel, public_restrooms, atm, dhl, ca_coffee",NA
278,278,0,4061 BOUL. SAINT-JEAN,DOLLARD-DES-ORMEAUX,45.4773455,-73.8383209,0,Couche-Tard,Couche-Tard,Open,quebec,89.80790704360717,CA,/store-locator/CA/dollard-des-ormeaux/4061-boul-saint-jean/278,ca_coffee,NA
150,150,0,603 BOUL. DU CURE-LABELLE,BLAINVILLE,45.6586111,-73.8574301,0,Couche-Tard,Couche-Tard,Open,quebec,90.02147264629922,CA,/store-locator/CA/blainville/603-boul-du-cure-labelle/150,"public_restrooms, atm, ca_coffee",NA
1812,1812,1,967 Sir John-a-Macdonald Blvd,KINGSTON,44.2582985,-76.5183309,0,Circle K,Circle K,Open,ontario,90.19762839651894,Canada,/store-ontario/Canada/kingston/967-sir-john-a-macdonald-blvd/1812,"car_wash, gas, diesel, atm, coffee, redbull_shop",NA
537,537,1,83 Aberfoyle Road,KINGSTON,44.2585458,-76.5218897,0,MACS,Mac's,Open,ontario,90.26253284512914,Canada,/store-ontario/Canada/kingston/83-aberfoyle-road/537,"atm, coffee, polar_pop, froster, roller_grill, redbull_shop",NA
651,651,0,2400 BOUL. SAINTE-SOPHIE,SAINTE-SOPHIE,45.8188441,-73.9024793,0,Couche-Tard,Couche-Tard,Open,quebec,90.37119504344668,CA,/store-locator/CA/sainte-sophie/2400-boul-sainte-sophie/651,"public_restrooms, atm, sloche, redbull_shop, ca_coffee",NA
159,159,0,"1000 BOUL. GRANDE-ALLÉE, BOISBRIAND, QC",BOISBRIAND,45.6142838,-73.8384447,0,Couche-Tard,Couche-Tard,Open,quebec,90.49028632441578,CA,/store-locator/CA/boisbriand/1000-boul-grande-allee-boisbriand-qc/159,"diesel, public_restrooms, ca_coffee",NA
744,744,0,20 RUE BLAINVILLE O,SAINTE-THÉRÈSE,45.6397583,-73.8431162,0,Couche-Tard,Couche-Tard,Open,quebec,90.50416394550597,CA,/store-locator/CA/sainte-therese/20-rue-blainville-o/744,"public_restrooms, atm, ca_coffee",NA
148,148,0,4001 BOUL. DAGENAIS O,LAVAL,45.5637273,-73.8298088,0,Couche-Tard,Couche-Tard,Open,quebec,90.5364519357761,CA,/store-locator/CA/laval/4001-boul-dagenais-o/148,"public_restrooms, atm, redbull_shop, ca_coffee",NA
808,808,1,451 Division Street,KINGSTON,44.241737,-76.4945091,0,Circle K,Circle K,Open,ontario,90.69964223975121,Canada,/store-ontario/Canada/kingston/451-division-street/808,"atm, coffee, polar_pop, froster, redbull_shop",NA
220,220,0,179 BOUL. HYMUS,POINTE-CLAIRE,45.4621537,-73.8171517,0,Couche-Tard,Couche-Tard,Open,quebec,90.81821832597562,CA,/store-locator/CA/pointe-claire/179-boul-hymus/220,"atm, redbull_shop, ca_coffee",NA
254,254,0,4700 BOUL. DES SOURCES,DOLLARD-DES-ORMEAUX,45.5019997,-73.8157249,0,Couche-Tard,Couche-Tard,Open,quebec,90.95101107299222,CA,/store-locator/CA/dollard-des-ormeaux/4700-boul-des-sources/254,"car_wash, diesel, public_restrooms, atm, ca_coffee",NA
129,129,0,3800 BOUL. DAGENAIS OUEST,LAVAL,45.57104,-73.820766,0,Couche-Tard,Couche-Tard,Open,quebec,91.01583368544263,CA,/store-locator/CA/laval/3800-boul-dagenais-ouest/129,"atm, ca_coffee",NA
644,644,1,490 Princess Street,KINGSTON,44.2343872,-76.4960419,0,Circle K,Circle K,Open,ontario,91.19156213107006,Canada,/store-ontario/Canada/kingston/490-princess-street/644,"atm, coffee, polar_pop, froster, roller_grill, redbull_shop",NA
66031,66031,1,196 Ontario Street,KINGSTON,44.2291401,-76.4811187,0,Circle K,Circle K,Open,ontario,91.19942090903275,Canada,/store-ontario/Canada/kingston/196-ontario-street/66031,"atm, coffee, polar_pop, froster, roller_grill, redbull_shop",NA
171,171,0,2 BOUL. DES ENTREPRISES,BOISBRIAND,45.6277144,-73.8254629,0,Couche-Tard,Couche-Tard,Open,quebec,91.23031076756276,CA,/store-locator/CA/boisbriand/2-boul-des-entreprises/171,"public_restrooms, atm, ca_coffee",NA
1222,1222,0,"4090, BOULEVARD DES SOURCES",DOLLARD-DES-ORMEAUX,45.4931986,-73.8072215,0,Couche-Tard,Couche-Tard,Open,quebec,91.3410778559197,CA,/store-locator/CA/dollard-des-ormeaux/4090-boulevard-des-sources/1222,"car_wash, diesel, public_restrooms, atm, roller_grill, sloche, dhl, redbull_shop, ca_coffee",NA
122,122,0,119 CH. GRANDE CÔTE,BOISBRIAND,45.61615,-73.8184614,0,Couche-Tard,Couche-Tard,Open,quebec,91.46170371480358,CA,/store-locator/CA/boisbriand/119-ch-grande-cote/122,"public_restrooms, atm, redbull_shop, ca_coffee",NA
1811,1811,1,434 Taylor-Kidd Blvd,KINGSTON,44.250414,-76.5544047,0,MACS,Mac's,Open,ontario,91.50692746204616,Canada,/store-ontario/Canada/kingston/434-taylor-kidd-blvd/1811,"car_wash, gas, diesel, atm, coffee, polar_pop, froster, redbull_shop",NA
1094,1094,0,3865 Boul. Des Sources ,Dollars des ormeaux,45.4907464,-73.8027152,0,Couche-Tard,Couche-Tard,Open,quebec,91.5539428137656,CA,/store-locator/CA/dollars-des-ormeaux/3865-boul-des-sources/1094,"public_restrooms, dhl, redbull_shop, ca_coffee",NA
819,819,1,357 Bath Road,KINGSTON,44.2397601,-76.5286916,0,Circle K,Circle K,Open,ontario,91.5777490029198,Canada,/store-ontario/Canada/kingston/357-bath-road/819,"gas, atm, coffee, polar_pop, froster, roller_grill, redbull_shop",NA
66032,66032,1,2814 Princess Street,KINGSTON,44.2602153,-76.5829411,0,Circle K,Circle K,Open,ontario,91.57854776172206,Canada,/store-ontario/Canada/kingston/2814-princess-street/66032,"gas, diesel, atm, coffee, polar_pop, froster, roller_grill, redbull_shop",NA
111,111,0,3395 BOUL. DAGENAIS O,LAVAL,45.578857,-73.807813,0,Couche-Tard,Couche-Tard,Open,quebec,91.688480455579,CA,/store-locator/CA/laval/3395-boul-dagenais-o/111,ca_coffee,NA
143,143,0,275 BOUL. SAMSON,LAVAL,45.5230387,-73.8010791,0,Couche-Tard,Couche-Tard,Open,quebec,91.72519392216257,CA,/store-locator/CA/laval/275-boul-samson/143,atm,NA
482,482,1,546 Bath Road,KINGSTON,44.2381906,-76.5383625,0,Circle K,Circle K,Open,ontario,91.89278439013226,Canada,/store-ontario/Canada/kingston/546-bath-road/482,"atm, coffee, polar_pop, froster, roller_grill, redbull_shop",NA
536,536,1,726 Milford Drive,KINGSTON,44.2484001,-76.5807303,0,Circle K,Circle K,Open,ontario,92.24636287082133,Canada,/store-ontario/Canada/kingston/726-milford-drive/536,"atm, coffee, polar_pop, froster, roller_grill, redbull_shop",NA
219,219,0,1856 BOUL. DES SOURCES,POINTE-CLAIRE,45.4649969,-73.786906,0,Couche-Tard,Couche-Tard,Open,quebec,92.2850817924825,CA,/store-locator/CA/pointe-claire/1856-boul-des-sources/219,"atm, redbull_shop, ca_coffee",NA
192,192,0,1170 AUTOROUTE CHOMEDEY,LAVAL,45.5336205,-73.7889383,0,Couche-Tard,Couche-Tard,Open,quebec,92.35275218968732,CA,/store-locator/CA/laval/1170-autoroute-chomedey/192,"diesel, public_restrooms, atm, redbull_shop, ca_coffee",NA
1746,1746,1,1705 Bath Road,KINGSTON,44.2371934,-76.5717858,0,Circle K,Circle K,Open,ontario,92.7219527271818,Canada,/store-ontario/Canada/kingston/1705-bath-road/1746,"gas, atm, coffee, polar_pop, froster, roller_grill, redbull_shop",NA
117,117,0,290 BOUL. MARC-AURÈLE-FORTIN,LAVAL,45.6054405,-73.7900488,0,Couche-Tard,Couche-Tard,Open,quebec,92.73300705591777,CA,/store-locator/CA/laval/290-boul-marc-aurele-fortin/117,atm,NA
1234,1234,0,"5220, RUE NOTRE-DAME",LAVAL,45.5318126,-73.7790887,0,Couche-Tard,Couche-Tard,Open,quebec,92.82042605414632,CA,/store-locator/CA/laval/5220-rue-notre-dame/1234,"diesel, public_restrooms, atm, ca_coffee",NA
144,144,0,258 BOUL. SAINTE-ROSE,LAVAL,45.6121515,-73.7893055,0,Couche-Tard,Couche-Tard,Open,quebec,92.8225665880773,CA,/store-locator/CA/laval/258-boul-sainte-rose/144,"diesel, public_restrooms, atm, ca_coffee",NA
1233,1233,0,"4575, AUTOROUTE LAVAL OUEST",LAVAL,45.5652936,-73.7803315,0,Couche-Tard,Couche-Tard,Open,quebec,92.92531738521924,CA,/store-locator/CA/laval/4575-autoroute-laval-ouest/1233,"diesel, public_restrooms, atm, roller_grill, sloche, redbull_shop, ca_coffee",NA
M7625,M7625,0,4228 STATE ROUTE 3,STAR LAKE,44.16,-75.03382,0,Circle K,Circle K,Open,greatlakes,93.00929670926351,US,/store-locator/US/star-lake/4228-state-route-3/M7625,gas,
1317,1317,0,765 ST-JEAN BAPTISTE,STE-MARTINE,45.2618982,-73.7879809,0,Couche-Tard,Couche-Tard,Open,quebec,93.16530552414837,CA,/store-locator/CA/ste-martine/765-st-jean-baptiste/1317,"diesel, public_restrooms, atm, redbull_shop, ca_coffee",NA
194,194,0,2520 BOUL. CURÉ LABELLE,LAVAL,45.5610024,-73.7730686,0,Couche-Tard,Couche-Tard,Open,quebec,93.25048564883032,CA,/store-locator/CA/laval/2520-boul-cure-labelle/194,"public_restrooms, atm, ca_coffee",NA
163,163,0,350 MONTÉE LESAGE,ROSEMÈRE,45.6500969,-73.7861799,0,Couche-Tard,Couche-Tard,Open,quebec,93.3193370793458,CA,/store-locator/CA/rosemere/350-montee-lesage/163,"public_restrooms, atm, ca_coffee",NA
1088,1088,0,"508, Boulvevard Sainte-Anne",Sainte-Anne-des-Plaines,45.7688358,-73.8171025,0,Couche-Tard,Couche-Tard,Open,quebec,93.42577575437332,CA,/store-locator/CA/sainte-anne-des-plaines/508-boulvevard-sainte-anne/1088,"car_wash, diesel, public_restrooms, roller_grill, sloche, redbull_shop, ca_coffee",NA
132,132,0,2100 BOUL. CURE-LABELLE,LAVAL,45.5568897,-73.7674588,0,Couche-Tard,Couche-Tard,Open,quebec,93.49824817772785,CA,/store-locator/CA/laval/2100-boul-cure-labelle/132,"atm, ca_coffee",NA
1114,1114,0,95 BOUL. DE GAULLE,Lorraine,45.6664808,-73.7821127,0,Couche-Tard,Couche-Tard,Open,quebec,93.68475307164323,CA,/store-locator/CA/lorraine/95-boul-de-gaulle/1114,"roller_grill, sloche",NA
452,452,0,110 RUE PRINCIPALE,CHÂTEAUGUAY,45.3584537,-73.7572168,0,Couche-Tard,Couche-Tard,Open,quebec,93.9502094267846,CA,/store-locator/CA/chateauguay/110-rue-principale/452,"atm, ca_coffee",NA
720,720,0,1100 RANG SAINT-FRANÇOIS,TERREBONNE,45.6893032,-73.7812249,0,Couche-Tard,Couche-Tard,Open,quebec,93.98827889423596,CA,/store-locator/CA/terrebonne/1100-rang-saint-francois/720,"diesel, public_restrooms, atm, roller_grill, sloche, redbull_shop, ca_coffee",NA
221,221,0,475 AV. DUMONT,DORVAL,45.4476894,-73.7510261,0,Couche-Tard,Couche-Tard,Open,quebec,94.02087055457804,CA,/store-locator/CA/dorval/475-av-dumont/221,"atm, ca_coffee",NA
1346,1346,0,"225, Chemin de la Haute-Rivière",Châteauguay,45.3455071,-73.7550022,0,Couche-Tard,Couche-Tard,Open,quebec,94.12444026912519,CA,/store-locator/CA/chateauguay/225-chemin-de-la-haute-riviere/1346,"diesel, public_restrooms, roller_grill, ca_coffee",NA
1188,1188,0,395 AVE DORVAL,DORVAL ,45.4460269,-73.7407801,0,Couche-Tard,Couche-Tard,Open,quebec,94.51812099602066,CA,/store-locator/CA/dorval/395-ave-dorval/1188,"car_wash, diesel, public_restrooms, atm, redbull_shop",NA
1235,1235,0,"6400, BOUL. DES LAURENTIDES",LAVAL,45.6376153,-73.7550179,0,Couche-Tard,Couche-Tard,Open,quebec,94.68355021020795,CA,/store-locator/CA/laval/6400-boul-des-laurentides/1235,"diesel, public_restrooms, atm, redbull_shop, ca_coffee",NA
146,146,0,800 BOUL. CHOMEDEY (PLACE LE CORBUSIER),LAVAL,45.5444468,-73.7411777,0,Couche-Tard,Couche-Tard,Open,quebec,94.70302058126721,CA,/store-locator/CA/laval/800-boul-chomedey-place-le-corbusier/146,ca_coffee,NA
141,141,0,550 BOUL. CURE-LABELLE,LAVAL,45.5371321,-73.7402259,0,Couche-Tard,Couche-Tard,Open,quebec,94.71696206104274,CA,/store-locator/CA/laval/550-boul-cure-labelle/141,"atm, ca_coffee",NA
142,142,0,5795 BOUL. DES LAURENTIDES,LAVAL,45.6302265,-73.7520925,0,Couche-Tard,Couche-Tard,Open,quebec,94.75606873946566,CA,/store-locator/CA/laval/5795-boul-des-laurentides/142,"public_restrooms, atm, ca_coffee",NA
441,441,0,53 BOUL. D'ANJOU,CHÂTEAUGUAY,45.3613852,-73.7385666,0,Couche-Tard,Couche-Tard,Open,quebec,94.84094572256772,CA,/store-locator/CA/chateauguay/53-boul-d-anjou/441,"atm, ca_coffee",NA
115,115,0,7255 BOUL. DES LAURENTIDES,LAVAL,45.6450916,-73.7530753,0,Couche-Tard,Couche-Tard,Open,quebec,94.8468754125868,CA,/store-locator/CA/laval/7255-boul-des-laurentides/115,"public_restrooms, atm, ca_coffee",NA
464,464,0,227 BOUL. MAPLE,CHÂTEAUGUAY,45.3722336,-73.73546,0,Couche-Tard,Couche-Tard,Open,quebec,94.94390540210001,CA,/store-locator/CA/chateauguay/227-boul-maple/464,"atm, ca_coffee",NA
1210,1210,0,372 Boulevard Adolphe Chapleau,Bois-des-Filion,45.6696038,-73.7550163,0,Couche-Tard,Couche-Tard,Open,quebec,95.00562280892719,CA,/store-locator/CA/bois-des-filion/372-boulevard-adolphe-chapleau/1210,"public_restrooms, atm, dhl, ca_coffee",NA
1089,1089,0,"676, boul. Saint-Jean-Baptiste",Mercier,45.3198214,-73.7392229,0,Couche-Tard,Couche-Tard,Open,quebec,95.0466082102428,CA,/store-locator/CA/mercier/676-boul-saint-jean-baptiste/1089,"public_restrooms, redbull_shop, ca_coffee",NA
106,106,0,225 BOUL. CURE-LABELLE,LAVAL,45.5371589,-73.7321337,0,Couche-Tard,Couche-Tard,Open,quebec,95.1073637573189,CA,/store-locator/CA/laval/225-boul-cure-labelle/106,"public_restrooms, atm, ca_coffee",NA
430,430,0,125 BOUL. MAPLE,CHÂTEAUGUAY,45.3640611,-73.7323787,0,Couche-Tard,Couche-Tard,Open,quebec,95.128797699682,CA,/store-locator/CA/chateauguay/125-boul-maple/430,"atm, ca_coffee",NA
475,475,0,182 BOUL. SAINT-JOSEPH,CHÂTEAUGUAY,45.3452804,-73.7336573,0,Couche-Tard,Couche-Tard,Open,quebec,95.16079206261375,CA,/store-locator/CA/chateauguay/182-boul-saint-joseph/475,"public_restrooms, atm, redbull_shop, ca_coffee",NA
131,131,0,4655 BOUL. DES LAURENTIDES,LAVAL,45.6158528,-73.7398947,0,Couche-Tard,Couche-Tard,Open,quebec,95.21701357569295,CA,/store-locator/CA/laval/4655-boul-des-laurentides/131,"atm, ca_coffee",NA
133,133,0,3150 BOUL. CARTIER O,LAVAL,45.540973,-73.7289957,0,Couche-Tard,Couche-Tard,Open,quebec,95.27487004375551,CA,/store-locator/CA/laval/3150-boul-cartier-o/133,"atm, ca_coffee",NA
113,113,0,2305 BOUL. INDUSTRIEL,LAVAL,45.5820583,-73.7318595,0,Couche-Tard,Couche-Tard,Open,quebec,95.35729996425539,CA,/store-locator/CA/laval/2305-boul-industriel/113,"public_restrooms, atm, roller_grill, sloche, redbull_shop, ca_coffee",NA
140,140,0,45 BOUL. SAINT-ELZÉAR O,LAVAL,45.6007393,-73.732043,0,Couche-Tard,Couche-Tard,Open,quebec,95.47651961332008,CA,/store-locator/CA/laval/45-boul-saint-elzear-o/140,"diesel, public_restrooms, atm, ca_coffee",NA
245,245,0,6215 BOUL. HENRI-BOURASSA O,SAINT-LAURENT,45.513727,-73.7209887,0,Couche-Tard,Couche-Tard,Open,quebec,95.56226718940276,CA,/store-locator/CA/saint-laurent/6215-boul-henri-bourassa-o/245,"public_restrooms, atm, roller_grill, sloche, ca_coffee",NA
155,155,0,285 CÔTE DE TERREBONNE,TERREBONNE,45.6771395,-73.7438878,0,Couche-Tard,Couche-Tard,Open,quebec,95.61677804528036,CA,/store-locator/CA/terrebonne/285-cote-de-terrebonne/155,"diesel, public_restrooms, atm, ca_coffee",NA
466,466,0,227 BOUL. SAINT-JEAN-BAPTISTE,CHÂTEAUGUAY,45.3490292,-73.7223165,0,Couche-Tard,Couche-Tard,Open,quebec,95.69063984521944,CA,/store-locator/CA/chateauguay/227-boul-saint-jean-baptiste/466,"public_restrooms, atm, roller_grill, ca_coffee",NA
