name,address,note,phone,lat,lng
Circle K,"1023 Wellington Street, OTTAWA, Canada","atm, coffee, polar_pop, froster",NA,45.40478419999999,-75.723925
Couche-Tard,"51 BOUL. FOURNIER, GATINEAU, CA","diesel, public_restrooms, atm, roller_grill, sloche, redbull_shop, ca_coffee",NA,45.44634629999999,-75.7130504
Mac's,"395 Montreal Road, OTTAWA, Canada","gas, atm, coffee, polar_pop, froster",NA,45.4390106,-75.6539378
Circle K,"437 St. Laurent Blvd., OTTAWA, Canada","atm, coffee, polar_pop, froster, roller_grill, redbull_shop",NA,45.44736839999999,-75.6498646
Couche-Tard,"480 BOUL. ST-JOSEPH, GATINEAU, CA","car_wash, diesel, public_restrooms, roller_grill, ca_coffee",NA,45.44642109999999,-75.7323619
Circle K,"598 Montreal Road, OTTAWA, Canada","atm, coffee, polar_pop, froster",NA,45.4421259,-75.6429469
Circle K,"1600 Bank ST, OTTAWA, Canada","car_wash, gas, diesel, atm, redbull_shop",NA,45.3781328,-75.66774579999999
Couche-Tard,"265 BOUL. SAINT-RAYMOND, GATINEAU, CA","public_restrooms, atm, roller_grill, sloche, ca_coffee",NA,45.4269423,-75.7612982
Circle K,"256 Richmond Rd., OTTAWA, Canada","gas, diesel, atm, coffee, polar_pop, froster, roller_grill, redbull_shop",NA,45.393417,-75.75033499999999
Mac's,"1025 Merivale Rd., OTTAWA, Canada","atm, coffee, polar_pop, froster, roller_grill, redbull_shop",NA,45.3789466,-75.73289820000001
Circle K,"2213 Arch St., OTTAWA, Canada","atm, coffee, polar_pop, froster, roller_grill",NA,45.3895238,-75.6304321
Circle K,"780 Baseline Rd., OTTAWA, Canada","atm, coffee, polar_pop, froster, roller_grill, redbull_shop",NA,45.3705807,-75.71720979999999
Circle K,"1420 Walkley Road, OTTAWA, Canada","atm, coffee, polar_pop, froster, roller_grill, redbull_shop",NA,45.3734543,-75.65356179999999
Mac's,"888 Meadowlands Dr. E., OTTAWA, Canada","coffee, polar_pop, froster, redbull_shop",NA,45.36712490000001,-75.7025045
Circle K,"1970 Walkley RD, OTTAWA, Canada","EU_ROUTEX_ATLAS, EU_TRUCKDIESEL_NETWORK, car_wash, gas, diesel, atm, redbull_shop",NA,45.3829499,-75.63071219999999
Couche-Tard,"320, BOULEVARD GREBER, GATINEAU, CA","car_wash, diesel, public_restrooms, atm, redbull_shop, ca_coffee",NA,45.4777091,-75.7014885
Couche-Tard,"9 RUE DANIEL-JOHNSON, GATINEAU, CA","public_restrooms, atm, roller_grill, sloche, ca_coffee",NA,45.4625748,-75.7475764
Circle K,"1494 Innes RD, GLOUCESTER, Canada","car_wash, gas, diesel, atm",NA,45.4146989,-75.60450689999999
Couche-Tard,"4 RUE D'ORLÉANS, GATINEAU, CA","public_restrooms, atm, roller_grill, redbull_shop, ca_coffee",NA,45.4811876,-75.7009465
Couche-Tard,"35 RUE DU BARRY, GATINEAU, CA","public_restrooms, atm, roller_grill, sloche, ca_coffee",NA,45.481067900000014,-75.7052333
Circle K,"2063 Meadowbrook Rd., GLOUCESTER, Canada","atm, coffee, polar_pop, froster, roller_grill, redbull_shop",NA,45.427358,-75.6013072
Circle K,"1859 Carling Ave., OTTAWA, Canada","car_wash, gas, atm, coffee",NA,45.37628489999999,-75.7573774
Couche-Tard,"476 RUE GRAVELINE, GATINEAU, CA","public_restrooms, atm, roller_grill, sloche, redbull_shop, ca_coffee",NA,45.486378,-75.6687119
Couche-Tard,"882 BOUL. SAINT-RENÉ OUEST, GATINEAU, CA","car_wash, diesel, public_restrooms, atm, roller_grill, ca_coffee",NA,45.4892103,-75.6893638
Couche-Tard,"585 BOUL. DES GRIVES, GATINEAU, CA","diesel, public_restrooms, atm, roller_grill, redbull_shop, ca_coffee",NA,45.4435358,-75.78599609999999
Couche-Tard,"245 RUE DE CANNES, GATINEAU, CA","public_restrooms, roller_grill, sloche, redbull_shop, ca_coffee",NA,45.4894734,-75.72356289999999
Couche-Tard,"410, BOUL. MALONEY EST, GATINEAU, CA","diesel, public_restrooms, atm, ca_coffee",NA,45.4842196,-75.63921839999999
Circle K,"2075 Montreal RD, OTTAWA, Canada","gas, diesel, atm, redbull_shop",NA,45.4480417,-75.59397109999999
Circle K,"2100 Hunt Club RD, OTTAWA, Canada","car_wash, gas, atm",NA,45.3640141,-75.6196172
Couche-Tard,"730 BOUL. DU MONT-ROYAL, GATINEAU, CA","public_restrooms, atm, roller_grill, redbull_shop, ca_coffee",NA,45.4960625,-75.6962775
Circle K,"1584 Merivale RD, NEPEAN, Canada","car_wash, gas, diesel, atm, coffee, redbull_shop",NA,45.3502812,-75.7336488
Couche-Tard,"725 BOUL. DES HAUTES-PLAINES, GATINEAU, CA","public_restrooms, atm, ca_coffee",NA,45.474538,-75.7719339
Circle K,"3705 Riverside DR, OTTAWA, Canada","car_wash, gas, atm, coffee",NA,45.3426999,-75.6904138
Circle K,"4000 Bridle Path, GLOUCESTER, Canada","atm, coffee, polar_pop, froster, redbull_shop",NA,45.3483871,-75.6457041
Circle K,"1827 Baseline Rd., OTTAWA, Canada","atm, coffee, polar_pop, froster, roller_grill, redbull_shop",NA,45.3548571,-75.7559696
Couche-Tard,"495 VANIER, GATINEAU, CA","diesel, public_restrooms, atm, roller_grill, sloche, ca_coffee",NA,45.4161897,-75.80709879999999
Couche-Tard,"725 RUE DAVIDSON O, GATINEAU, CA","diesel, public_restrooms, atm, roller_grill, ca_coffee",NA,45.5052661,-75.6764137
Couche-Tard,"630 BOUL. LABROSSE, GATINEAU, CA","public_restrooms, atm, roller_grill, sloche, ca_coffee",NA,45.501143,-75.6421697
Circle K,"2162 Prince Of Wales DR, NEPEAN, Canada","car_wash, gas, diesel, atm, polar_pop, froster, redbull_shop",NA,45.3333553,-75.7018235
Circle K,"2672 Innes Rd., GLOUCESTER, Canada","atm, coffee, polar_pop, froster, roller_grill, redbull_shop",NA,45.4320149,-75.56268
Circle K,"1402 Highgate Street, OTTAWA, Canada","atm, coffee, polar_pop, froster, roller_grill, redbull_shop",NA,45.3489085,-75.7698565
Couche-Tard,"873 MALONEY EST, GATINEAU, CA","car_wash, diesel, public_restrooms, atm, redbull_shop, ca_coffee",NA,45.4882202,-75.6011971
Couche-Tard,"511 RUE A GIBAULT, GATINEAU, CA","public_restrooms, atm, roller_grill, redbull_shop, ca_coffee",NA,45.5067038,-75.6360866
Circle K,"1545 Woodroffe Ave., NEPEAN, Canada","car_wash, gas, diesel, atm, coffee, polar_pop, froster",NA,45.3343192,-75.7517676
Couche-Tard,"209, CHEMIN AYLMER, GATINEAU, CA","diesel, public_restrooms, atm, ca_coffee",NA,45.3959535,-75.8322898
Couche-Tard,"209 Chemin d'Aylmer, LAVAL, CA","diesel, public_restrooms, atm, ca_coffee",NA,45.3959535,-75.8322898
Couche-Tard,"348 BOUL. LORRAIN, GATINEAU, CA","public_restrooms, atm, roller_grill, redbull_shop, ca_coffee",NA,45.5069413,-75.6089149
Circle K,"2545 Baseline RD, OTTAWA, Canada","car_wash, gas, atm",NA,45.3421276,-75.7863083
Couche-Tard,"790 BOUL. WILFRID-LAVIGNE, GATINEAU, CA","public_restrooms, atm, roller_grill, ca_coffee",NA,45.4110993,-75.8386017
Circle K,"1600 Forest Valley Drive, ORLEANS, Canada","gas, atm, coffee, polar_pop, froster, redbull_shop",NA,45.4488546,-75.53598199999999
Circle K,"1980 St. Joseph Blvd., ORLEANS, Canada","car_wash, gas, diesel, atm",NA,45.4635594,-75.54041219999999
Couche-Tard,"1051, Boulevard Lorrain, Gatineau, CA","car_wash, diesel, public_restrooms, atm, sloche, redbull_shop, ca_coffee",NA,45.5258596,-75.62634729999999
Circle K,"299 Greenbank Rd., NEPEAN, Canada","gas, diesel, atm, coffee, polar_pop, froster, roller_grill, redbull_shop",NA,45.3237882,-75.7773955
Couche-Tard,"1545 BOUL. MALONEY EST, GATINEAU, CA","diesel, public_restrooms, atm, roller_grill, ca_coffee",NA,45.49957939999999,-75.5691542
Mac's,"6469 Jeanne D'Arc Blvd North, OTTAWA, Canada","gas, diesel, atm, coffee",NA,45.4803399,-75.5370229
Circle K,"3869 Innes RD, ORLEANS, Canada","gas, atm",NA,45.4531593,-75.5120415
Circle K,"1856 Robertson RD, OTTAWA, Canada","car_wash, gas, diesel, atm, coffee",NA,45.3271403,-75.8197411
Circle K,"4184 Spratt Road, Unit 1, OTTAWA, Canada","atm, coffee, polar_pop, froster, roller_grill, redbull_shop",NA,45.2831629,-75.6855826
Circle K,"418 Moodie Drive, NEPEAN, Canada","atm, coffee, polar_pop, froster, roller_grill, redbull_shop",NA,45.3208341,-75.8331709
Circle K,"385 Tompkins Ave., ORLEANS, Canada","atm, coffee, polar_pop, froster, roller_grill, redbull_shop",NA,45.4774353,-75.49853019999999
Mac's,"2302 Tenth Line Road, OTTAWA, Canada","car_wash, gas, diesel, atm, coffee, polar_pop, froster, redbull_shop",NA,45.4507803,-75.4830486
Circle K,"3580 Strandherd RD, OTTAWA, Canada","EU_CARWASH_JETWASH, EU_ROUTEX_ATLAS, EU_SHOWER, EU_SIMPLY_GREAT_COFFEE, EU_TRUCKDIESEL_NETWORK, EU_WIFI, EU_CARWASH, EU_GAS, EU_TRAILER_RENTAL, EU_MOBILE_PAYMENTS_CARWASH, EU_MOBILE_PAYMENTS_FUEL, car_wash, gas, atm, redbull_shop",NA,45.27460079999999,-75.73853369999999
Mac's,"1 Tartan Dr., NEPEAN, Canada","atm, coffee, polar_pop, froster",NA,45.269884,-75.75406219999999
Mac's,"1985 Trim Road, OTTAWA, Canada","car_wash, gas, diesel, atm, coffee, polar_pop, froster, redbull_shop",NA,45.4713098,-75.4539885
Mac's,"1031 Teron Rd., KANATA, Canada","atm, coffee, polar_pop, froster, roller_grill, redbull_shop",NA,45.3305788,-75.9003508
Circle K,"62 Stonehaven, KANATA, Canada","atm, coffee, polar_pop, froster, roller_grill, redbull_shop",NA,45.2923085,-75.8578066
Mac's,"13 Kakulu Rd., KANATA, Canada","atm, coffee, polar_pop, froster, redbull_shop",NA,45.3095761,-75.8812653
Couche-Tard,"1225 RUE DE NEUVILLE, GATINEAU, CA","public_restrooms, atm, roller_grill, redbull_shop, ca_coffee",NA,45.5310494,-75.4960703
Circle K,"401 Hazeldean RD, KANATA, Canada","car_wash, gas, diesel, atm, redbull_shop",NA,45.3041528,-75.8776654
Circle K,"479 March RD, KANATA, Canada","car_wash, gas, diesel, coffee, polar_pop, froster",NA,45.34231519999999,-75.9171222
Mac's,"100 Castlefrank Rd., KANATA, Canada","atm, coffee, polar_pop, froster, roller_grill, redbull_shop",NA,45.2936647,-75.8816465
Couche-Tard,"101 RUE GEORGES, GATINEAU, CA","public_restrooms, atm, redbull_shop, ca_coffee",NA,45.5540846,-75.4363994
Circle K,"44 Edgewater ST, KANATA, Canada","car_wash, gas, coffee, redbull_shop",NA,45.29750929999999,-75.9009396
Mac's,"5511 Main Street, MANOTICK, Canada","atm, coffee, polar_pop, froster, redbull_shop",NA,45.2271049,-75.6861776
Circle K,"501 Terry Fox DR, KANATA, Canada","car_wash, gas, diesel, atm, redbull_shop",NA,45.3100283,-75.91804499999999
Mac's,"1 Hobin St., STITTSVILLE, Canada","atm, coffee, polar_pop, froster, roller_grill, redbull_shop",NA,45.2647162,-75.9292944
Circle K,"6138 Perth Street, RICHMOND, Canada","atm, coffee, polar_pop, froster, roller_grill, redbull_shop",NA,45.1938724,-75.8389807
Couche-Tard,"175 Avenue Lépine, Buckingham, CA","car_wash, diesel, public_restrooms, roller_grill, redbull_shop, ca_coffee",NA,45.5758929,-75.40033500000001
Circle K,"9061 County Road 17, ROCKLAND, Canada","gas, diesel, atm, coffee, polar_pop, froster, roller_grill, redbull_shop",NA,45.5454896,-75.3017648
Circle K,"715 Limoges Road, LIMOGES, Canada","gas, diesel, atm, coffee, polar_pop, froster, roller_grill, redbull_shop",NA,45.3184163,-75.2443258
Circle K,"5525 Appleton Side Road, ALMONTE, Canada","car_wash, gas, diesel, atm, coffee, polar_pop, froster, roller_grill, redbull_shop",NA,45.2367095,-76.1792507
Mac's,"421 Rideau Street, KEMPTVILLE, Canada","gas, atm, coffee, polar_pop, froster, redbull_shop",NA,45.0196507,-75.65088469999999
Circle K,"86 Bridge St., ALMONTE, Canada","atm, coffee, polar_pop, froster",NA,45.2243153,-76.1950639
Circle K,"542 St. Lawrence St., WINCHESTER, Canada","atm, coffee, polar_pop, froster, redbull_shop",NA,45.0905082,-75.3523885
Circle K,"324 COLEMAN ST, OTTAWA, US","gas, diesel, public_restrooms, atm, coffee, polar_pop, froster, roller_grill",NA,45.1395484,-76.1276438
Circle K,"10483 HWY 7, CALETON PLACE, Canada","gas, diesel, atm, redbull_shop",NA,45.13240769999999,-76.12115949999999
Mac's,"355 Franktown Rd., CARLETON PLACE, Canada","atm, coffee, polar_pop, froster, redbull_shop",NA,45.1309426,-76.1287832
Mac's,"163 Town Line W., CARLETON PLACE, Canada","atm, coffee, polar_pop, froster, redbull_shop",NA,45.1405071,-76.15578459999999
Circle K,"80 Madawaska Street, ARNPRIOR, Canada","atm, coffee, polar_pop, froster, roller_grill, redbull_shop",NA,45.4347485,-76.35551459999999
Circle K,"395 Daniel St, South, ARNPRIOR, Canada","gas, diesel, atm, coffee, redbull_shop",NA,45.423815,-76.3692219
Circle K,"45 Main Street, SMITH FALLS, Canada","atm, coffee, polar_pop, froster, redbull_shop",NA,44.8994917,-76.0175383
Circle K,"201 Brockville Street, SMITH FALLS, Canada","gas, atm, coffee, polar_pop, froster, roller_grill, redbull_shop",NA,44.8886923,-76.0197762
Mac's,"1 Plaza Drive, IROQUOIS, Canada","atm, coffee, polar_pop, froster, roller_grill, redbull_shop",NA,44.8496394,-75.3165388
Circle K,"2375 VINCENT MASSEY DR., CORNWALL, US","gas, diesel, atm",NA,45.0326499,-74.7892303
Mac's,"14805 County Road 2, INGLESIDE, Canada","gas, atm, coffee, polar_pop, froster, redbull_shop",NA,44.99416249999999,-74.9915652
Circle K,"139 Gore Street East, PERTH, Canada","atm, coffee, polar_pop, froster, redbull_shop",NA,44.897192,-76.2457625
Mac's,"32 Wilson Street, PERTH, Canada","atm, coffee, polar_pop, froster, redbull_shop",NA,44.9012895,-76.2538338
Mac's,"100 Dufferin Street, PERTH, Canada","gas, diesel, atm, coffee, polar_pop, froster, roller_grill, redbull_shop",NA,44.9064511,-76.2689608
Mac's,"629 Hwy 2, CARDINAL, Canada","gas, diesel, atm, coffee, polar_pop, froster, roller_grill, redbull_shop",NA,44.7882137,-75.3830351
Mac's,"7 Moulinette Rd., LONG SAULT, Canada","atm, coffee, polar_pop, froster, redbull_shop",NA,45.0282336,-74.8969554
Circle K,"367 Raglan St. S., RENFREW, Canada","gas, diesel, atm, coffee, polar_pop, froster, roller_grill, redbull_shop",NA,45.4697778,-76.680566
Mac's,"8 Raglan Street South, RENFREW, Canada","gas, atm, coffee, polar_pop, froster",NA,45.4729179,-76.6855897
Mac's,"909 Edward Street, PRESCOTT, Canada","gas, diesel, atm, coffee, redbull_shop",NA,44.7167482,-75.5206409
Mac's,"297 King St. W., PRESCOTT, Canada","atm, coffee, polar_pop, froster, redbull_shop",NA,44.7083263,-75.51563329999999
Barrhaven Petro-Canada,"3766 Fallowfield Rd, Nepean, ON K2J 1A1",Gas Stations,NA,45.2874346,-75.7571842
Andy’s Variety Store,"178 Meadowlands Dr W, Nepean, ON K2G 2S6",Convenience Stores,NA,45.3422601,-75.7555122
Uplands Minimart,"20 Curtis Private, Gloucester, ON K1V 7M1",Convenience Stores,NA,45.33585679999999,-75.6677476
Petro-Canada,"1431 Woodroffe Ave, Nepean, ON K2G 1V9",Gas Stations,NA,45.34262289999999,-75.7564534
Ultramar,"1 Rideau Crest, Nepean, ON K2G 6A4","Convenience Stores, Gas Stations",NA,45.28487459999999,-75.7229169
Petro-Canada,"690 Hunt Club Road, Ottawa, ON K1V 1C3",Gas Stations,NA,45.3429899,-75.669964
Discount Tobacco &amp; Grocery Shop,"5646 Manotick Main Street, Manotick, ON K4M 1B3",Convenience Stores,NA,45.2201635,-75.6768404
Esso Imperial Oil,"1660 Merivale Rd, Nepean, ON K2G 3K4",Convenience Stores,NA,45.3434663,-75.729508
Ultramar,"800 Stonehaven Drive, Ottawa, ON K2M 2Z2","Convenience Stores, Gas Stations",NA,45.2811972,-75.838223
Keyur Tuck Shop,"33 Banner Rd, Nepean, ON K2H 8V7",Convenience Stores,NA,45.3328836,-75.7864359
Apos Convenience,"2143 Carp Road RR 3, Carp, ON K0A 1L0",Convenience Stores,NA,45.2732931,-75.95351099999999
Dépanneur Rapido,"43 Front Street, Gatineau, QC J9H 4X4","Convenience Stores, Beer, Wine &amp; Spirits",NA,45.3980453,-75.8552646
Esso On the Run,"501 Terry Fox Dr, Kanata, ON K2T 1E8",Gas Stations,NA,45.3100283,-75.91804499999999
Hasty Market,"2361 Carling Avenue, Ottawa, ON K2B 8E5",Convenience Stores,NA,45.367192,-75.7790651
Ottawa South Groceteria,"435 Sunnyside Avenue, Ottawa, ON K1S 0S6",Grocery,NA,45.3916631,-75.68991749999999
Food Frenz,"2910 Carling Avenue, Ottawa, ON K2B 7J7",Convenience Stores,NA,45.35667189999999,-75.8006858
Nicholls,"3798 Dunrobin Road RR 3, Woodlawn, ON K0A 3M0",Convenience Stores,NA,45.4625561,-76.07468759999999
Byward Market News,"55 ByWard Market Sq, Ottawa, ON K1N 9C3",Grocery,NA,45.427449,-75.69236459999999
Quickie,"435 Albert Street, Ottawa, ON K1R 6G7",Convenience Stores,NA,45.4173543,-75.7067817
Depanneur Deschenes,"27 Blvd De Lucerne, Gatineau, QC J9H 1M2",Convenience Stores,NA,45.3865676,-75.80467039999999
Min-A-Mart,"158 McArthur Ave, Ottawa, ON K1L 8C9",Convenience Stores,NA,45.4306706,-75.6632267
Marché Gravelle,"29 Rue Dalhousie, Gatineau, QC J9H 4V1","Convenience Stores, Beer, Wine &amp; Spirits",NA,45.397519,-75.8501935
Zoba Convenience Store,"81 Bank St, Ottawa, ON K1P 5N2",Convenience Stores,NA,45.4208228,-75.70081119999999
Farm Boy,"1250 Stittsville Main street, Ottawa, ON K2S 1S9",Grocery,NA,45.2683251,-75.9311153
Dépanneur Taché,"390 Boulevard Alexandre-Taché, Gatineau, QC J9A 1M6","Convenience Stores, Gas Stations",NA,45.4220483,-75.7459568
Roma Confectionery,"258 Rochester St, Ottawa, ON K1R 7N1",Convenience Stores,NA,45.406023,-75.7104354
Charlies Groceteria,"220 Carruthers Avenue, Ottawa, ON K1Y 1N9","Grocery, Delis, Laundromat",NA,45.4043024,-75.7281375
Convenience Store Remac,"487 Cumberland Street, Ottawa, ON K1N 7K1",Convenience Stores,NA,45.4262919,-75.6859216
Petro Canada,"676 Somerset Street W, Ottawa, ON K1R 6P3","Gas Stations, Convenience Stores",NA,45.4112569,-75.7059129
Marcello’s,"407 Laurier Avenue W, Ottawa, ON K1R 7Y7","Buffets, Delis",NA,45.4176063,-75.7020495
Sherwood Supermarket,"111 Sherwood Drive, Ottawa, ON K1Y 3V1","Grocery, Delis",NA,45.3961984,-75.71333419999999
Di Rienzo’s,"111 Beech Street, Ottawa, ON K1S 4P1","Sandwiches, Grocery, Delis",NA,45.4000201,-75.7120537
M &amp; A Convenience Store,"178 Rideau Street, Ottawa, ON K1N 5X6",Convenience Stores,NA,45.427146,-75.68915199999999
Fas Gas &amp; Crystal Wash,"1111 Ogilvie Road, Ottawa, ON K1J 7P7",Gas Stations,NA,45.426329,-75.6323658
Mimi’s Food Market Express,"549 Gladstone Ave, Ottawa, ON K1R 6E5",Convenience Stores,NA,45.40991349999999,-75.6994313
Corner Store,"395 Montreal Road, Ottawa, ON K1L 6A8",Convenience Stores,NA,45.4390106,-75.6539378
Gateway Newstand,"50 Rideau St, Ottawa, ON K1N 9J1",Convenience Stores,NA,45.42527949999999,-75.69298189999999
Vanier Convenience Food Mart,"101 Rue Lavergne, Vanier, ON K1L 5E6",Convenience Stores,NA,45.44312739999999,-75.66524249999999
Depanne Plus Depann,"2 Rue Victoria, Gatineau, QC J8X 1Z7",Convenience Stores,NA,45.428818,-75.71582339999999
Domestic Foods,"595 Gladstone Ave, Ottawa, ON K1R 5P2","Grocery, Convenience Stores",NA,45.4092318,-75.7010511
Zesty Market,"280 Elgin St, Ottawa, ON K2P 1M2",Convenience Stores,NA,45.4174483,-75.6902436
Mike’s Corner Store,"44 Elm St, Ottawa, ON K1R 6N1",Convenience Stores,NA,45.4103193,-75.71259979999999
York Convenience Store,"180 York St, Ottawa, ON K1N 1J6",Convenience Stores,NA,45.4296856,-75.6885901
O’connor Convenience,"110 O'connor Street, Ottawa, ON K1P 5M9",Convenience Stores,NA,45.41979509999999,-75.69773459999999
Ceci Cela Convenient Store,"50 O'connor St, Ottawa, ON K1P 6L2",Convenience Stores,NA,45.4208307,-75.6989356
Ultramar,"13659 Highway 7, Carleton Place, ON","Gas Stations, Convenience Stores",NA,45.06012810000001,-76.2486928
Hasty Market,"1224 Wellington St W, Ottawa, ON K1Y 3A1","Convenience Stores, Grocery",NA,45.3997284,-75.7312123
Parkway Cafe,"66 Slater Street, Ottawa, ON K1P 5H1",Convenience Stores,NA,45.4213601,-75.6942895
Depanneur Chenier &amp; Freres,"221 Rue De Notre-Dame-De-L'ile, Gatineau, QC J8X 3T7",Convenience Stores,NA,45.4336637,-75.7108023
Maple Leaf Dairy,"249 Bridge Street, Carleton Place, ON K7C 3H3",Convenience Stores,NA,45.1421263,-76.1484897
Convenience Store Best Service,"2249 Carling Ave, Ottawa, ON K2B 7E9",Convenience Stores,NA,45.3692691,-75.7744008
North Bestone,"190 Lees Avenue, Golden Triangle, ON K1S 5S9",Convenience Stores,NA,45.4151826,-75.6697825
Darvesh Gas Grocery LCBO &amp; Beer Store,"3084 Kinburn Side Road, Kinburn, ON K0A 2H0","Gas Stations, Beer, Wine &amp; Spirits, Convenience Stores",NA,45.391489,-76.1885617
Lyndale Corner Food Mart,"60 Lyndale Avenue, Ottawa, ON K1Y 2M8",Convenience Stores,NA,45.4071673,-75.7308767
Desh Grocery,"103 Mann Ave, Ottawa, ON K1N 5Y8",Convenience Stores,NA,45.4211628,-75.67241419999999
Quickie Convenience,"2 Goldridge Drive, Ottawa, ON K2T 1C7",Convenience Stores,NA,45.316109,-75.9206246
Slater Street Market,"427 Laurier West, Ottawa, ON K1R 1B9",Convenience Stores,NA,45.4172318,-75.70258059999999
Rema Convenience Store,"1263 Wellington St W, Ottawa, ON K1Y 3A6",Convenience Stores,NA,45.39949499999999,-75.7335015
One Stop Convenience,"850 Merivale Rd, Ottawa, ON K1Z 5Z4",Convenience Stores,NA,45.38524169999999,-75.73267799999999
Petro Canada,"1856 Carling Avenue, Ottawa, ON K2A 1E3",Gas Stations,NA,45.3757622,-75.75716589999999
Variety Convenience Store,"277 Granville St, Vanier, ON K1L 6Z3",Convenience Stores,NA,45.4382601,-75.656007
Esso,"234 Christian Street, Almonte, ON K0A 1A0","Gas Stations, Convenience Stores",NA,45.2206138,-76.20469299999999
International News,"2121 Avenue Carling, Ottawa, ON K2A 1H2",Newspapers &amp; Magazines,NA,45.3731497,-75.76867940000001
Cummings Convenience Store,"969 Cummings Ave, Gloucester, ON K1J 7R9",Convenience Stores,NA,45.4320779,-75.6344962
Ultramar,"3469 Innes Rd, Orleans, ON K1C 1T1",Convenience Stores,NA,45.447056,-75.5269859
Shiv Sky Store,"1833 Riverside Dr, Ottawa, ON K1G 0E8",Convenience Stores,NA,45.4017636,-75.6668854
Auberge De La Marguerite,"141 Ch De La Montagne, Chelsea, QC J9B 1A3",Convenience Stores,NA,45.4900431,-75.88302399999999
A2Z Food Centre,"489 Rideau St, Ottawa, ON K1N 5Z5",Convenience Stores,NA,45.4317166,-75.67921609999999
Super Convenience Mart,"1-25 Tapiola Crescent, Ottawa, ON K1T 2J7",Convenience Stores,NA,45.364169,-75.64686619999999
Sammy’s Corner Confectionary,"1076 St Laurent Blvd, Ottawa, ON K1K 3B4",Convenience Stores,NA,45.4263396,-75.6388927
Royal Varity,"260 Bank Street, Ottawa, ON K2P 1X4",Convenience Stores,NA,45.4160833,-75.6971684
Chez Ti-Coune,"74 Rue Eddy, Gatineau, QC J8X 2W2","Beer, Wine &amp; Spirits, Convenience Stores",NA,45.4272761,-75.71977749999999
Ultramar,"660 Eagleson Road, Ottawa, ON K2M 1H4","Gas Stations, Convenience Stores",NA,45.2879529,-75.86862409999999
Depanneur Varietes La Source,"723 Ch Riverside RR 2, Wakefield, QC J0X 3G0","Convenience Stores, Pizza",NA,45.6337967,-75.9285854
Blue Nile Grocery Store,"168 King Edward Ave, Ottawa, ON K1N 7L3",Convenience Stores,NA,45.433828,-75.69045109999999
Depanneur Los Andes,"107 Rue Eddy, Gatineau, QC J8X 2W6",Convenience Stores,NA,45.4283697,-75.72018419999999
Chuck’s Deli &amp; Convenience,"100 Trainyards Drive, Ottawa, ON K1G 3S5","Convenience Stores, Delis",NA,45.4125374,-75.6466372
Daily Convenience,"1220 Merivale Rd, Ottawa, ON K1Z 8P2",Convenience Stores,NA,45.37171619999999,-75.7335133
Hasty Market,"596 Rideau St, Ottawa, ON K1N 6A2",Convenience Stores,NA,45.43291240000001,-75.6754193
Roberto’s Corner,"1034 Pleasant Park Rd, Ottawa, ON K1G 2A1","Delis, Italian, Sandwiches",NA,45.3953221,-75.6216341
Petro-Canada,"3095 Carling Ave, Ottawa, ON K2H 5A5","Gas Stations, Convenience Stores",NA,45.3537471,-75.8088174
Peter Tuck Shop,"1435 Prince of Wales Dr, Ottawa, ON K2C 1N5",Convenience Stores,NA,45.36918180000001,-75.70063770000002
Ultramar,"108 Blvd Greber, Gatineau, QC J8T 3P8",Convenience Stores,NA,45.46646690000001,-75.7008585
Quickie,"326-332 Bank Street, Ottawa, ON K2P 1Y1",Convenience Stores,NA,45.4142546,-75.6956649
Quickie Stores,"1386 Richmond Road, Ottawa, ON K2B 8L4",Convenience Stores,NA,45.3651059,-75.7877922
Depanneur Le Spot,"21 Rue Principale, Gatineau, QC J9H 3K9",Convenience Stores,NA,45.3945721,-75.85312979999999
Quickie,"255 Parkdale Ave, Ottawa, ON K1Y 1G1",Convenience Stores,NA,45.4049117,-75.731157
Vic’s Tuck Shop,"1375 Prince of Wales Dr, Ottawa, ON K2C 3L5",Convenience Stores,NA,45.3709943,-75.70209009999999
Shell Canada,"1548 Merivale Road, Nepean, ON K2G 3J8","Gas Stations, Convenience Stores",NA,45.3542357,-75.7361925
Riverside Service Centre,"1540 Bank St, Ottawa, ON K1H",Gas Stations,NA,45.3805255,-75.6685385
Magasin Général,"548 Chemin d'Aylmer, Gatineau, QC J9H 1B1",Convenience Stores,NA,45.3981499,-75.8114176
Depanneur Jean,"200 Rue Principale, Gatineau, QC J9H 6J4",Convenience Stores,NA,45.39471109999999,-75.83431759999999
WO Stinson &amp; Son,"4728 Bank Street, Ottawa, ON K1T 3W7","Gas Stations, Convenience Stores, Propane",NA,45.3241221,-75.5965773
Parkway Tuck Shop,"1071 Ambleside Dr, Ottawa, ON K2B 6V4",Convenience Stores,NA,45.374187,-75.7801139
Depanneur Lucie Laviolette,"329 Rue Laviolette, Gatineau, QC J8P 5Z1",Convenience Stores,NA,45.4887849,-75.6608012
Kara’s Convenience Stores,"475 Elgin St, Ottawa, ON K2P 2E6",Convenience Stores,NA,45.4126854,-75.6852682
Manor Park Convenience Store,"293 St Laurent Blvd, Ottawa, ON K1K 2Z3",Convenience Stores,NA,45.4511597,-75.6522707
Esso,"1584 Merivale Road, Nepean, ON K2G 3K1",Gas Stations,NA,45.3502812,-75.7336488
Mickey Tran Dba All Convenience,"200 Rideau Ter, Ottawa, ON K1M 0Z3",Convenience Stores,NA,45.4433902,-75.6747098
Massine’s Your Independent Grocer,"296 Bank Street, Ottawa, ON K2P 1X8",Grocery,NA,45.41498869999999,-75.6963375
Melrose Grocery Store,"1082 Wellington St W, Ottawa, ON K1Y 2Y5",Convenience Stores,NA,45.4031558,-75.7250742
Dona’s Friendly Store,"157 Cathcart St, Ottawa, ON K1N 5C1",Convenience Stores,NA,45.4336358,-75.69502299999999
Mace Concenience,"876 Montreal Rd, Ottawa, ON K1K 4L3",Convenience Stores,NA,45.4457968,-75.63015639999999
Quickie,"2 Boul Des Grives, Gatineau, QC J9A 2X1",Convenience Stores,NA,45.4418458,-75.7854505
Olympic Tuck Shop,"1170 Fisher Ave, Ottawa, ON K1Z 5R7",Convenience Stores,NA,45.3768531,-75.7208795
Depanneur Mont-Bleu,"6 Rue Georges-Bilodeau, Gatineau, QC J8Z 1V2",Convenience Stores,NA,45.4625417,-75.7480245
Brookfield Restaurant &amp; Catering,"704 Brookfield Road, Ottawa, ON K1V 6J4","Breakfast &amp; Brunch, Delis, Lebanese",NA,45.37289699999999,-75.68948209999999
Depanneur Lucerne,"15 De Lucerne Blvd, Gatineau, QC J9H 1L8",Convenience Stores,NA,45.3859613,-75.8076001
Depanneur Patry,"455 Riel Blvd, Gatineau, QC J8Z 2J8",Convenience Stores,NA,45.4648975,-75.772403
Hasty Market,"1234 Merivale Rd, Ottawa, ON K2C 4C3",Convenience Stores,NA,45.3705594,-75.73328819999999
Proprio Esso Wht,"390 Alexandre-Tache Boulevard, Gatineau, QC J9A 1M5",Convenience Stores,NA,45.4220483,-75.7459568
Esso Imperial Oil,"390 Alexandre-Tache Blvd, Gatineau, QC J9A 1M5",Convenience Stores,NA,45.4220483,-75.7459568
Purbany Enterprise,"1036 Merivale Road, Ottawa, ON K1Z 6A7",Convenience Stores,NA,45.37893529999999,-75.7334834
Mini Confectionery,"273 Montfort St, Vanier, ON K1L 5N8",Convenience Stores,NA,45.4389471,-75.6615451
Daisy Mart Beckers,"906 Shefford Road, Gloucester, ON K1J 6X4",Convenience Stores,NA,45.4523899,-75.5899417
M &amp; R Depanneur,"152 Chemin D'old Chelsea, Chelsea, QC J9B 1J3",Convenience Stores,NA,45.5033663,-75.8028978
Riverside Place Tuck Shop,"1755 Riverside Dr, Ottawa, ON K1G 3T6",Convenience Stores,NA,45.4020196,-75.66528269999999
Royal Food Market,"2895 Bank St, Gloucester, ON K1T 1N2",Convenience Stores,NA,45.3490273,-75.626724
Depanneur Karilyn,"392 Rue Main, Gatineau, QC J8P 5K7",Convenience Stores,NA,45.4918569,-75.6517171
Kowther’s Tuck Shop,"1785 Riverside Dr, Ottawa, ON K1G 3T7",Convenience Stores,NA,45.4013494,-75.6657472
Bravo Corner,"312 Bank St, Ottawa, ON K2P 1Y1",Convenience Stores,NA,45.4145679,-75.6958437
Tuck Shop,"1171 Ambleside Dr, Ottawa, ON K2B 8E1",Convenience Stores,NA,45.3725335,-75.7820876
Depanneur John,"54 Ch Vanier, Gatineau, QC J9H 1X6",Convenience Stores,NA,45.3840221,-75.8051507
Moe’s Convenience Store,"1665 Cyrville Road, Gloucester, ON K1B 3L7",Convenience Stores,NA,45.41821299999999,-75.6081073
180 Food Market,"180 Lees Ave, Ottawa, ON K1S 5P3",Convenience Stores,NA,45.4153548,-75.6708025
Convinience Maximum,"11 Springfield Road, Ottawa, ON K1M 1C8",Convenience Stores,NA,45.4402613,-75.6765958
Hasty Market,"1896 Prince Of Wales Drive, Ottawa, ON K2C 3W9",Convenience Stores,NA,45.3538415,-75.7048504
Epicerie Hulltra,"125 Rue Dumas, Gatineau, QC J8Y 2N4",Convenience Stores,NA,45.43716329999999,-75.73905169999999
Depanneur Ti-Jean Licencie,"46 Rue Dumas, Gatineau, QC J8Y 2M9",Convenience Stores,NA,45.437491,-75.735236
Proprio Labrosse,"642 Blvd Labrosse, Gatineau, QC J8R 1N2",Convenience Stores,NA,45.501931,-75.642383
Bambeeno’s Tuck Shop,"2201 Riverside Dr, Ottawa, ON K1H 8K9",Convenience Stores,NA,45.38841,-75.6745825
Pipeline Truck Stop,"Glenfield Road, Ottawa, ON K1G 5N3","Gas Stations, Convenience Stores",NA,45.3838331,-75.600742
MD Tuck Shop,"1551 Riverside Dr, Ottawa, ON K1G 4B5",Convenience Stores,NA,45.408483,-75.66271909999999
Richmond Mart,"747 Richmond Rd, Ottawa, ON K2A 0G6",Convenience Stores,NA,45.38265699999999,-75.7701135
Amjad Syed,"1016 Pleasant Park Rd, Ottawa, ON K1G 2A1",Convenience Stores,NA,45.3952009,-75.62238169999999
Depanneur Proprio,"211 Rue Gamelin, Gatineau, QC J8Y 1W2",Convenience Stores,NA,45.4431642,-75.74336050000001
Petro Canada,"Wellington, Ottawa, ON K1Y","Gas Stations, Convenience Stores",NA,45.40043970000001,-75.7300647
Dépanneur St-Étienne,"1203 Rue Saint-Louis, Gatineau, QC J8T 2M1",Convenience Stores,NA,45.4613234,-75.7017123
Quickie Convenience Stores,"119 Mann Ave, Ottawa, ON K1N 5A4",Convenience Stores,NA,45.4213501,-75.67194
Country Style,"340 Laurier Ave W, Ottawa, ON K1P 5K3",Convenience Stores,NA,45.4179829,-75.6998984
Star Convenience &amp; Fast Food,"2592 Innes Rd, Ottawa, ON K1B 4Z6",Convenience Stores,NA,45.4310038,-75.5653349
Michael’s Confectionary,"287 Somerset St E, Ottawa, ON K1N 6V7","Grocery, Convenience Stores",NA,45.42376489999999,-75.67662969999999
Beaconhill Esso,"2075 Montreal Road, Ottawa, ON K1J 6M6",Gas Stations,NA,45.4480417,-75.59397109999999
Store Homeland,"46 Garland St, Ottawa, ON K1Y 2A7",Convenience Stores,NA,45.4063636,-75.7243021
Le Val Boise,"101 Sacre-Coeur Blvd, Gatineau, QC J8X 1C7",Convenience Stores,NA,45.43800330000001,-75.71601969999999
Depanneur Olympique,"24 Lorrain Blvd, Gatineau, QC J8P 2E1",Convenience Stores,NA,45.4894117,-75.6027258
Depanneur Achbar,"191 Rue Achbar, Gatineau, QC J8P 7C1",Convenience Stores,NA,45.4849903,-75.6277027
Delta,"495 Boulevard Saint-René E, Gatineau, QC J8P 8A5",Convenience Stores,NA,45.4940384,-75.636331
Depanneur Claude Legault,"579 Rue Notre-Dame, Gatineau, QC J8P 1N1",Convenience Stores,NA,45.4810728,-75.6296602
Marche Fortier,"81 Rue Fortier, Gatineau, QC J8Y 4R9",Convenience Stores,NA,45.4430623,-75.73750729999999
Durocher Market,"200 Durocher Street, Vanier, ON K1L 7S4",Convenience Stores,NA,45.4364772,-75.6664526
Quickie Convenience Store,"64 Beechwood Avenue, Ottawa, ON K1L 8B2",Convenience Stores,NA,45.4401226,-75.6749723
Depanneur Delisle,"100 Rue Mutchmore, Gatineau, QC J8Y 6P7",Convenience Stores,NA,45.4531158,-75.73633459999999
Riverside Mart,"1335 Bank St, Ottawa, ON K1H 7X8",Convenience Stores,NA,45.3888422,-75.676649
Leduc Papineau Depann,"146 Rue Leduc, Gatineau, QC J8X 3B1",Convenience Stores,NA,45.4307896,-75.7184414
Esso,"3869 Innes Road, Orleans, ON K1C 1T1",Gas Stations,NA,45.4531593,-75.5120415
Maggy’s Mart,"8154 Jeanne D'arc Blvd N, Orleans, ON K1E 2H5",Convenience Stores,NA,45.4875472,-75.5116649
Shell Canada,"2975 Street Joseph Boulevard, Orleans, ON K1C 7C2",Gas Stations,NA,45.4759521,-75.5165493
Midori Market,"3689 Navan Rd, Ottawa, ON K4B 1H9","Pizza, Convenience Stores",NA,45.4265805,-75.48905189999999
Valentina,"110 Place D'orleans Drive, Orleans, ON K1C 2L9",Convenience Stores,NA,45.4781702,-75.5155571
Pronto Food Marts,"2688 St Joseph Blvd, Orleans, ON K1C 1G3",Convenience Stores,NA,45.4716751,-75.5228412
Franktown Grocery Gas and Pizza,"9645 Highway 15, Smiths Falls, ON K7A 4S7","Pizza, Convenience Stores, Gas Stations",NA,45.038795,-76.0594594
Orleans Food Market,"3022 St. Joseph Blvd, Orleans, ON K1E 1E2","Convenience Stores, Grocery",NA,45.4767757,-75.5135279
Le Mini Marche Le Gros DO,"791 Rue Georges, Gatineau, QC J8L 2E3",Convenience Stores,NA,45.5742234,-75.42339799999999
Depanneur Carrefour St-Louis,"121 Georges Street, Gatineau, QC J8M 1T6",Convenience Stores,NA,45.5566742,-75.435332
Depanneur L Grandmaison,"187 Rue Georges, Gatineau, QC J8M 1T6",Convenience Stores,NA,45.5616212,-75.42807719999999
Autobus Voyageur-Greyhound,"29 Ch De Montreal O, Gatineau, QC J8M 1A4",Convenience Stores,NA,45.5423896,-75.4303702
Depanneur Lamarche Enr,"945 Rue Georges, Gatineau, QC J8L 2E4","Beer, Wine &amp; Spirits, Convenience Stores",NA,45.56831529999999,-75.42476649999999
Pharmacie Shoppers Drug Mart,"1937 Boul Portobello, Orleans, ON K4A 4W9",Convenience Stores,NA,45.4680525,-75.4657987
Ultramar,"1543 Merivale Rd, Ottawa, ON K2G","Gas Stations, Convenience Stores",NA,45.3549754,-75.7354285
Metcalfe Variety,"8196 Victoria Street, Ottawa, ON K0A 2P0","Beer, Wine &amp; Spirits, Convenience Stores",NA,45.2349347,-75.4743956
Ultramar,"6500 Russell Rd, Ottawa, ON K0A 1K0",Convenience Stores,NA,45.3689882,-75.4556709
Maple Tuck Shop,"1150 Fisher Ave, Ottawa, ON K1Z 8M6",Convenience Stores,NA,45.3775357,-75.7215341
Dynes Express,"890 Dynes Rd, Ottawa, ON K2C 0G8",Convenience Stores,NA,45.3699579,-75.7046893
Depanneur 7 Jours,"422 Rue Haspect, Gatineau, QC J8L 3W7",Convenience Stores,NA,45.5794702,-75.43404869999999
Depanneur Sincennes Enr,"197 Rue Joseph, Gatineau, QC J8L 1G8",Convenience Stores,NA,45.5909776,-75.40933059999999
Depanneur Principal,"416 Av De Buckingham, Gatineau, QC J8L 2G7",Convenience Stores,NA,45.58898569999999,-75.416702
Depanneur Cool,"147 Rue Joseph, Gatineau, QC J8L 1G3",Convenience Stores,NA,45.5894016,-75.4135585
Depanneur Gibeau,"641 Rue Belanger, Gatineau, QC J8L 2N4",Convenience Stores,NA,45.5832112,-75.4101307
Depanneur Cite Des Jeunes,"300 Rue Sauve, Gatineau, QC J8L 1V4",Convenience Stores,NA,45.5840201,-75.4004338
Depanneur Mauzeroll,"563 Rue Belanger, Gatineau, QC J8L 2M7","Beer, Wine &amp; Spirits, Convenience Stores",NA,45.5861387,-75.4124781
Epicerie Elite Mauzeroll,"563 Rue Belanger, Gatineau, QC J8L 2M7","Beer, Wine &amp; Spirits, Convenience Stores",NA,45.5861387,-75.4124781
Depanneur Monast Et Fils,"106 Rue MacLaren O, Gatineau, QC J8L 1H5","Shopping, Convenience Stores",NA,45.58603859999999,-75.4212636
Brazeau Roger Marche Eclair,"130 Rue Du Progres, Gatineau, QC J8M 1T1",Convenience Stores,NA,45.52349239999999,-75.49362219999999
Ultramar Carlsbad Variety,"6500 Russel Road, Ottawa, ON K0A 1K0","Gas Stations, Convenience Stores, Beer, Wine &amp; Spirits",NA,45.3689882,-75.4556709
Ultramar Ontario,"2749 Laurier Street, Rockland, ON K4K 1A3",Convenience Stores,NA,45.5414127,-75.3008097
Depanneurs C Pelletier &amp; Fils Ltee,"1158 Maloney Blvd E, Gatineau, QC J8P 1H9",Convenience Stores,NA,45.49270809999999,-75.58530650000002
Depanneur A La Rescousse,"855 Ch De Masson, Gatineau, QC J8M 1B2",Convenience Stores,NA,45.54703809999999,-75.42178009999999
Timmy’s Convenience,"2660 Southvale Crescent, Ottawa, ON K1B 4W5",Convenience Stores,NA,45.394834,-75.61006379999999
Depanneur La Sablonniere,"10 Rue Chiasson, Gatineau, QC J8P 6V6",Convenience Stores,NA,45.4922918,-75.5974739
Kristin Mini Mart,"1090 Kristin Way, Ottawa, ON K1K 4B6",Convenience Stores,NA,45.4435482,-75.643072
Depanneur Du Marche Notre Dame,"349 Rue Notre-Dame, Gatineau, QC J8P 1L3",Convenience Stores,NA,45.481565,-75.6421503
Crosswinds Convenience,"641 Bathgate Dr, Ottawa, ON K1K 3Y3",Convenience Stores,NA,45.4465282,-75.62414980000001
Marche Guay,"165 Rue Guay, Gatineau, QC J8P 3C2",Convenience Stores,NA,45.4894883,-75.65231949999999
Depanneur Du Lac,"758 Maloney Blvd E, Gatineau, QC J8P 1G4",Convenience Stores,NA,45.4827232,-75.6200554
Depanneur Le Spot,"29 Ch De Montreal O, Gatineau, QC J8M 1A4",Convenience Stores,NA,45.5423896,-75.4303702
Mini-Marche Laurin,"515 Rue Notre-Dame, Gatineau, QC J8P 1M3",Convenience Stores,NA,45.4810331,-75.6334552
Alta Juba Supermarket,"2925 Albion Road N, Ottawa, ON K1V 8Z3",Convenience Stores,NA,45.3732236,-75.6537531
Ultramar,"9 Rue Du Barry, Gatineau, QC J8T 5Y6",Convenience Stores,NA,45.48130520000001,-75.7019712
Riverbreeze Tuck Shop,"1541 Riverside Dr, Ottawa, ON K1G 4E2",Convenience Stores,NA,45.409144,-75.662675
Rene’s Corner,"4490 Anderson Road, Carlsbad Springs, ON K0A 1K0",Convenience Stores,NA,45.3423997,-75.5249528
International News,"1980 Ogilvie Rd, Ottawa, ON K1J 9L3",Convenience Stores,NA,45.4325275,-75.6098258
Depanneur Hip,"1079 Rue Saint-Louis, Gatineau, QC J8T 2S2",Convenience Stores,NA,45.4631238,-75.6964331
Depanneur Seguin,"903 Rue Saint-Louis, Gatineau, QC J8T 2S6","Beer, Wine &amp; Spirits, Convenience Stores",NA,45.4670531,-75.68797719999999
Silver City Food Market,"1437 Ogilvie Rd, Ottawa, ON K1J 7P3",Convenience Stores,NA,45.4318679,-75.6184619
Cards &amp; Mags Plus,"25 McArthur Ave, Vanier, ON K1L 6R3",Convenience Stores,NA,45.4313724,-75.667942
A&amp;M Mart,"580 Montreal Rd, Ottawa, ON K1K","Pizza, Gas Stations",NA,45.4409854,-75.6440071
Ultramar Ltee,"3199 Hawthorne Road, Ottawa, ON K1G 3V8",Convenience Stores,NA,45.3829528,-75.6015275
Ultramar,"3199 Hawthorne Road, Ottawa, ON K1G 3V8",Convenience Stores,NA,45.3829528,-75.6015275
Charlie’s Confectionery,"119 Mann Ave, Ottawa, ON K1N 5A4",Convenience Stores,NA,45.4213501,-75.67194
Ste Anne Convenience,"308 Shakespeare St, Vanier, ON K1L 5M4",Convenience Stores,NA,45.4395184,-75.6592304
Esso Imperial Oil,"3332 McCarthy Road, Ottawa, ON K1V 0H9",Convenience Stores,NA,45.351192,-75.6702828
Pronto R J’s Convenience Store,"1119 Concession Street, Russell, ON K4R 1C8",Convenience Stores,NA,45.2578739,-75.3581913
Cambridge Food Mart,"72 Cambridge St N, Ottawa, ON K1R 7A7",Convenience Stores,NA,45.4127557,-75.70779809999999
Depanneur Miron,"723 Notre Dame Rue, Embrun, ON K0A 1W1",Convenience Stores,NA,45.2700628,-75.2933863
Pronto Food Marts,"1119 Concession Street, Russell, ON K4R 1C8",Convenience Stores,NA,45.2578739,-75.3581913
Lx &amp; Lz Variety,"440 Gloucester St, Ottawa, ON K1R 7T8",Convenience Stores,NA,45.4140798,-75.7067335
Saigon Meats &amp; Vegetables,"777 Somerset Street W, Ottawa, ON K1R 6R3","Grocery, Convenience Stores",NA,45.4100018,-75.7100384
Depanneur Cesar,"175 Saint-Joseph Blvd, Gatineau, QC J8Y 3X1",Convenience Stores,NA,45.4327744,-75.7333896
Depanneur Laval,"163 Rue Laval, Gatineau, QC J8X 3J2",Convenience Stores,NA,45.4336432,-75.7152804
Depanneur Georges,"286 Maisonneuve Blvd, Gatineau, QC J8X 3N8",Convenience Stores,NA,45.4368028,-75.7115243
India Food Centre &amp; Convenience,"1433 Wellington Street W, Ottawa, ON K1Y 2X4",Convenience Stores,NA,45.3978516,-75.7413481
Depanneur De Lorimier,"31 Rue De Lorimier, Gatineau, QC J8Y 3C8",Convenience Stores,NA,45.4296867,-75.7339246
Epicerie Loyer,"12 Rue Garneau, Gatineau, QC J8X 1R6",Convenience Stores,NA,45.4309257,-75.7256065
Le Balladeur,"5 Rue Demontigny, Gatineau, QC J8Y 4L1",Convenience Stores,NA,45.4302476,-75.7364704
Depanneur Demontigny,"74 Rue Demontigny, Gatineau, QC J8Y 4M1",Convenience Stores,NA,45.433688,-75.7359026
Depanneur J A C Line,"301 Rue Laramee, Gatineau, QC J8Y 3A1",Convenience Stores,NA,45.4318074,-75.7385142
Quickie,"127 FRONT STREET, Gatineau, Quebec, J9H 5S9",NA,819-684-1303,45.404186,-75.85545119999999
Quickie,"1166 BANK STREET, Ottawa, Ontario, K1S 3X8",NA,613-730-1113,45.392441,-75.68253059999999
Quickie,"2201 JOCKVALE ROAD, Nepean, Ontario, K2J 4J9",NA,613-825-1920,45.2758212,-75.7773042
Quickie,"56 BATH ROAD, Kingston, Ontario, K7L 1H5",NA,613-547-2487,44.2404415,-76.5138211
Quickie,"435 ALBERT STREET, Ottawa, Ontario, K1R 7X4",NA,613-232-6488,45.4173543,-75.7067817
Quickie,"64 BEECHWOOD AVENUE, Ottawa, Ontario, K1L 8B2",NA,613-744-7256,45.4401226,-75.6749723
Quickie,"163 BELL STREET NORTH, Ottawa, Ontario, K1R 7E1",NA,613-236-5054,45.4067476,-75.70567799999999
Quickie,"375 DES ÉPINETTES AVE, Cumberland, Ontario, K1E 3E6",NA,613-830-3507,45.4661877,-75.4957745
Quickie,"1275 KENSINGTON PKWY, Brockville, Ontario, K6V 6C3",NA,613-342-4221,44.6079839,-75.7130449
Quickie,"655 BRONSON AVE., Ottawa, Ontario, K1S 4E7",NA,613-238-1948,45.4034352,-75.7008307
Quickie,"700-14TH STREET WEST, Cornwall, Ontario, K6J 5M2",NA,613-932-0295,45.03051869999999,-74.7550791
Quickie,"1435 CALDWELL AVE., Ottawa, Ontario, K1Z 8L3",NA,613-729-8912,45.372816,-75.7349302
Quickie,"16 CENTRAL Avenue East, Brockville, Ontario, K6V 1W4",NA,613-345-5710,44.6025775,-75.6889108
Quickie,"1356-1366 CLYDE AVENUE, UNIT 13, Nepean, Ontario, K2C 3Z4",NA,613-422-1366,45.36224,-75.74075850000001
Quickie,"4 LORRY GREENBERG DRIVE, Ottawa, Ontario, K1G 5H6",NA,613-739-8493,45.3691281,-75.6209221
Quickie,"1 CHARTWELL AVENUE, Ottawa, Ontario, K2G 4C6",NA,613-226-7676,45.3323407,-75.7701227
Quickie,"431 DONALD STREET, Ottawa, Ontario, K1K 1L8",NA,613-748-0641,45.4284426,-75.6493299
Quickie,"9 DUBARRY STREET, Gatineau, Quebec, J8T 5Y6",NA,819-568-1544,45.48130520000001,-75.7019712
Quickie,"348 ELGIN STREET, Ottawa, Ontario, K2P 1M6",NA,613-695-7778,45.41571219999999,-75.68866539999999
Quickie,"350 VIEWMOUNT DRIVE, Ottawa, Ontario, K2E 7T5",NA,613-224-4389,45.3489862,-75.7149353
Quickie,"108 GRÉBER BLVD, Gatineau, Quebec, J8T 3P8",NA,819-561-2222,45.46646690000001,-75.7008585
Quickie,"326-332 BANK STREET, Ottawa, Ontario, K2P 1Y1",NA,613-598-0052,45.4142546,-75.6956649
Quickie,"1661 HUNT CLUB ROAD, Ottawa, Ontario, K1T 3Z3",NA,613-248-9160,45.3603146,-75.6315224
Quickie,"2 GOLDRIDGE DRIVE, Kanata, Ontario, K2T 1C7",NA,613-592-8019,45.316109,-75.9206246
Quickie,"712 NORTH RIDEAU STREET, Kemptville, Ontario, K0G 1J0",NA,613-258-3880,45.0209838,-75.6530963
Quickie,"3023 CEDARVIEW ROAD, Nepean, Ontario, K2J 4A8",NA,613-825-2458,45.2660293,-75.77139059999999
Quickie,"4505 BANK STREET, Ottawa, Ontario, K1T 3W5",NA,613-822-2301,45.331419,-75.59962449999999
Quickie,"2335 SAINT-LOUIS STREET, Gatineau, Quebec, J8V 1J2",NA,819-561-0583,45.4889033,-75.7463308
Quickie,"2 LOUISE-CAMPAGNA BLVD., Gatineau, Quebec, J9A 2X1",NA,819-772-1764,45.4304611,-75.76305839999999
Quickie,"786 Main Street, Unit 1, Gatineau, Quebec, J8R 1W7",NA,819-893-6669,45.505788,-75.65194939999999
Quickie,"151 MALONEY BLVD. EAST, Gatineau, Quebec, J8P 1B9",NA,819-663-9647,45.484042,-75.6506588
Quickie,"119 MANN AVENUE, Ottawa, Ontario, K1N 5A4",NA,613-288-0434,45.4213501,-75.67194
Quickie,"3332 McCARTHY ROAD, Ottawa, Ontario, K1V 0H9",NA,613-526-1230,45.351192,-75.6702828
Quickie,"305 ST. LAWRENCE STREET, Merrickville, Ontario, K0G 1N0",NA,613-269-3320,44.9146639,-75.83630769999999
Quickie,"207 du Mont Bleu BLVD., Gatineau, Quebec, J8Z 3G3",NA,819-770-3561,45.4604051,-75.7667381
Quickie,"255 PARKDALE AVENUE, Ottawa, Ontario, K1Y 1G1",NA,613-725-3708,45.4049117,-75.731157
Quickie,"60 WILLIAM STREET, Brockville, Ontario, K6V 4V5",NA,613-342-8482,44.5921906,-75.68844729999999
Quickie,"24 du Mont-Bleu BLVD., Gatineau, Quebec, J8Z 1J1",NA,819-771-9456,45.4629597,-75.7445284
Quickie,"361 POULIN AVENUE, Ottawa, Ontario, K2B 5V2",NA,613-829-5073,45.3630049,-75.79172969999999
Quickie,"1386 RICHMOND ROAD, Ottawa, Ontario, K2B 8L4",NA,613-820-0204,45.3651059,-75.7877922
Quickie,"490 RIDEAU STREET, Ottawa, Ontario, K1N 8L4",NA,613-789-5454,45.431362,-75.6789385
Quickie,"1 RIDEAUCREST DR., Nepean, Ontario, K2G 6A4",NA,613-823-4050,45.28487459999999,-75.7229169
Quickie,"25 SACRÉ COEUR BLVD., Gatineau, Quebec, J8X 4C5",NA,819-771-5685,45.4371129,-75.7206635
Quickie,"110 BECKWITH STREET NORTH, Smiths Falls, Ontario, K7A 2C3",NA,613-283-3394,44.90430689999999,-76.0218521
Quickie,"287A SOMERSET STREET EAST, Ottawa, Ontario, K1N 6V7",NA,613-233-0016,45.4236943,-75.6765377
Quickie,"1034 PLEASANT PARK RD, Ottawa, Ontario, K1G 2A1",NA,613-733-0985,45.3953221,-75.6216341
Quickie,"800 STONEHAVEN DRIVE, Kanata, Ontario, K2M 2Z2",NA,613-254-9413,45.2811972,-75.838223
Quickie,"487 ALEXANDRE TACHÉ BLVD., Gatineau, Quebec, J9A 1M8",NA,819-771-5338,45.4201466,-75.75272679999999
Quickie,"882 MALONEY BOULEVARD EAST, Gatineau, Quebec, J8P 1H5",NA,819-663-3525,45.4868494,-75.6028075
Quickie,"1780 HERON ROAD, Ottawa, Ontario, K1V 6A1",NA,613-737-9008,45.3802885,-75.6396287
Quickie,"915 WATTERS STREET, Cumberland, Ontario, K4A 3K5",NA,613-841-6972,45.4837088,-75.47560059999999
