name_new,address_new,note_new,phone_new,lat,lng,num,num2
International News,"2121 Avenue Carling, Ottawa, ON K2A 1H2",Newspapers &amp; Magazines,NA,45.3731497,-75.7686794,3,2
Dollarama,"2121 Carling Ave., Ottawa, ON, K2A 1H2",NA,16137616790,45.3731497,-75.7686794,3,2
Roberto’s Corner,"1034 Pleasant Park Rd, Ottawa, ON K1G 2A1","Delis, Italian, Sandwiches",NA,45.3953221,-75.6216341,2,2
Quickie,"1034 PLEASANT PARK RD, Ottawa, Ontario, K1G 2A1",NA,613-733-0985,45.3953221,-75.6216341,2,2
Canadian Tire Gas Bar,"1050 O'Brien Road, Renfrew, ON, K7V 0B4",NA,6134325821,45.4800423,-76.653916,2,2
Quickie,"110 BECKWITH STREET NORTH, Smiths Falls, Ontario, K7A 2C3",NA,613-283-3394,44.9043069,-76.0218521,2,2
Valentina,"110 Place D'orleans Drive, Orleans, ON K1C 2L9",Convenience Stores,NA,45.4781702,-75.5155571,2,2
International News,"110 Place D'orleans Drive, Orleans, ON K1C 2L9",NA,NA,45.4781702,-75.5155571,2,2
Pioneer,"1134 OGILVIE RD., GLOUCESTER, ON, K1J8V1",NA,(613) 741-8911,45.4261393,-75.6310308,2,2
Petro-Canada,"1431 Woodroffe Avenue, Nepean, Ontario, K2G1V9",NA,6132243903,45.3426229,-75.7564534,2,2
Ultramar,"1543 Merivale Road, Nepean, ON, K2G3J4",NA,(613) 225-2700,45.3549754,-75.7354285,2,2
Shell,"1548 MERIVALE ROAD, NEPEAN, Ontario, K2G 3J8",NA,+1 613 224 6313,45.3542357,-75.7361925,2,2
Canadian Tire Gas Bar,"1660 Merivale Road, Nepean, ON, K2G 3K4",NA,6132262207,45.3434663,-75.729508,2,2
Quickie,"1780 HERON ROAD, Ottawa, Ontario, K1V 6A1",NA,613-737-9008,45.3802885,-75.6396287,2,2
Pioneer,"1795 BANTREE ROAD, OTTAWA, ON, K1B4G6",NA,(613) 741-6517,45.4066167,-75.6169468,2,2
Petro-Canada,"1856 Carling Avenue, Ottawa, Ontario, K2A1E3",NA,6137296464,45.3757622,-75.7571659,2,2
Dollarama,"1980 Ogilvie Rd, Gloucester, ON, K1J9L3",NA,16137418122,45.4325275,-75.6098258,2,2
International News,"1980 Ogilvie Rd, Ottawa, ON K1J 9L3",Convenience Stores,NA,45.4325275,-75.6098258,2,2
Ultramar,"209, Chemin Aylmer, Gatineau, QC, J9H1A3",NA,(819) 684-0080,45.3959535,-75.8322898,2,2
MacEwen Elginburg,"2238 Sydenham Rd, Elginburg, ON",NA,613-546-4074,44.3171723,-76.5410449,2,2
International News,"2277 Riverside Dr, Ottawa, ON K1H 7X6",NA,NA,45.3856281,-75.6774777,2,2
Dollarama,"2277 Riverside Dr, Ottawa, ON, K1H 7X6",NA,16135235482,45.3856281,-75.6774777,2,2
ALMONTE GAS AND GROCERY CORP,"234 CHRISTIAN ST, ALMONTE, ON",NA,NA,45.2206138,-76.204693,2,2
Pronto Food Marts,"2688 St Joseph Blvd, Orleans, ON K1C 1G3",Convenience Stores,NA,45.4716751,-75.5228412,2,2
Pioneer Gas,"2688 ST. JOSEPH BLVD., ORLEANS, ON",NA,NA,45.4716751,-75.5228412,2,2
Pioneer,"2931 BANK ST., GLOUCESTER, ON, K1T1N7",NA,(613) 733-0865,45.3478896,-75.6251507,2,2
Shell,"2975 ST. JOSEPH BLVD, ORLEANS, Ontario, K1C 7C2",NA,+1 613 824 3999,45.4759521,-75.5165493,2,2
Petro-Canada,"3095 Carling Avenue, Nepean, Ontario, K2H5A5",NA,6138203300,45.3537471,-75.8088174,2,2
Ultramar,"3199 Hawthorne Road, Ottawa, ON, K1G3V8",NA,(613) 248-9319,45.3829528,-75.6015275,2,2
Circle K,"367 Raglan St. S., RENFREW, Canada","gas, diesel, atm, coffee, polar_pop, froster, roller_grill, redbull_shop",+1 613 432 7433,45.4697778,-76.680566,2,2
Petro-Canada,"3766 Fallowfield Road, Nepean, Ontario, K2J1A1",NA,6138258765,45.2874346,-75.7571842,2,2
Circle K,"395 Daniel St, South, ARNPRIOR, Canada","gas, diesel, atm, coffee, redbull_shop",+1 613 623 9457,45.423815,-76.3692219,2,2
Mac's,"395 Montreal Road, OTTAWA, Canada","gas, atm, coffee, polar_pop, froster",(613) 742-5004,45.4390106,-75.6539378,2,2
Pioneer,"590 MONTREAL RD., OTTAWA, ON, K1K0T9",NA,(613) 744-7871,45.4416383,-75.6441817,2,2
Pioneer,"631 INDUSTRIAL AVE., OTTAWA, ON, K1G0Z1",NA,(613) 247-2744,45.4112607,-75.6407621,2,2
Petro-Canada,"676 Somerset Street, Ottawa, Ontario, K1R6P4",NA,6132379555,45.4112569,-75.7059129,2,2
Petro-Canada,"690 Hunt Club Road, Ottawa, Ontario, K1V1C3",NA,6137373155,45.3429899,-75.669964,2,2
Quickie,"712 NORTH RIDEAU STREET, Kemptville, Ontario, K0G 1J0",NA,613-258-3880,45.0209838,-75.6530963,2,2
Mac's,"8 Raglan Street South, RENFREW, Canada","gas, atm, coffee, polar_pop, froster",613-433-5808,45.4729179,-76.6855897,2,2
Circle K,"9061 County Road 17, ROCKLAND, Canada","gas, diesel, atm, coffee, polar_pop, froster, roller_grill, redbull_shop",+1 613 446 9143,45.5454896,-75.3017648,2,2
Mac's,"100 Dufferin Street, PERTH, Canada","gas, diesel, atm, coffee, polar_pop, froster, roller_grill, redbull_shop",NA,44.9064511,-76.2689608,2,1
Circle K,"10483 HWY 7, CALETON PLACE, Canada","gas, diesel, atm, redbull_shop",NA,45.1324077,-76.1211595,2,1
Mac's,"14805 County Road 2, INGLESIDE, Canada","gas, atm, coffee, polar_pop, froster, redbull_shop",NA,44.9941625,-74.9915652,2,1
Circle K,"1494 Innes RD, GLOUCESTER, Canada","car_wash, gas, diesel, atm",NA,45.4146989,-75.6045069,2,1
Circle K,"1545 Woodroffe Ave., NEPEAN, Canada","car_wash, gas, diesel, atm, coffee, polar_pop, froster",NA,45.3343192,-75.7517676,2,1
Circle K,"1584 Merivale RD, NEPEAN, Canada","car_wash, gas, diesel, atm, coffee, redbull_shop",NA,45.3502812,-75.7336488,2,1
Circle K,"1600 Bank ST, OTTAWA, Canada","car_wash, gas, diesel, atm, redbull_shop",NA,45.3781328,-75.6677458,2,1
Petro-Canada,"1685 10th Line Road, Orleans, Ontario, K1E3E8",NA,6138371009,45.4680657,-75.4914231,2,1
Couche-Tard,"175 Avenue Lépine, Buckingham, CA","car_wash, diesel, public_restrooms, roller_grill, redbull_shop, ca_coffee",NA,45.5758929,-75.400335,2,1
Circle K,"1856 Robertson RD, OTTAWA, Canada","car_wash, gas, diesel, atm, coffee",NA,45.3271403,-75.8197411,2,1
Circle K,"1859 Carling Ave., OTTAWA, Canada","car_wash, gas, atm, coffee",NA,45.3762849,-75.7573774,2,1
Circle K,"1970 Walkley RD, OTTAWA, Canada","EU_ROUTEX_ATLAS, EU_TRUCKDIESEL_NETWORK, car_wash, gas, diesel, atm, redbull_shop",NA,45.3829499,-75.6307122,2,1
Circle K,"1980 St. Joseph Blvd., ORLEANS, Canada","car_wash, gas, diesel, atm",NA,45.4635594,-75.5404122,2,1
Circle K,"2075 Montreal RD, OTTAWA, Canada","gas, diesel, atm, redbull_shop",NA,45.4480417,-75.5939711,2,1
Circle K,"2100 Hunt Club RD, OTTAWA, Canada","car_wash, gas, atm",NA,45.3640141,-75.6196172,2,1
Canadian Tire Gas Bar,"2135 Robertson Road, Nepean, ON, K2H 5Z2",NA,6138299580,45.3218168,-75.8362395,2,1
Circle K,"2162 Prince Of Wales DR, NEPEAN, Canada","car_wash, gas, diesel, atm, polar_pop, froster, redbull_shop",NA,45.3333553,-75.7018235,2,1
Circle K,"2545 Baseline RD, OTTAWA, Canada","car_wash, gas, atm",NA,45.3421276,-75.7863083,2,1
Circle K,"324 COLEMAN ST, OTTAWA, US","gas, diesel, public_restrooms, atm, coffee, polar_pop, froster, roller_grill",NA,45.1395484,-76.1276438,2,1
Circle K,"3580 Strandherd RD, OTTAWA, Canada","EU_CARWASH_JETWASH, EU_ROUTEX_ATLAS, EU_SHOWER, EU_SIMPLY_GREAT_COFFEE, EU_TRUCKDIESEL_NETWORK, EU_WIFI, EU_CARWASH, EU_GAS, EU_TRAILER_RENTAL, EU_MOBILE_PAYMENTS_CARWASH, EU_MOBILE_PAYMENTS_FUEL, car_wash, gas, atm, redbull_shop",NA,45.2746008,-75.7385337,2,1
Circle K,"3705 Riverside DR, OTTAWA, Canada","car_wash, gas, atm, coffee",NA,45.3426999,-75.6904138,2,1
Circle K,"401 Hazeldean RD, KANATA, Canada","car_wash, gas, diesel, atm, redbull_shop",NA,45.3041528,-75.8776654,2,1
Mac's,"421 Rideau Street, KEMPTVILLE, Canada","gas, atm, coffee, polar_pop, froster, redbull_shop",NA,45.0196507,-75.6508847,2,1
Circle K,"44 Edgewater ST, KANATA, Canada","car_wash, gas, coffee, redbull_shop",NA,45.2975093,-75.9009396,2,1
Canadian Tire Gas Bar,"45 Dufferin Street, Perth, ON, K7H 3A5",NA,6132673412,44.9105886,-76.2643443,2,1
Circle K,"479 March RD, KANATA, Canada","car_wash, gas, diesel, coffee, polar_pop, froster",NA,45.3423152,-75.9171222,2,1
Circle K,"501 Terry Fox DR, KANATA, Canada","car_wash, gas, diesel, atm, redbull_shop",NA,45.3100283,-75.918045,2,1
Mac's,"629 Hwy 2, CARDINAL, Canada","gas, diesel, atm, coffee, polar_pop, froster, roller_grill, redbull_shop",NA,44.7882137,-75.3830351,2,1
Dollar Tree,"#1-5703 Hazeldean Rd., Shoppes at Fairwinds, Stittsville, ON, K2S 0P6",NA,613-836-0060,45.2854021,-75.9131451,1,1
Super Convenience Mart,"1-25 Tapiola Crescent, Ottawa, ON K1T 2J7",Convenience Stores,NA,45.364169,-75.6468662,1,1
Quickie,"1 CHARTWELL AVENUE, Ottawa, Ontario, K2G 4C6",NA,613-226-7676,45.3323407,-75.7701227,1,1
Mac's,"1 Hobin St., STITTSVILLE, Canada","atm, coffee, polar_pop, froster, roller_grill, redbull_shop",NA,45.2647162,-75.9292944,1,1
Shell,"1 MONTREAL RD, VANIER, Ontario, K1L 6E8",NA,+1 613 749 0775,45.4331764,-75.6696308,1,1
Mac's,"1 Plaza Drive, IROQUOIS, Canada","atm, coffee, polar_pop, froster, roller_grill, redbull_shop",NA,44.8496394,-75.3165388,1,1
Quickie,"1 RIDEAUCREST DR., Nepean, Ontario, K2G 6A4",NA,613-823-4050,45.2848746,-75.7229169,1,1
Mac's,"1 Tartan Dr., NEPEAN, Canada","atm, coffee, polar_pop, froster",NA,45.269884,-75.7540622,1,1
Canadian Tire Gas Bar,"10 Ferrara Drive, Smiths Falls, ON, K7A 5K4",NA,6132833906,44.8921806,-76.0285758,1,1
Mac's,"100 Castlefrank Rd., KANATA, Canada","atm, coffee, polar_pop, froster, roller_grill, redbull_shop",NA,45.2936647,-75.8816465,1,1
Chuck’s Deli &amp; Convenience,"100 Trainyards Drive, Ottawa, ON K1G 3S5","Convenience Stores, Delis",NA,45.4125374,-75.6466372,1,1
Giant Tiger,"1001 boulevard Cure-Labelle, Laval, QC, H7V 2V6",NA,450-687-4660,45.5442896,-73.7504445,1,1
Petro-Canada,"1007 St. Laurent Blvd, Ottawa, Ontario, K1K3B1",NA,6137413539,45.4283766,-75.6391308,1,1
Dollarama,"1009 Daze St, Ottawa, ON, K1V 2G3",NA,16137369361,45.3538452,-75.6517844,1,1
Canadian Tire Gas Bar,"101 Ninth Street East, Cornwall, ON, K6J 3A4",NA,6139333552,45.0299253,-74.7322759,1,1
ESSO COUCHE-TARD,"101 RUE GEORGES, GATINEAU, QC",NA,NA,45.5540846,-75.4363994,1,1
Vanier Convenience Food Mart,"101 Rue Lavergne, Vanier, ON K1L 5E6",Convenience Stores,NA,45.4431274,-75.6652425,1,1
Amjad Syed,"1016 Pleasant Park Rd, Ottawa, ON K1G 2A1",Convenience Stores,NA,45.3952009,-75.6223817,1,1
Petro-Canada,"1018 Cyrville Road, Gloucester, Ontario, K1J7S4",NA,6137419797,45.4252844,-75.6374316,1,1
MARCHE ALIMENTAIRE R. TESSIER,"1019 PRINCIPALE, VAL DES MONTS, QC",NA,NA,45.6829435,-75.723618,1,1
Mr. Gas,"102 Hwy 17, Wahnapitae, Ontario, P0M 3C0",NA,(705) 694-3061,46.4867366,-80.793325,1,1
Giant Tiger,"1021 St. Laurent Boulevard, Ottawa, ON, K1K 3B1",NA,613-748-1664,45.4284564,-75.6379081,1,1
Circle K,"1023 Wellington Street, OTTAWA, Canada","atm, coffee, polar_pop, froster",NA,45.4237361,-75.6974134,1,1
Mac's,"1025 Merivale Rd., OTTAWA, Canada","atm, coffee, polar_pop, froster, roller_grill, redbull_shop",NA,45.3789466,-75.7328982,1,1
Desh Grocery,"103 Mann Ave, Ottawa, ON K1N 5Y8",Convenience Stores,NA,45.4211628,-75.6724142,1,1
MacEwen 11th & McConnell,"1030 McConnell Avenue, Cornwall, ON",NA,613-932-9506,45.0352046,-74.7247914,1,1
Mac's,"1031 Teron Rd., KANATA, Canada","atm, coffee, polar_pop, froster, roller_grill, redbull_shop",NA,45.3305788,-75.9003508,1,1
Purbany Enterprise,"1036 Merivale Road, Ottawa, ON K1Z 6A7",Convenience Stores,NA,45.3789353,-75.7334834,1,1
MacEwen Vars,"104 St Guillaume Rd, Vars, ON K0A 3H0",NA,613-443-9426,45.3308521,-75.346099,1,1
Rideau Ferry Store,"1040 Rideau Ferry Rd, Perth, ON",NA,613-264-9147,44.8490001,-76.1414624,1,1
Pioneer Gas,"10418 HIGHWAY 7 RR 2, CARLETON PLACE, ON",NA,NA,45.131334,-76.121428,1,1
Shell,"1050 BOUL SAINT-JOSEPH, GATINEAU, Quebec, J8Z 1T3",NA,+1 819 772 4194,45.4701334,-75.7376715,1,1
Dollarama,"1050 Somerset St W, Ottawa, ON, K1Y3C5",NA,16136880192,45.4065044,-75.7195173,1,1
Shell,"106 EAGLESON RD, KANATA, Ontario, K2L 2P1",NA,+1 613 592 5613,45.3133439,-75.8826006,1,1
County Line L'Orignal,"1065 King St, L'Orignal, ON",NA,613-675-2121,45.6191975,-74.692579,1,1
Parkway Tuck Shop,"1071 Ambleside Dr, Ottawa, ON K2B 6V4",Convenience Stores,NA,45.374187,-75.7801139,1,1
Sammy’s Corner Confectionary,"1076 St Laurent Blvd, Ottawa, ON K1K 3B4",Convenience Stores,NA,45.4263396,-75.6388927,1,1
Ultramar,"108, boulevard Greber, Gatineau, QC, J8T3P8",NA,(819) 561-2222,45.4664669,-75.7008585,1,1
Melrose Grocery Store,"1082 Wellington St W, Ottawa, ON K1Y 2Y5",Convenience Stores,NA,45.4031558,-75.7250742,1,1
Giant Tiger,"1085 Wellington Street West, Ottawa, ON, K1Y 2Y4",NA,613-722-9589,45.4032036,-75.7255198,1,1
Kristin Mini Mart,"1090 Kristin Way, Ottawa, ON K1K 4B6",Convenience Stores,NA,45.4435482,-75.643072,1,1
International News,"11 Colonel by Dr, Ottawa, ON K1N 9H4",NA,NA,45.4247211,-75.6923995,1,1
Convinience Maximum,"11 Springfield Road, Ottawa, ON K1M 1C8",Convenience Stores,NA,45.4402613,-75.6765958,1,1
County Line Perth,"11 Wilson St W, Perth, ON",NA,613-264-9272,44.9012431,-76.2530066,1,1
O’connor Convenience,"110 O'connor Street, Ottawa, ON K1P 5M9",Convenience Stores,NA,45.4197951,-75.6977346,1,1
International News,"111 Albert Street, Ottawa, ON K1P 1A5",NA,NA,45.421646,-75.6974294,1,1
Di Rienzo’s,"111 Beech Street, Ottawa, ON K1S 4P1","Sandwiches, Grocery, Delis",NA,45.4000201,-75.7120537,1,1
Sherwood Supermarket,"111 Sherwood Drive, Ottawa, ON K1Y 3V1","Grocery, Delis",NA,45.3961984,-75.7133342,1,1
Fas Gas &amp; Crystal Wash,"1111 Ogilvie Road, Ottawa, ON K1J 7P7",Gas Stations,NA,45.426329,-75.6323658,1,1
MacEwen Russell,"1112 Concession Street, Russell, ON",NA,613-445-5332,45.2581067,-75.3591107,1,1
Pronto Food Marts,"1119 Concession Street, Russell, ON K4R 1C8",Convenience Stores,NA,45.2578739,-75.3581913,1,1
Golden Lake Variety,"11199 ON-60, Golden Lake, ON",NA,613-625-2654,45.5808399,-77.2452905,1,1
Mr. Gas,"1141 County Road 6, Odessa, Ontario, K0H 2H0",NA,(613) 386-7402,44.2799266,-76.7147294,1,1
Maple Tuck Shop,"1150 Fisher Ave, Ottawa, ON K1Z 8M6",Convenience Stores,NA,45.3775357,-75.7215341,1,1
Hamilton's Convenience & Propane Centre,"11536 Round Lake Rd, Pembroke, ON",NA,613-735-5784,45.7975904,-77.1703509,1,1
Quickie,"1166 BANK STREET, Ottawa, Ontario, K1S 3X8",NA,613-730-1113,45.392441,-75.6825306,1,1
Giant Tiger,"1168 Maple Street, Manotick, ON, K4M 1A5",NA,613-692-4766,45.2242374,-75.6859436,1,1
Olympic Tuck Shop,"1170 Fisher Ave, Ottawa, ON K1Z 5R7",Convenience Stores,NA,45.3768531,-75.7208795,1,1
Canadian Tire Gas Bar,"1170 Heron Road, Ottawa, ON, K1V 6B2",NA,6137336776,45.3776183,-75.66841,1,1
Tuck Shop,"1171 Ambleside Dr, Ottawa, ON K2B 8E1",Convenience Stores,NA,45.3725335,-75.7820876,1,1
Canadian Tire Gas Bar,"1176 Heron Road, Ottawa, ON, K1V 6B2",NA,6137312679,45.3777065,-75.6685725,1,1
Quickie,"119 MANN AVENUE, Ottawa, Ontario, K1N 5A4",NA,613-288-0434,45.4213501,-75.67194,1,1
Mr. Gas,"12 Union Street, Smiths Falls, Ontario, K7A 2S1",NA,(613)283-1171,44.9104105,-76.0210705,1,1
ESSO CIRCLE K,"120 MONTREAL RD, VANIER, ON",NA,NA,45.4340001,-75.6660956,1,1
Petro-Canada,"120 St-Raymond, Gatineau, Quebec, J8Y1T1",NA,8197708213,45.4471094,-75.7438292,1,1
Dollarama,"1200 St Laurent Blvd, Ottawa, ON, K1K3B8",NA,16132880172,45.4219466,-75.6387057,1,1
Daily Convenience,"1220 Merivale Rd, Ottawa, ON K1Z 8P2",Convenience Stores,NA,45.3717162,-75.7335133,1,1
Hasty Market,"1224 Wellington St W, Ottawa, ON K1Y 3A1","Convenience Stores, Grocery",NA,45.3997284,-75.7312123,1,1
ESSO COUCHE-TARD,"1225 RUE DE NEUVILLE, GATINEAU, QC",NA,NA,45.5310494,-75.4960703,1,1
Pioneer Gas,"1233 MIDLAND AVE., KINGSTON, ON",NA,NA,44.2678399,-76.5744291,1,1
Giant Tiger,"12334 County Road #2 Box 691, Morrisburg, ON, K0C 1X0",NA,613-543-0053,44.8992563,-75.1875945,1,1
Hasty Market,"1234 Merivale Rd, Ottawa, ON K2C 4C3",Convenience Stores,NA,45.3705594,-75.7332882,1,1
Earl Lepine Garage Ltd,"1235 Chemin de Chapeau Waltham, Chapeau, QC",NA,819-689-2972,45.9177934,-77.076199,1,1
MacEwen Morrisburg,"12358 S.D.G. County Road 2, Morrisburg, ON",NA,613-543-0083,44.9001241,-75.1865,1,1
Dollarama,"1239 Donald St, Ottawa, ON, K1J8W3",NA,16138420712,45.4295001,-75.6398084,1,1
Farm Boy,"1250 Stittsville Main street, Ottawa, ON K2S 1S9",Grocery,NA,45.2683251,-75.9311153,1,1
Rema Convenience Store,"1263 Wellington St W, Ottawa, ON K1Y 3A6",Convenience Stores,NA,45.399495,-75.7335015,1,1
Mr. Gas,"1270 Trim Road, Orleans, Ontario, K4A 3P7",NA,(613) 824-7126,45.4910181,-75.4799664,1,1
Quickie,"1275 KENSINGTON PKWY, Brockville, Ontario, K6V 6C3",NA,613-342-4221,44.6079839,-75.7130449,1,1
Mac's,"13 Kakulu Rd., KANATA, Canada","atm, coffee, polar_pop, froster, redbull_shop",NA,45.3095761,-75.8812653,1,1
MacEwen Corbeil,"13 ON-94, Corbeil, ON",NA,705-752-1194,46.2801911,-79.301573,1,1
Garage M.G. Wilson (Lachute),"131 Avenue de la Providence, Lachute, QC",NA,450-562-5911,45.660808,-74.348866,1,1
Shell,"132 MARLBOROUGH ST N, CORNWALL, Ontario, K6H 3Z9",NA,+1 613 932 6295,45.0208052,-74.7184484,1,1
MacEwen Wellington,"132 Wellington Main St, Wellington, ON K0K 3L0",NA,613-399-3720,43.9528652,-77.3367947,1,1
Riverside Mart,"1335 Bank St, Ottawa, ON K1H 7X8",Convenience Stores,NA,45.3888422,-75.676649,1,1
Kingston's Service Centre,"135 4th Avenue, Englehart, ON",NA,705-544-2535,47.8258436,-79.8836371,1,1
Shell,"135 RUE MONTCALM, GATINEAU, Quebec, J8X 2M1",NA,+1 819 776 5700,45.4289803,-75.7263084,1,1
Quickie,"1356-1366 CLYDE AVENUE, UNIT 13, Nepean, Ontario, K2C 3Z4",NA,613-422-1366,45.36224,-75.7407585,1,1
Dollarama,"1363 Woodroffe Ave, Nepean, ON, K2G 1V7",NA,16132285586,45.3508168,-75.7584962,1,1
Ultramar,"13659 Highway 7, Carleton Place, ON","Gas Stations, Convenience Stores",NA,45.0601281,-76.2486928,1,1
Vic’s Tuck Shop,"1375 Prince of Wales Dr, Ottawa, ON K2C 3L5",Convenience Stores,NA,45.3709943,-75.7020901,1,1
County Line North Bay,"1375 Seymour Street, North Bay, ON P1B 9V6",NA,705-476-4867,46.3082816,-79.4379075,1,1
Giant Tiger,"1380 boul. du Monseigneur-Langlois, Valleyfield, QC, J6S 1E3",NA,450-377-9807,45.2700208,-74.1308807,1,1
Ultramar,"1385, boul. de la Vérendrye O., Gatineau, QC, J8T8J8",NA,(819) 243-1410,45.4884686,-75.7127166,1,1
Quickie,"1386 RICHMOND ROAD, Ottawa, Ontario, K2B 8L4",NA,613-820-0204,45.3651059,-75.7877922,1,1
Circle K,"139 Gore Street East, PERTH, Canada","atm, coffee, polar_pop, froster, redbull_shop",NA,44.897192,-76.2457625,1,1
Circle K,"1402 Highgate Street, OTTAWA, Canada","atm, coffee, polar_pop, froster, roller_grill, redbull_shop",NA,45.3489085,-75.7698565,1,1
Circle K,"1420 Walkley Road, OTTAWA, Canada","atm, coffee, polar_pop, froster, roller_grill, redbull_shop",NA,45.3734543,-75.6535618,1,1
Petro-Canada,"1432 Baseline Road, Nepean, Ontario, K2C0A9",NA,6132261219,45.3611753,-75.7390965,1,1
India Food Centre &amp; Convenience,"1433 Wellington Street W, Ottawa, ON K1Y 2X4",Convenience Stores,NA,45.3978516,-75.7413481,1,1
Quickie,"1435 CALDWELL AVE., Ottawa, Ontario, K1Z 8L3",NA,613-729-8912,45.372816,-75.7349302,1,1
Peter Tuck Shop,"1435 Prince of Wales Dr, Ottawa, ON K2C 1N5",Convenience Stores,NA,45.3691818,-75.7006377,1,1
Silver City Food Market,"1437 Ogilvie Rd, Ottawa, ON K1J 7P3",Convenience Stores,NA,45.4318679,-75.6184619,1,1
Giant Tiger,"144, rue Papineau, , ,",NA,819-427-8163,45.6171419,-75.0054659,1,1
Shell,"1440 PRINCE OF WALES DR, OTTAWA, Ontario, K2C 1N6",NA,+1 613 224 6210,45.3685855,-75.7016111,1,1
Dollar Tree,"1460 Merivale Rd, Loblaws Plaza, Nepean, ON, K2E 5P2",NA,613-226-4820,45.361929,-75.7353509,1,1
MOBIL@  - 4281,"1460 MERIVALE ROAD, OTTAWA, ON",NA,NA,45.3619299,-75.7353516,1,1
Giant Tiger,"15, boul. Don Quichotte, L'Île-Perrot, QC, J7V 7X4",NA,514-425-1650,45.3909424,-73.9644673,1,1
County Line Arnprior,"150 Madawaska Boulevard, Arnprior, ON",NA,613-623-6303,45.43355,-76.3432962,1,1
Petro-Canada,"151 Maloney est, Gatineau, Quebec, J8P1B9",NA,8196639647,45.484042,-75.6506588,1,1
Giant Tiger,"1512 Merivale Road, Ottawa, ON, K2G 3J6",NA,613 225 7558,45.3567334,-75.7378655,1,1
MacEwen St. Laurent & Belfast,"1515 St Laurent Blvd, Ottawa, ON",NA,613-745-7404,45.412291,-75.6302972,1,1
Mr. Gas,"152 King Street East, Prescott, Ontario, K0E",NA,(613) 925-3091,44.7109872,-75.5123571,1,1
Giant Tiger,"153, chemin Valley, Wakefield (La Pêche), QC, J0X 3G0",NA,819-459-1628,45.624671,-75.9334291,1,1
Riverside Service Centre,"1540 Bank St, Ottawa, ON K1H",Gas Stations,NA,45.3805255,-75.6685385,1,1
Riverbreeze Tuck Shop,"1541 Riverside Dr, Ottawa, ON K1G 4E2",Convenience Stores,NA,45.409144,-75.662675,1,1
MD Tuck Shop,"1551 Riverside Dr, Ottawa, ON K1G 4B5",Convenience Stores,NA,45.408483,-75.6627191,1,1
Giant Tiger,"156, rue Turgeon, Sainte-Thérèse, QC, J7E 3J3",NA,450-979-1980,45.6336782,-73.8343058,1,1
Dona’s Friendly Store,"157 Cathcart St, Ottawa, ON K1N 5C1",Convenience Stores,NA,45.4336358,-75.695023,1,1
Min-A-Mart,"158 McArthur Ave, Ottawa, ON K1L 8C9",Convenience Stores,NA,45.4306706,-75.6632267,1,1
MacEwen Long Sault,"15919 Stormont, Dundas and Glengarry County Road 2, Long Sault, ON K0C 1P0",NA,613-534-8529,45.0277595,-74.8968949,1,1
Quickie,"16 CENTRAL Avenue East, Brockville, Ontario, K6V 1W4",NA,613-345-5710,44.6025775,-75.6889108,1,1
Circle K,"1600 Forest Valley Drive, ORLEANS, Canada","gas, atm, coffee, polar_pop, froster, redbull_shop",NA,45.4488546,-75.535982,1,1
Shell,"1607 CARLING AVE, OTTAWA, Ontario, K2A 1C4",NA,+1 613 729 5877,45.3806173,-75.7474147,1,1
Giant Tiger,"1620, rue L'Annonciation Nord, Rivière-Rouge, QC, J0T 1T0",NA,819 275 3777,46.4239555,-74.8849093,1,1
Quickie,"163 BELL STREET NORTH, Ottawa, Ontario, K1R 7E1",NA,613-236-5054,45.4067476,-75.705678,1,1
Mac's,"163 Town Line W., CARLETON PLACE, Canada","atm, coffee, polar_pop, froster, redbull_shop",NA,45.1405071,-76.1557846,1,1
International News,"1642 Merivale Rd, Ottawa, ON K2G 4A1",NA,NA,45.3455841,-75.732034,1,1
Dollarama,"1651 Merivale Rd, Nepean, ON, K2G3K2",NA,16132882431,45.3502756,-75.7312492,1,1
Giant Tiger,"1657 Laurier Street PO Box 719, Rockland, ON, K4K 1L4",NA,613-446-4369,45.5490373,-75.2899322,1,1
Quickie,"1661 HUNT CLUB ROAD, Ottawa, Ontario, K1T 3Z3",NA,613-248-9160,45.3603146,-75.6315224,1,1
Moe’s Convenience Store,"1665 Cyrville Road, Gloucester, ON K1B 3L7",Convenience Stores,NA,45.418213,-75.6081073,1,1
Shell,"1668 CHEMIN PINK., GATINEAU, Quebec, J9J 3N7",NA,+1 819 771 0653,45.4422245,-75.8153943,1,1
Dollarama,"1670 Heron Rd, Ottawa, ON, K1V0C2",NA,16135217369,45.379825,-75.644557,1,1
Blue Nile Grocery Store,"168 King Edward Ave, Ottawa, ON K1N 7L3",Convenience Stores,NA,45.433828,-75.6904511,1,1
Giant Tiger,"171 Alexander Street, Pembroke, ON, K8A 4L8",NA,613-635-7614,45.8260013,-77.1166566,1,1
Shell,"1711 ROUTE 105, CHELSEA, Quebec, J9B 0B9",NA,+1 819 866 3220,45.5983356,-75.9000845,1,1
Petro-Canada,"1740 St. Laurent Blvd, Ottawa, Ontario, K1G1A2",NA,6135235743,45.4052824,-75.6274515,1,1
Dollar Tree,"1750 Innes Road, Silver City Center, Ottawa, ON, K1B 3K5",NA,613-741-2519,45.4162282,-75.6005309,1,1
Riverside Place Tuck Shop,"1755 Riverside Dr, Ottawa, ON K1G 3T6",Convenience Stores,NA,45.4020196,-75.6652827,1,1
Canadian Tire Gas Bar,"1775 Tenth Line Road, Orleans, ON, K1E 3X2",NA,6135902429,45.4673466,-75.4910892,1,1
DEPANNEUR MONT-VALOIS,"1777 RTE DU CARREFOUR, VAL DES MONTS, QC",NA,NA,45.5957967,-75.6169073,1,1
Andy’s Variety Store,"178 Meadowlands Dr W, Nepean, ON K2G 2S6",Convenience Stores,NA,45.3422601,-75.7555122,1,1
M &amp; A Convenience Store,"178 Rideau Street, Ottawa, ON K1N 5X6",Convenience Stores,NA,45.427146,-75.689152,1,1
Kowther’s Tuck Shop,"1785 Riverside Dr, Ottawa, ON K1G 3T7",Convenience Stores,NA,45.4013494,-75.6657472,1,1
MacEwen Dunrobin,"1794 Dunrobin Rd, Dunrobin, ON",NA,613-839-1804,45.3831274,-75.9694675,1,1
Ultramar,"1797 St-Joseph Boulevard, Orleans, ON, K1C7C6",NA,(613) 830-5360,45.4618541,-75.5484463,1,1
180 Food Market,"180 Lees Ave, Ottawa, ON K1S 5P3",Convenience Stores,NA,45.4153548,-75.6708025,1,1
York Convenience Store,"180 York St, Ottawa, ON K1N 1J6",Convenience Stores,NA,45.4296856,-75.6885901,1,1
Circle K,"1827 Baseline Rd., OTTAWA, Canada","atm, coffee, polar_pop, froster, roller_grill, redbull_shop",NA,45.3548571,-75.7559696,1,1
Dollarama,"183 Rideau St, Ottawa, ON, K1N5X8",NA,16132881364,45.4275353,-75.6891985,1,1
Shiv Sky Store,"1833 Riverside Dr, Ottawa, ON K1G 0E8",Convenience Stores,NA,45.4017636,-75.6668854,1,1
Shell,"1857 MERIVALE ROAD, NEPEAN, Ontario, K2G 1E3",NA,+1 613 727 8774,45.3356254,-75.7239147,1,1
Giant Tiger,"1861 Robertson Road, Ottawa, ON, K2H 9N5",NA,613-828-2281,45.3280758,-75.8210352,1,1
Petro-Canada,"1881 Robertson Road, Nepean, Ontario, K2H5B7",NA,6136882203,45.3273421,-75.821492,1,1
Hasty Market,"1896 Prince Of Wales Drive, Ottawa, ON K2C 3W9",Convenience Stores,NA,45.3538415,-75.7048504,1,1
Giant Tiger,"19 Racine Street Box 504, Casselman, ON, K0A 1M0",NA,613-764-1533,45.3074739,-75.0808106,1,1
North Bestone,"190 Lees Avenue, Golden Triangle, ON K1S 5S9",Convenience Stores,NA,45.4151826,-75.6697825,1,1
Ultramar,"190, Rue St-Rédempteur, Gatineau (Hull), QC, J8X2S9",NA,(819) 771-9797,45.4327124,-75.7214485,1,1
Petro-Canada,"1900 Prince Of Wales Dr, Ottawa, Ontario, K2C3V3",NA,6132251018,45.3531316,-75.7048616,1,1
Dollarama,"1910 St. Laurent Blvd, Ottawa, ON, K1G 1A4",NA,16132472181,45.3990561,-75.6239131,1,1
Drummond's Gas,"1925 Merivale Road, Nepean, ON K2G 1E7",NA,NA,45.3296415,-75.7205072,1,1
Pharmacie Shoppers Drug Mart,"1937 Boul Portobello, Orleans, ON K4A 4W9",Convenience Stores,NA,45.4680525,-75.4657987,1,1
Petro-Canada,"1941 Innes Road, Gloucester, Ontario, K1B4C6",NA,6137451797,45.4194632,-75.5960793,1,1
Giant Tiger,"1950, boul. du Curé-Labelle, Saint-Jérôme, QC, J7Y 1S1",NA,450-438-7799,45.7947495,-74.0108615,1,1
MacEwen County Line Express    Barry's Bay,"19537 Opeongo Line, Barry's Bay, ON",NA,613-756-3614,45.488075,-77.678126,1,1
Petro-Canada,"1960 Innes Road, Ottawa, Ontario, K1B3K5",NA,6138427460,45.419071,-75.5949279,1,1
Mr. Gas,"1970 Ogilvie Road, Gloucester, Ontario, K1J 9M8",NA,613-744-0759,45.4334134,-75.6126406,1,1
MacEwen Exeter,"198 Main Street South, Exeter, ON",NA,519-235-2125,43.3511508,-81.4808664,1,1
Mac's,"1985 Trim Road, OTTAWA, Canada","car_wash, gas, diesel, atm, coffee, polar_pop, froster, redbull_shop",NA,45.4713098,-75.4539885,1,1
Petro-Canada,"1988 St. Joseph Blvd., Orleans, Ontario, K1C1E4",NA,6138241202,45.4641988,-75.5394021,1,1
Shell,"1993 TENTH LINE RD, ORLEANS, Ontario, K4A 4H8",NA,+1 613 837 0357,45.4616725,-75.4871416,1,1
Quickie,"2 GOLDRIDGE DRIVE, Kanata, Ontario, K2T 1C7",NA,613-592-8019,45.316109,-75.9206246,1,1
CASSELMAN GAS BAR,"2 RACINE ST, CASSELMAN, ON",NA,NA,45.3064286,-75.0812943,1,1
Shell,"20 BEECHWOOD AVE, VANIER, Ontario, K1L 8B3",NA,+1 613 744 4228,45.4394218,-75.6765185,1,1
Uplands Minimart,"20 Curtis Private, Gloucester, ON K1V 7M1",Convenience Stores,NA,45.3358568,-75.6677476,1,1
Durocher Market,"200 Durocher Street, Vanier, ON K1L 7S4",Convenience Stores,NA,45.4364772,-75.6664526,1,1
Mickey Tran Dba All Convenience,"200 Rideau Ter, Ottawa, ON K1M 0Z3",Convenience Stores,NA,45.4433902,-75.6747098,1,1
Mr. Gas,"2000 Bancroft Drive, Sudbury, Ontario, P3B 1S9",NA,(705) 560-1540,46.4908133,-80.9349819,1,1
Canadian Tire Gas Bar,"2006 Ogilvie Road, Gloucester, ON, K1J 8X3",NA,6137486395,45.435946,-75.6057919,1,1
MacEwen 2nd & York,"201 2nd St W, Cornwall, ON",NA,613-933-4228,45.017242,-74.7332539,1,1
Circle K,"201 Brockville Street, SMITH FALLS, Canada","gas, atm, coffee, polar_pop, froster, roller_grill, redbull_shop",NA,44.8886923,-76.0197762,1,1
Canadian Tire Gas Bar,"2010 Ogilvie Road, Gloucester, ON, K1J 8X3",NA,6137480637,45.435066,-75.606445,1,1
Circle K,"2063 Meadowbrook Rd., GLOUCESTER, Canada","atm, coffee, polar_pop, froster, roller_grill, redbull_shop",NA,45.427358,-75.6013072,1,1
MacEwen Carp Road,"2070 Carp Rd, Carp, ON",NA,613-836-8068,45.2756404,-75.9496328,1,1
Petro-Canada,"2073 Montreal Road, Gloucester, Ontario, K1J6M1",NA,6137476669,45.4466301,-75.5958967,1,1
MacEwen Waubaushene,"21 Quarry Rd, Waubaushene, ON",NA,705-538-2900,44.7650358,-79.6973389,1,1
Petro-Canada,"210 boulevard St-Raymond, Gatineau, Quebec, J9A3H6",NA,8197766767,45.4364466,-75.7661968,1,1
Giant Tiger,"210, chemin Aylmer, Gatineau (Aylmer), QC, J9H 1A2",NA,819-682-5200,45.3947103,-75.8331176,1,1
Giant Tiger,"210, rue Moncion, Maniwaki, QC, J9E 3P6",NA,819-449-1374,46.3869857,-75.98135,1,1
Goulet's Confectionary,"211 ON-63, Nipissing, Unorganized, North Part, ON",NA,705-981-3811,46.6496662,-79.0874068,1,1
Pioneer Gas,"2140 HWY #31, WINCHESTER, ON",NA,NA,45.0884372,-75.377765,1,1
Apos Convenience,"2143 Carp Road RR 3, Carp, ON K0A 1L0",Convenience Stores,NA,45.2732931,-75.953511,1,1
Shell,"2145 CARP RD., OTTAWA, Ontario, K0A 1L0",NA,+1 613 836 3788,45.2792898,-75.9552931,1,1
Petro-Canada,"2180 Montreal Road, Ottawa, Ontario, K1J1G4",NA,6137426534,45.4494576,-75.5884049,1,1
Amyotte Centre D'Auto,"219 Rue Principale, Mansfield-et-Pontefract, QC",NA,819-683-2956,45.847623,-76.722935,1,1
Charlies Groceteria,"220 Carruthers Avenue, Ottawa, ON K1Y 1N9","Grocery, Delis, Laundromat",NA,45.4043024,-75.7281375,1,1
Canadian Tire Gas Bar,"2201 Greenbank Road, Nepean, ON, K2J 4Y6",NA,6138252766,45.2725923,-75.7468452,1,1
Quickie,"2201 JOCKVALE ROAD, Nepean, Ontario, K2J 4J9",NA,613-825-1920,45.2758212,-75.7773042,1,1
Bambeeno’s Tuck Shop,"2201 Riverside Dr, Ottawa, ON K1H 8K9",Convenience Stores,NA,45.38841,-75.6745825,1,1
Circle K,"2213 Arch St., OTTAWA, Canada","atm, coffee, polar_pop, froster, roller_grill",NA,45.3895238,-75.6304321,1,1
Petro-Canada,"2222 Route 500 West, Box 959, Embrun, Ontario, K0A1W0",NA,6134435551,45.290931,-75.228436,1,1
Shell,"2232 ST. LAURENT BLVD, OTTAWA, Ontario, K1G 1B2",NA,+1 613 731 1582,45.3890879,-75.6180771,1,1
Pioneer Gas,"2236 PRINCESS ST., KINGSTON, ON",NA,NA,44.2580028,-76.5427877,1,1
Shell,"2238 CARLING AVE, OTTAWA, Ontario, K2B 7G1",NA,+1 613 820 3662,45.3687677,-75.7731038,1,1
MacEwen Norwood-Asphodel,"2239 Asphodel 8th Line, Norwood, ON",NA,705-639-5383,44.3712917,-77.989187,1,1
Convenience Store Best Service,"2249 Carling Ave, Ottawa, ON K2B 7E9",Convenience Stores,NA,45.3692691,-75.7744008,1,1
Canadian Tire Gas Bar,"225 Chemin d'Aylmer, Gatineau, QC, J9H 1A3",NA,8196851717,45.3961707,-75.8300042,1,1
Petro-Canada,"225 de la Gappe, Gatineau, Quebec, J8T7Y3",NA,8192432247,45.4756587,-75.7079356,1,1
HUNTMAR,"225 HUNTMAR DR, KANATA, ON",NA,NA,45.2942842,-75.9276597,1,1
Dollarama,"228 Hunt Club Rd, Ottawa, ON, K1V1C1",NA,16132472138,45.3335674,-75.6913084,1,1
Shell,"230 GORE ST E., PERTH, Ontario, K7H 1K7",NA,+1 613 267 3914,44.8922495,-76.2409137,1,1
MacEwen Gananoque,"230 King Street East, Gananoque, ON",NA,613-382-1683,44.3314898,-76.1599942,1,1
Mac's,"2302 Tenth Line Road, OTTAWA, Canada","car_wash, gas, diesel, atm, coffee, polar_pop, froster, redbull_shop",NA,45.4507803,-75.4830486,1,1
Mr. Gas,"2336 Rue Saint-Louis, Gatineau, Quebec, J8V 1A2",NA,(819) 561-1552,45.488509,-75.7471389,1,1
Shell,"235 MCGILL STREET, Hawkesbury, Ontario, K6A 1P7",NA,+1 613 632 0061,45.6086062,-74.6134527,1,1
MacEwen Lancaster,"235 South Road Military, Lancaster, ON",NA,613-347-3722,45.1385556,-74.4979991,1,1
Hasty Market,"2361 Carling Avenue, Ottawa, ON K2B 8E5",Convenience Stores,NA,45.367192,-75.7790651,1,1
Circle K,"2375 VINCENT MASSEY DR., CORNWALL, US","gas, diesel, atm",NA,45.0326499,-74.7892303,1,1
Giant Tiger,"2396 St.Joseph Blvd., Orleans, ON, K1C 1G1",NA,613-830-0079,45.4684687,-75.5286254,1,1
Jerry's Service Centre,"24 County Rd 17, Jasper, ON",NA,613-283-5085,44.8345619,-75.9377377,1,1
Canadian Tire Gas Bar,"245 Daniel Street South, Arnprior, ON, K7S 3K5",NA,6136236876,45.4260424,-76.3653663,1,1
RAMS ESSO,"24515 HWY 7, SHARBOT LAKE, ON",NA,NA,44.7986034,-76.6777422,1,1
Fassifern General Store & Service Centre,"2462 County Road 34, Alexandria, ON, K0C 1A0",NA,613-525-2144,45.3543976,-74.6775078,1,1
Petro-Canada,"2471 Bank Street, Ottawa, Ontario, K1V8R9",NA,6137367685,45.3540627,-75.646459,1,1
Giant Tiger,"2480 Walkley Road, Ottawa, ON, K1G 6A9",NA,613-526-2416,45.3902453,-75.6101515,1,1
Maple Leaf Dairy,"249 Bridge Street, Carleton Place, ON K7C 3H3",Convenience Stores,NA,45.1421263,-76.1484897,1,1
Shell,"2498 BANK ST, OTTAWA, Ontario, K1V 8S2",NA,+1 613 523 2027,45.3534669,-75.6434228,1,1
Dollar Tree,"25 Landsdowne Avenue, Carleton Place Mews, Carleton Place, ON, K7C 3S9",NA,613-257-5656,45.1363362,-76.1406411,1,1
Cards &amp; Mags Plus,"25 McArthur Ave, Vanier, ON K1L 6R3",Convenience Stores,NA,45.4313724,-75.667942,1,1
Canadian Tire Gas Bar,"2501 Greenbank Road, Nepean, ON, K2J 4Y6",NA,6138235278,45.272268,-75.7457082,1,1
Dollarama,"2515 Bank St, Ottawa, ON, K1V0Y4",NA,16132498613,45.3544223,-75.6451719,1,1
Ultramar,"253 ST-RENE OUEST, GATINEAU, QC, J8P2V7",NA,(819) 669-7619,45.492008,-75.6572815,1,1
Petro-Canada,"2536 Bank St, Gloucester, Ontario, K1T1M9",NA,6132607331,45.3537051,-75.6420543,1,1
Petro-Canada,"255 ave Gatineau, Gatineau, Quebec, J8T4J7",NA,8195688222,45.4886639,-75.7190463,1,1
Dollarama,"255 Elgin St, Ottawa, ON, K2P 1L8",NA,16132880046,45.4183701,-75.6906583,1,1
Quickie,"255 PARKDALE AVENUE, Ottawa, Ontario, K1Y 1G1",NA,613-725-3708,45.4049117,-75.731157,1,1
Canadian Tire Gas Bar,"255, boul. de la Carriere, Gatineau, QC, J8Y 6W4",NA,8197773844,45.4417629,-75.729061,1,1
Circle K,"256 Richmond Rd., OTTAWA, Canada","gas, diesel, atm, coffee, polar_pop, froster, roller_grill, redbull_shop",NA,45.393417,-75.750335,1,1
Roma Confectionery,"258 Rochester St, Ottawa, ON K1R 7N1",Convenience Stores,NA,45.406023,-75.7104354,1,1
Star Convenience &amp; Fast Food,"2592 Innes Rd, Ottawa, ON K1B 4Z6",Convenience Stores,NA,45.4310038,-75.5653349,1,1
Royal Varity,"260 Bank Street, Ottawa, ON K2P 1X4",Convenience Stores,NA,45.4160833,-75.6971684,1,1
MacEwen Bayview Convenience,"2618 County Rd 2, Prescott, ON",NA,613-925-2504,44.7420573,-75.4691886,1,1
Petro-Canada,"2630 Innes Road, Gloucester, Ontario, K1B4Z5",NA,6138372340,45.4315804,-75.563993,1,1
Dollarama,"2640 Innes Rd, Ottawa, ON, K1B4Z5",NA,16135900703,45.4313633,-75.5623379,1,1
Shell,"2653 MARCH ROAD, CARP, Ontario, K0A 1L0",NA,+1 613 839 2404,45.3175498,-76.0504915,1,1
Timmy’s Convenience,"2660 Southvale Crescent, Ottawa, ON K1B 4W5",Convenience Stores,NA,45.394834,-75.6100638,1,1
Mr. Gas,"2660 Trout Lake Rd, North Bay, Ontario, P1B 7S7",NA,705-995-1491,46.3241156,-79.4304848,1,1
Circle K,"2672 Innes Rd., GLOUCESTER, Canada","atm, coffee, polar_pop, froster, roller_grill, redbull_shop",NA,45.4320149,-75.56268,1,1
Dollarama,"2679 Alta Vista Dr, Ottawa, ON, K1V7T5",NA,16137397874,45.372543,-75.6631,1,1
International News,"269 Av Laurier O, Ottawa, ON K1P 5J9",NA,NA,45.4191565,-75.6984744,1,1
Mr. Gas,"2701 Highway 11, North Bay, Ontario, P1B 8G3",NA,(705) 472-7245,46.3466047,-79.4716644,1,1
Mini Confectionery,"273 Montfort St, Vanier, ON K1L 5N8",Convenience Stores,NA,45.4389471,-75.6615451,1,1
Ultramar Ontario,"2749 Laurier Street, Rockland, ON K4K 1A3",Convenience Stores,NA,45.5414127,-75.3008097,1,1
Dollar Tree,"2756 Chamberland Street Unit 2, Rockland Plaza, Rockland, ON, K4K 0B2",NA,613-446-0710,45.5441947,-75.3027572,1,1
Variety Convenience Store,"277 Granville St, Vanier, ON K1L 6Z3",Convenience Stores,NA,45.4382601,-75.656007,1,1
Giant Tiger,"277 Regent Street, Hawkesbury, ON, K6A 1G1",NA,613-632-7699,45.6088901,-74.6087917,1,1
Shell,"2770 IRIS ST, OTTAWA, Ontario, K2C 1E6",NA,+1 613 828 0694,45.3474764,-75.7882572,1,1
Zesty Market,"280 Elgin St, Ottawa, ON K2P 1M2",Convenience Stores,NA,45.4174483,-75.6902436,1,1
MacEwen Strathroy,"28508 Centre Rd, Strathroy, ON",NA,519-245-9669,42.9799092,-81.6302288,1,1
Michael’s Confectionary,"287 Somerset St E, Ottawa, ON K1N 6V7","Grocery, Convenience Stores",NA,45.4237649,-75.6766297,1,1
Quickie,"287A SOMERSET STREET EAST, Ottawa, Ontario, K1N 6V7",NA,613-233-0016,45.4236943,-75.6765377,1,1
Royal Food Market,"2895 Bank St, Gloucester, ON K1T 1N2",Convenience Stores,NA,45.3490273,-75.626724,1,1
Giant Tiger,"29 Chambers Street, Smiths Falls, ON, K7A 2Y3",NA,613-283-2295,44.898363,-76.019038,1,1
Food Frenz,"2910 Carling Avenue, Ottawa, ON K2B 7J7",Convenience Stores,NA,45.3566719,-75.8006858,1,1
Petro-Canada,"292 Rideau Street, Ottawa, Ontario, K1N5Y5",NA,6137893200,45.4286644,-75.6852652,1,1
Alta Juba Supermarket,"2925 Albion Road N, Ottawa, ON K1V 8Z3",Convenience Stores,NA,45.3732236,-75.6537531,1,1
Manor Park Convenience Store,"293 St Laurent Blvd, Ottawa, ON K1K 2Z3",Convenience Stores,NA,45.4511597,-75.6522707,1,1
Giant Tiger,"2950 Bank Street, Blossom Park, ON, K1T 1N8",NA,613-248-2312,45.344538,-75.622643,1,1
Shell,"2950 WOODROFFE AVENUE., NEPEAN, Ontario, K2J 4G3",NA,+1 613 843 0216,45.2914954,-75.7279431,1,1
Massine’s Your Independent Grocer,"296 Bank Street, Ottawa, ON K2P 1X8",Grocery,NA,45.4149887,-75.6963375,1,1
DEPANNEUR AMIGOS ENRG,"296 BOUL MALONEY E, GATINEAU, QC",NA,NA,45.4842112,-75.6449367,1,1
Mr. Gas,"297 Edwards Street, Rockland, Ontario, K4K 1H6",NA,(613) 446-6877,45.5515862,-75.295229,1,1
Mac's,"297 King St. W., PRESCOTT, Canada","atm, coffee, polar_pop, froster, redbull_shop",NA,44.7083263,-75.5156333,1,1
Dollar Tree,"2970 County Rd 43, Kemptville Crossing, Kemptville, ON, K0G 1J0",NA,613-258-2882,45.0288613,-75.6363201,1,1
Giant Tiger,"2970 County Road 43, Kemptville, ON, K0G 1J0",NA,613-258-7888,45.0286904,-75.6366503,1,1
Giant Tiger,"2984, chemin d'Oka, Sainte-Marthe-sur-le-Lac, QC, J0N 1P0",NA,450-472-2283,45.5288076,-73.9316354,1,1
MacEwen Kemptville,"2985 County Rd 43, Kemptville, ON",NA,613-258-0256,45.0299974,-75.6373387,1,1
Circle K,"299 Greenbank Rd., NEPEAN, Canada","gas, diesel, atm, coffee, polar_pop, froster, roller_grill, redbull_shop",NA,45.3237882,-75.7773955,1,1
MacEwen Maxville,"3 Main Street North, Maxville, ON",NA,613-527-3120,45.2883346,-74.8552323,1,1
Ultramar,"3, avenue Gatineau, Gatineau, QC, J8T4H8",NA,(819) 561-3240,45.4758204,-75.7308871,1,1
Giant Tiger,"300 Park Street, Brockville, ON, K6V 2J1",NA,613-498-2624,44.6009302,-75.6906365,1,1
Pioneer Gas,"3019 COUNTY RD. 29, BROCKVILLE, ON",NA,NA,44.6114922,-75.7364337,1,1
Orleans Food Market,"3022 St. Joseph Blvd, Orleans, ON K1E 1E2","Convenience Stores, Grocery",NA,45.4767757,-75.5135279,1,1
Quickie,"3023 CEDARVIEW ROAD, Nepean, Ontario, K2J 4A8",NA,613-825-2458,45.2660293,-75.7713906,1,1
Dollarama,"305 Rideau St, Ottawa, ON, K1N 9E5",NA,16137897008,45.429285,-75.6855887,1,1
Quickie,"305 ST. LAWRENCE STREET, Merrickville, Ontario, K0G 1N0",NA,613-269-3320,44.9146639,-75.8363077,1,1
Petro-Canada,"3055 St-Joseph Blvd, Orleans, Ontario, K1C1T1",NA,6138301392,45.4783089,-75.5125556,1,1
Mr. Gas,"3065 Highway 29, Brockville, Ontario, K6V 5T4",NA,(613) 345-1146,44.6285892,-75.7996277,1,1
Ste Anne Convenience,"308 Shakespeare St, Vanier, ON K1L 5M4",Convenience Stores,NA,45.4395184,-75.6592304,1,1
Darvesh Gas Grocery LCBO &amp; Beer Store,"3084 Kinburn Side Road, Kinburn, ON K0A 2H0","Gas Stations, Beer, Wine &amp; Spirits, Convenience Stores",NA,45.391489,-76.1885617,1,1
MacEwen Mattawa,"310 McConnell Street, Mattawa, ON",NA,705-744-5332,46.3163276,-78.7031575,1,1
Bravo Corner,"312 Bank St, Ottawa, ON K2P 1Y1",Convenience Stores,NA,45.4145679,-75.6958437,1,1
Giant Tiger,"312, rue Saint-Georges, Saint-Jérôme, QC, J7Z 5A5",NA,450-565-9171,45.7764903,-74.0034925,1,1
Mr. Gas,"3140 Old Hwy 69, Val Caron, Ontario, P3N 1G3",NA,(705) 897-2350,46.6140388,-81.0061863,1,1
Shell,"3190 PRINCE OF WALES DRIVE, NEPEAN, Ontario, K2C 3H1",NA,+1 613 823 0692,45.2868549,-75.7029312,1,1
The Dam Depot,"32 Main St, Latchford, ON",NA,705-676-2313,47.3262103,-79.8105618,1,1
Mac's,"32 Wilson Street, PERTH, Canada","atm, coffee, polar_pop, froster, redbull_shop",NA,44.9012895,-76.2538338,1,1
Giant Tiger,"320 Coleman Street, Carleton Place, ON, K7C 0B5",NA,613-253-5564,45.1400487,-76.1286808,1,1
Ultramar,"320, Boulevard Greber, Gatineau, QC, J8T8H4",NA,(819) 561-0905,45.4777091,-75.7014885,1,1
Petro-Canada,"3201 Conroy Road, Ottawa, Ontario, K1G3N4",NA,6132480152,45.3738248,-75.623971,1,1
MacEwen Carleton Place,"322 Townline Road East, Carleton Place, ON",NA,613-257-8826,45.1500151,-76.1414177,1,1
Quickie,"326-332 BANK STREET, Ottawa, Ontario, K2P 1Y1",NA,613-598-0052,45.4142546,-75.6956649,1,1
Keyur Tuck Shop,"33 Banner Rd, Nepean, ON K2H 8V7",Convenience Stores,NA,45.3328836,-75.7864359,1,1
Petro-Canada,"3300 Woodroffe Avenue, Nepean, Ontario, K2J4G5",NA,6138438637,45.2759127,-75.7196091,1,1
Petro-Canada,"3320 Fallowfield Road, Nepean, Ontario, K2J4P5",NA,6138251557,45.2979737,-75.7318443,1,1
Quickie,"3332 McCARTHY ROAD, Ottawa, Ontario, K1V 0H9",NA,613-526-1230,45.351192,-75.6702828,1,1
Clarke's Food Mart,"33406 Richmond Street, Lucan, ON",NA,519-227-0059,43.1853251,-81.396687,1,1
Ultramar,"34, boulevard Mont Bleu, Gatineau, QC, J8Z1J1",NA,(819) 771-9456,45.4625476,-75.7461996,1,1
Country Style,"340 Laurier Ave W, Ottawa, ON K1P 5K3",Convenience Stores,NA,45.4179829,-75.6998984,1,1
Ralph & Sons Gas Station & C-Store,"3420 Carling Ave, Nepean, ON",NA,613-828-0697,45.352191,-75.8354632,1,1
Ultramar,"3467 Hawthorne Road, Ottawa, ON, K1G4G2",NA,(613) 730-8080,45.3747828,-75.5969736,1,1
Ultramar,"3469 Innes Rd, Orleans, ON K1C 1T1",Convenience Stores,NA,45.447056,-75.5269859,1,1
ESSO COUCHE-TARD,"348 BOUL LORRAIN, GATINEAU, QC",NA,NA,45.5069413,-75.6089149,1,1
Quickie,"348 ELGIN STREET, Ottawa, Ontario, K2P 1M6",NA,613-695-7778,45.4157122,-75.6886654,1,1
Quickie,"350 VIEWMOUNT DRIVE, Ottawa, Ontario, K2E 7T5",NA,613-224-4389,45.3489862,-75.7149353,1,1
HAWTHORNE ESSO,"3500 HAWTHORNE RD, OTTAWA, ON",NA,NA,45.3741719,-75.597868,1,1
Mac's,"355 Franktown Rd., CARLETON PLACE, Canada","atm, coffee, polar_pop, froster, redbull_shop",NA,45.1309426,-76.1287832,1,1
Canadian Tire Gas Bar,"355 Stewart Blvd., Brockville, ON, K6V 4W9",NA,6133456440,44.6011937,-75.7054175,1,1
Canadian Tire Gas Bar,"355, boul. de la Carriere, Gatineau, QC, J8Y 6W4",NA,8197774381,45.4430168,-75.729778,1,1
Giant Tiger,"359, rue Principale, Lachute, QC, J8H 2Z7",NA,450-562-8218,45.6563877,-74.3451031,1,1
Quickie,"361 POULIN AVENUE, Ottawa, Ontario, K2B 5V2",NA,613-829-5073,45.3630049,-75.7917297,1,1
Midori Market,"3689 Navan Rd, Ottawa, ON K4B 1H9","Pizza, Convenience Stores",NA,45.4265805,-75.4890519,1,1
ISLAND PARK ESSO,"369 ISLAND PARK DR, OTTAWA, ON",NA,NA,45.3972391,-75.7416991,1,1
Canadian Tire Gas Bar,"375 Daniel Street South, Arnprior, ON, K7S 3K6",NA,6136236551,45.4257504,-76.3679176,1,1
Quickie,"375 DES ÉPINETTES AVE, Cumberland, Ontario, K1E 3E6",NA,613-830-3507,45.4661877,-75.4957745,1,1
DEPANNEUR TACHE,"376 BOUL ALEXANDRE TACHE, GATINEAU, QC",NA,NA,45.4218749,-75.7459196,1,1
Petro-Canada,"3775 C Strandherd Drive, Ottawa, Ontario, K2J4B1",NA,6138431438,45.2685841,-75.7501918,1,1
NICHOLLS ESSO,"3798 DUNROBIN RD, WOODLAWN, ON",NA,NA,45.4628437,-76.0740486,1,1
Nicholls,"3798 Dunrobin Road RR 3, Woodlawn, ON K0A 3M0",Convenience Stores,NA,45.4625561,-76.0746876,1,1
MacEwen Chesterville,"38 Main St N, Chesterville, ON",NA,613-448-1333,45.103069,-75.2302649,1,1
MacEwen Aylmer,"380 Chemin Vanier, Aylmer, Gatineau, QC",NA,819-682-4749,45.4127014,-75.8089522,1,1
Circle K,"385 Tompkins Ave., ORLEANS, Canada","atm, coffee, polar_pop, froster, roller_grill, redbull_shop",NA,45.4774353,-75.4985302,1,1
Giant Tiger,"385, avenue de Buckingham, Buckingham, QC, J8L 2G8",NA,819-986-8533,45.5898658,-75.4179833,1,1
Circle K,"3869 Innes RD, ORLEANS, Canada","gas, atm",NA,45.4531593,-75.5120415,1,1
ESSO CIRCLE K,"3869 INNES RD, ORLEANS, ON",NA,NA,45.4532148,-75.512301,1,1
Petro-Canada,"390 Parkdale Ave, Ottawa, Ontario, K1Y1G6",NA,6137291091,45.4009191,-75.7296495,1,1
Petro-Canada,"395 Montee Paiement, Gatineau, Quebec, J8P6M7",NA,8195617007,45.49008,-75.6760201,1,1
Canadian Tire Gas Bar,"399, boul. Maloney Ouest, Gatineau, QC, J8P 3W1",NA,8196692033,45.4847617,-75.6649555,1,1
Canadian Tire Gas Bar,"4 Ferrara Drive, Highway 15, Smiths Falls, ON, K7A 5K4",NA,6132831193,44.8921197,-76.0288166,1,1
Quickie,"4 LORRY GREENBERG DRIVE, Ottawa, Ontario, K1G 5H6",NA,613-739-8493,45.3691281,-75.6209221,1,1
Mr. Gas,"400 Daniel Street South, Arnprior, Ontario, K7S 3G9",NA,(613) 623-8291,45.4230993,-76.3688754,1,1
Dollar Tree,"400 Spence Street, Hawkesbury Mall, Hawkesbury, ON, K6A 2Y3",NA,613-632-1088,45.597843,-74.611836,1,1
Circle K,"4000 Bridle Path, GLOUCESTER, Canada","atm, coffee, polar_pop, froster, redbull_shop",NA,45.3483871,-75.6457041,1,1
Petro-Canada,"4000 Riverside Drive, Ottawa, Ontario, K1V2E8",NA,6132499089,45.3338503,-75.6939619,1,1
Saar's Store,"40020 Hwy 41, Pembroke, ON",NA,613-732-2711,45.7541157,-77.1138733,1,1
Mr. Gas,"4042 Innes Road, Ottawa, Ontario, K1C 1T1",NA,613-837-7652,45.4551013,-75.5051859,1,1
Marcello’s,"407 Laurier Avenue W, Ottawa, ON K1R 7Y7","Buffets, Delis",NA,45.4176063,-75.7020495,1,1
Delta Foodland,"41 King St, Delta, ON",NA,613-928-2030,44.6116459,-76.1214404,1,1
Ultramar,"410, Boul. Maloney Est, Gatineau, QC, J8P1E7",NA,(819) 669-1819,45.4842196,-75.6392184,1,1
MacEwen Hawkesbury,"414 County Rd 17, Hawkesbury, ON",NA,613-632-0332,45.5894048,-74.5876634,1,1
Giant Tiger,"414, rue du Pont, Mont-Laurier, QC, J9L 2R7",NA,819-440-3032,46.5509061,-75.4987281,1,1
Brinston General Store,"4141 Brinston Rd, Brinston, ON",NA,613-652-2482,44.9392769,-75.3594482,1,1
Circle K,"418 Moodie Drive, NEPEAN, Canada","atm, coffee, polar_pop, froster, roller_grill, redbull_shop",NA,45.3208341,-75.8331709,1,1
Circle K,"4184 Spratt Road, Unit 1, OTTAWA, Canada","atm, coffee, polar_pop, froster, roller_grill, redbull_shop",NA,45.2831629,-75.6855826,1,1
Petro-Canada,"42 Montreal Road, Vanier, Ontario, K1L6E7",NA,6137494942,45.4331463,-75.6683331,1,1
Shell,"420 CH VANIER, GATINEAU, Quebec, J9J 3H8",NA,+1 819 684 3823,45.414595,-75.8093074,1,1
Dollar Tree,"424 Ninth Street W Unit C1, Cornwall SmartCentre, Cornwall, ON, K6J 0B3",NA,613-933-1073,45.0244772,-74.7457714,1,1
Dollarama,"425 boul St-Joseph, Gatineau, QC, J8Y3Z8",NA,18195952269,45.4456609,-75.7340534,1,1
Slater Street Market,"427 Laurier West, Ottawa, ON K1R 1B9",Convenience Stores,NA,45.4172318,-75.7025806,1,1
MOBIL@  - 4272,"4270 INNES ROAD, OTTAWA, ON",NA,NA,45.4572295,-75.4953166,1,1
Quickie,"431 DONALD STREET, Ottawa, Ontario, K1K 1L8",NA,613-748-0641,45.4284426,-75.6493299,1,1
Quickie,"435 ALBERT STREET, Ottawa, Ontario, K1R 7X4",NA,613-232-6488,45.4173543,-75.7067817,1,1
Ottawa South Groceteria,"435 Sunnyside Avenue, Ottawa, ON K1S 0S6",Grocery,NA,45.3916631,-75.6899175,1,1
Petro-Canada,"4358 Innes Road, Cumberland, Ontario, K4A3W3",NA,6138346533,45.4594606,-75.4911923,1,1
Circle K,"437 St. Laurent Blvd., OTTAWA, Canada","atm, coffee, polar_pop, froster, roller_grill, redbull_shop",NA,45.4473684,-75.6498646,1,1
Pioneer Gas,"439 13TH STREET W., CORNWALL, ON",NA,NA,45.030124,-74.7512257,1,1
Mike’s Corner Store,"44 Elm St, Ottawa, ON K1R 6N1",Convenience Stores,NA,45.4103193,-75.7125998,1,1
Lx &amp; Lz Variety,"440 Gloucester St, Ottawa, ON K1R 7T8",Convenience Stores,NA,45.4140798,-75.7067335,1,1
Rene’s Corner,"4490 Anderson Road, Carlsbad Springs, ON K0A 1K0",Convenience Stores,NA,45.3423997,-75.5249528,1,1
Circle K,"45 Main Street, SMITH FALLS, Canada","atm, coffee, polar_pop, froster, redbull_shop",NA,44.8994917,-76.0175383,1,1
ESSO CIRCLE K,"450 BANK ST, OTTAWA, ON",NA,NA,45.4118113,-75.6937908,1,1
Quickie,"4505 BANK STREET, Ottawa, Ontario, K1T 3W5",NA,613-822-2301,45.331419,-75.5996245,1,1
Shell,"451-A MONTEE DE LA SOURCE, CANTLEY, Quebec, J8V 3B5",NA,+1 819 827 4086,45.539322,-75.7724857,1,1
Giant Tiger,"451, rue Léonard, Ste-Agathe-des-Monts, QC, J8C 2Y5",NA,819-326-9099,46.0434481,-74.2696278,1,1
TARGET FUEL,"455 DONALD ST, OTTAWA, ON",NA,NA,45.4285852,-75.6479422,1,1
MacEwen Fallowfield,"4564 Fallowfield Road, Ottawa, ON",NA,613-838-2768,45.2689656,-75.8018053,1,1
Store Homeland,"46 Garland St, Ottawa, ON K1Y 2A7",Convenience Stores,NA,45.4063636,-75.7243021,1,1
JR COUNTRY STORE,"462 CHENAUX RD, FORESTERS FALLS, ON",NA,NA,45.5778034,-76.6983139,1,1
Petro-Canada,"47 rue Greber, Gatineau, Quebec, J8T3P7",NA,8195610737,45.4618626,-75.6993677,1,1
Petro-Canada,"470 Bronson Ave., Ottawa, Ontario, K1R6J9",NA,6133211264,45.4073978,-75.703867,1,1
MacEwen Alexandria South,"470 Main St S, Alexandria, ON",NA,613-525-4580,45.2992237,-74.6275105,1,1
WO Stinson &amp; Son,"4728 Bank Street, Ottawa, ON K1T 3W7","Gas Stations, Convenience Stores, Propane",NA,45.3241221,-75.5965773,1,1
Shell,"473 TERRY FOX DR, KANATA, Ontario, K2T 1E8",NA,+1 613 599 4980,45.3101937,-75.9194641,1,1
Giant Tiger,"473, route 148, Shawville, QC, J0X 2Y0",NA,819-647-6320,45.6020451,-76.5021907,1,1
Kara’s Convenience Stores,"475 Elgin St, Ottawa, ON K2P 2E6",Convenience Stores,NA,45.4126854,-75.6852682,1,1
Canadian Tire Gas Bar,"4776 Bank Street, Gloucester, ON, K1T 0K8",NA,6138221289,45.3185859,-75.5945576,1,1
Canadian Tire Gas Bar,"4778 Bank Street, Gloucester, ON, K1T 0K8",NA,6138226869,45.3180646,-75.5927572,1,1
ESSO COUCHE-TARD,"480 BOUL SAINT-JOSEPH, GATINEAU, QC",NA,NA,45.4464211,-75.7323619,1,1
Convenience Store Remac,"487 Cumberland Street, Ottawa, ON K1N 7K1",Convenience Stores,NA,45.4262919,-75.6859216,1,1
A2Z Food Centre,"489 Rideau St, Ottawa, ON K1N 5Z5",Convenience Stores,NA,45.4317166,-75.6792161,1,1
Quickie,"490 RIDEAU STREET, Ottawa, Ontario, K1N 8L4",NA,613-789-5454,45.431362,-75.6789385,1,1
Ceci Cela Convenient Store,"50 O'connor St, Ottawa, ON K1P 6L2",Convenience Stores,NA,45.4208307,-75.6989356,1,1
Gateway Newstand,"50 Rideau St, Ottawa, ON K1N 9J1",Convenience Stores,NA,45.4252795,-75.6929819,1,1
Petro-Canada,"500 Eagleson Road, Kanata, Ontario, K2M1H4",NA,6132545992,45.2908396,-75.8706811,1,1
Dollarama,"500 Terminal Ave., Ottawa, ON, K1G0Z3",NA,16135621002,45.4144745,-75.6471402,1,1
Canadian Tire Gas Bar,"500 Terry Fox Drive, Kanata, ON, K2T 1C3",NA,6132548366,45.3086126,-75.916439,1,1
MacEwen Rideau Road,"5026 Bank Street, Gloucester, ON K1X 1G8",NA,613-822-9923,45.2971137,-75.5807549,1,1
County Line Alfred,"5087 County Road 17, Alfred, ON K0B 1A0",NA,613-679-0920,45.5497559,-74.9115176,1,1
ESSO COUCHE-TARD,"51 BOUL FOURNIER, GATINEAU, QC",NA,NA,45.4463463,-75.7130504,1,1
Ultramar,"510 Boulevard Saint-Joseph, Gatineau, QC, J8Y4A2",NA,(819) 778-3174,45.4484731,-75.7336017,1,1
MacEwen Bank & Catherine,"512a Bank Street, Ottawa, ON",NA,613-235-6102,45.4096706,-75.6924399,1,1
Drummond's Gas,"5220 Mitch Owens Road, Manotick, ON K4M 1B2",NA,NA,45.233935,-75.675158,1,1
Dollar Tree,"525 West Hunt Club Road, Nepean Crossroads Center, Nepean, ON, K2G 5W5",NA,613-224-6990,45.3351046,-75.7274794,1,1
Petro-Canada,"5336 Boundary Road, Gloucester, Ontario, K0A1K0",NA,6138226642,45.345078,-75.4436492,1,1
Circle K,"542 St. Lawrence St., WINCHESTER, Canada","atm, coffee, polar_pop, froster, redbull_shop",NA,45.0905082,-75.3523885,1,1
Mimi’s Food Market Express,"549 Gladstone Ave, Ottawa, ON K1R 6E5",Convenience Stores,NA,45.4099135,-75.6994313,1,1
Byward Market News,"55 ByWard Market Sq, Ottawa, ON K1N 9C3",Grocery,NA,45.427449,-75.6923646,1,1
Giant Tiger,"55,  boul. Gréber, Gatineau, QC, J8T 3P7",NA,819-561-3563,45.4625432,-75.6994492,1,1
Drummond's Gas,"5501 Bank Street, Gloucester, ON K1X 1G9",NA,NA,45.2814668,-75.5707625,1,1
Mac's,"5511 Main Street, MANOTICK, Canada","atm, coffee, polar_pop, froster, redbull_shop",NA,45.2271049,-75.6861776,1,1
Circle K,"5525 Appleton Side Road, ALMONTE, Canada","car_wash, gas, diesel, atm, coffee, polar_pop, froster, roller_grill, redbull_shop",NA,45.2367095,-76.1792507,1,1
MacEwen Albion,"5546 Albion Road, Gloucester, ON",NA,613-822-0256,45.269772,-75.5944777,1,1
Quickie,"56 BATH ROAD, Kingston, Ontario, K7L 1H5",NA,613-547-2487,44.2404415,-76.5138211,1,1
Pioneer Gas,"560 KING STREET E., GANANOQUE, ON",NA,NA,44.3354971,-76.1537944,1,1
Discount Tobacco &amp; Grocery Shop,"5646 Manotick Main Street, Manotick, ON K4M 1B3",Convenience Stores,NA,45.2201635,-75.6768404,1,1
Dollarama,"565 West Hunt Club Rd, Nepean, ON, K2G 5W5",NA,16132247204,45.3358623,-75.7285727,1,1
Petro-Canada,"570 Terry Fox Dr, Kanata, Ontario, K2T1L2",NA,6135990491,45.308046,-75.9156519,1,1
MacEwen Eamer’s Corners,"5756 ON-138, Cornwall, ON",NA,613-933-0320,45.0621874,-74.7712938,1,1
Drummond's Gas,"5789 Perth, Richmond, ON K0A 2Z0",NA,NA,45.2046343,-75.8233229,1,1
Mr. Gas,"58 Armstrong St , New Liskeard, Ontario, P0J 1P0",NA,705-805-3085,47.5100809,-79.6719399,1,1
A&amp;M Mart,"580 Montreal Rd, Ottawa, ON K1K","Pizza, Gas Stations",NA,45.4409854,-75.6440071,1,1
MacEwen Vankleek Hill,"5819 Hwy 34, Vankleek Hill, ON K0B 1R0",NA,613-678-5932,45.5218057,-74.6505869,1,1
Shell,"5842 HWY 34, Vankleek Hill, Ontario, K0B 1R0",NA,+1 613 678 2005,45.5206849,-74.6518951,1,1
ESSO COUCHE-TARD,"585 BOUL DES GRIVES, GATINEAU, QC",NA,NA,45.4435358,-75.7859961,1,1
Mr. Gas,"5899 Hazeldean Road, Stittsville, Ontario, K2S 1B9",NA,(613) 836-2769,45.2779141,-75.9209097,1,1
Ultramar,"591 Boul. des Grives, Gatineau, QC, J9A3C3",NA,(819) 772-1889,45.4445213,-75.7861172,1,1
MacEwen Richmond,"5925 Perth St, Richmond, ON",NA,613-838-3012,45.2007119,-75.8294839,1,1
MacEwen Hanover,"594 10th Street, Hanover, ON N4N 1R7",NA,519-364-0570,44.1539886,-81.0170602,1,1
Dollarama,"594 Montreal Rd, Ottawa, ON, K1K0T9",NA,16132880113,45.4414064,-75.6442188,1,1
Giant Tiger,"595 Alexandria Main St. South, Alexandria, ON, K0C 1A0",NA,613-525-2291,45.2947601,-74.6267887,1,1
Domestic Foods,"595 Gladstone Ave, Ottawa, ON K1R 5P2","Grocery, Convenience Stores",NA,45.4092318,-75.7010511,1,1
Hasty Market,"596 Rideau St, Ottawa, ON K1N 6A2",Convenience Stores,NA,45.4329124,-75.6754193,1,1
Circle K,"598 Montreal Road, OTTAWA, Canada","atm, coffee, polar_pop, froster",NA,45.4421259,-75.6429469,1,1
Lyndale Corner Food Mart,"60 Lyndale Avenue, Ottawa, ON K1Y 2M8",Convenience Stores,NA,45.4071673,-75.7308767,1,1
Quickie,"60 WILLIAM STREET, Brockville, Ontario, K6V 4V5",NA,613-342-8482,44.5921906,-75.6884473,1,1
Petro-Canada,"6061 Hazeldean Road, Stittsville, Ontario, K2S1B9",NA,6138313017,45.272694,-75.9309671,1,1
Giant Tiger,"6081 Hazeldean Road, Stittsville, ON, K2S 1B8",NA,613-836-4593,45.2724542,-75.9329283,1,1
Giant Tiger,"609 Pitt Street, Cornwall, ON, K6J 3R8",NA,613-932-4069,45.0249411,-74.7311293,1,1
Circle K,"6138 Perth Street, RICHMOND, Canada","atm, coffee, polar_pop, froster, roller_grill, redbull_shop",NA,45.1938724,-75.8389807,1,1
VARS GAS BAR LTD,"6175 ROCKDALE RD, VARS, ON",NA,NA,45.3404999,-75.3441019,1,1
Circle K,"62 Stonehaven, KANATA, Canada","atm, coffee, polar_pop, froster, roller_grill, redbull_shop",NA,45.2923085,-75.8578066,1,1
Shell,"620 BOUL MALONEY O, GATINEAU, Quebec, J8T 8K7",NA,+1 819 243 3353,45.48233,-75.6748739,1,1
Petro-Canada,"625 Principale, Casselman, Ontario, K0A1M0",NA,6137643697,45.2994997,-75.0788863,1,1
Petro-Canada,"6250 Hazeldean Road, Stittsville, Ontario, K2S1B9",NA,6138362966,45.2681321,-75.9383774,1,1
County Line Casselman,"631 Rue Principale, Casselman, ON K0A 1M0",NA,613-764-1900,45.3063655,-75.0826158,1,1
Drummond's Gas,"635 Bronson Ave, Ottawa, ON K1S 4E7",NA,NA,45.4036335,-75.7009458,1,1
Quickie,"64 BEECHWOOD AVENUE, Ottawa, Ontario, K1L 8B2",NA,613-744-7256,45.4401226,-75.6749723,1,1
Crosswinds Convenience,"641 Bathgate Dr, Ottawa, ON K1K 3Y3",Convenience Stores,NA,45.4465282,-75.6241498,1,1
Giant Tiger,"646 O'Brien Road, Renfrew, ON, K7V 0B4",NA,613-432-2230,45.475968,-76.66187,1,1
Mac's,"6469 Jeanne D'Arc Blvd North, OTTAWA, Canada","gas, diesel, atm, coffee",NA,45.4803399,-75.5370229,1,1
Ultramar Carlsbad Variety,"6500 Russel Road, Ottawa, ON K0A 1K0","Gas Stations, Convenience Stores, Beer, Wine &amp; Spirits",NA,45.3689882,-75.4556709,1,1
MacEwen Barrie,"652 Dunlop Street West, Barrie, ON",NA,705-728-5740,44.3660768,-79.7328016,1,1
Giant Tiger,"654 Notre Dame Street, Embrun, ON, K0A 1W0",NA,613-443-1215,45.2679279,-75.3096731,1,1
Quickie,"655 BRONSON AVE., Ottawa, Ontario, K1S 4E7",NA,613-238-1948,45.4034352,-75.7008307,1,1
Giant Tiger,"656 Gardiners Road, Kingston, ON, K7M 3X9",NA,613 384-1730,44.2458245,-76.5659254,1,1
Parkway Cafe,"66 Slater Street, Ottawa, ON K1P 5H1",Convenience Stores,NA,45.4213601,-75.6942895,1,1
Ultramar,"660 Eagleson Road, Ottawa, ON K2M 1H4","Gas Stations, Convenience Stores",NA,45.2879529,-75.8686241,1,1
Canadian Tire Gas Bar,"680 Highway 401 Eastbound, Mallorytown, ON, K0E 1R0",NA,6139231610,44.5056195,-75.8355051,1,1
MOBIL@  - 4207,"680 O'BRIAN ROAD, RENFREW, ON",NA,NA,45.4765018,-76.6600707,1,1
MacEwen River Road,"685 River Road, Ottawa, ON K1V 2G2",NA,613-822-9776,45.2701673,-75.6978273,1,1
MacEwen Cavan Monaghan,"6872 ON-7, Peterborough, ON",NA,705-742-6296,44.2403402,-78.4031763,1,1
Petro-Canada,"7 Carbrooke St., Kanata, Ontario, K2L1B1",NA,6138311667,45.3023544,-75.8791186,1,1
Mac's,"7 Moulinette Rd., LONG SAULT, Canada","atm, coffee, polar_pop, froster, redbull_shop",NA,45.0282336,-74.8969554,1,1
Quickie,"700-14TH STREET WEST, Cornwall, Ontario, K6J 5M2",NA,613-932-0295,45.0305187,-74.7550791,1,1
Ultramar,"700 MONTEE PAIEMENT , GATINEAU, QC, J8R1L3",NA,(819) 669-1626,45.5020951,-75.6767605,1,1
Brookfield Restaurant &amp; Catering,"704 Brookfield Road, Ottawa, ON K1V 6J4","Breakfast &amp; Brunch, Delis, Lebanese",NA,45.372897,-75.6894821,1,1
Circle K,"715 Limoges Road, LIMOGES, Canada","gas, diesel, atm, coffee, polar_pop, froster, roller_grill, redbull_shop",NA,45.3184163,-75.2443258,1,1
Giant Tiger,"715, boul. Maloney Est, Gatineau, QC, J8P 1G3",NA,819-669-8191,45.4841844,-75.6236107,1,1
Cambridge Food Mart,"72 Cambridge St N, Ottawa, ON K1R 7A7",Convenience Stores,NA,45.4127557,-75.7077981,1,1
Mr. Gas,"720 John Street, Mattawa, Ontario, ON P0H",NA,(705) 744-2100,46.310791,-78.7084894,1,1
Shell,"720 MARCH RD, KANATA, Ontario, K2K 2R9",NA,+1 613 592 6206,45.3510018,-75.9267278,1,1
Depanneur Miron,"723 Notre Dame Rue, Embrun, ON K0A 1W1",Convenience Stores,NA,45.2700628,-75.2933863,1,1
ESSO COUCHE-TARD,"725 BOUL DES HAUTES-PLAINES, GATINEAU, QC",NA,NA,45.474538,-75.7719339,1,1
Kitley Grocery & Service Centre,"74 Main St, Toledo, ON",NA,613-275-2834,41.6528052,-83.5378674,1,1
Petro-Canada,"744, boul Saint-Joseph, Gatineau, Quebec, J8Y4A8",NA,8197777697,45.4572839,-75.7421205,1,1
Richmond Mart,"747 Richmond Rd, Ottawa, ON K2A 0G6",Convenience Stores,NA,45.382657,-75.7701135,1,1
Canadian Tire Gas Bar,"754 Highway 401 Eastbound, Morrisburg, ON, K0C 1X0",NA,6135431947,44.9444503,-75.1291349,1,1
MacEwen Collingwood,"7618 Poplar Sideroad, Collingwood, ON",NA,705-445-6645,44.478974,-80.213053,1,1
Canadian Tire Gas Bar,"764 Highway 401 Westbound, Ingleside, ON, K0C 1M0",NA,6135433052,44.9712268,-75.0819951,1,1
Ultramar,"772 ST-JOSEPH, GATINEAU (HULL), QC, J8X4B9",NA,(819) 777-5170,45.459793,-75.74107,1,1
Saigon Meats &amp; Vegetables,"777 Somerset Street W, Ottawa, ON K1R 6R3","Grocery, Convenience Stores",NA,45.4100018,-75.7100384,1,1
Circle K,"780 Baseline Rd., OTTAWA, Canada","atm, coffee, polar_pop, froster, roller_grill, redbull_shop",NA,45.3705807,-75.7172098,1,1
Petro-Canada,"790 Wilfrid-Lavigne Blvd., Gatineau, Quebec, J9J2S5",NA,8196845901,45.4110993,-75.8386017,1,1
Giant Tiger,"80 Elgin Street West, Arnprior, ON, K7S 1N5",NA,613-623-6203,45.4339729,-76.3560647,1,1
Circle K,"80 Madawaska Street, ARNPRIOR, Canada","atm, coffee, polar_pop, froster, roller_grill, redbull_shop",NA,45.4347485,-76.3555146,1,1
Quickie,"800 STONEHAVEN DRIVE, Kanata, Ontario, K2M 2Z2",NA,613-254-9413,45.2811972,-75.838223,1,1
Zoba Convenience Store,"81 Bank St, Ottawa, ON K1P 5N2",Convenience Stores,NA,45.4208228,-75.7008112,1,1
Giant Tiger,"811-813 Princess Street, Kingston, ON, K7L 1G6",NA,613-547-5128,44.2398454,-76.507872,1,1
Maggy’s Mart,"8154 Jeanne D'arc Blvd N, Orleans, ON K1E 2H5",Convenience Stores,NA,45.4875472,-75.5116649,1,1
Metcalfe Variety,"8196 Victoria Street, Ottawa, ON K0A 2P0","Beer, Wine &amp; Spirits, Convenience Stores",NA,45.2349347,-75.4743956,1,1
One Stop Convenience,"850 Merivale Rd, Ottawa, ON K1Z 5Z4",Convenience Stores,NA,45.3852417,-75.732678,1,1
Circle K,"86 Bridge St., ALMONTE, Canada","atm, coffee, polar_pop, froster",NA,45.2243153,-76.1950639,1,1
Giant Tiger,"86, boul. Sainte-Anne, Ste-Anne-des-Plaines, QC, J0N 1H0",NA,450-838-7039,45.7560968,-73.8175207,1,1
Ultramar,"873 Maloney Est, Gatineau, QC, J8P1H4",NA,(819) 669-1708,45.4882202,-75.6011971,1,1
Mace Concenience,"876 Montreal Rd, Ottawa, ON K1K 4L3",Convenience Stores,NA,45.4457968,-75.6301564,1,1
Giant Tiger,"88 Dufferin Street, Perth, ON, K7H 3A7",NA,613-267-6621,44.9073771,-76.2668442,1,1
ESSO COUCHE-TARD,"882 BOUL ST-RENE O, GATINEAU, QC",NA,NA,45.4892103,-75.6893638,1,1
Mac's,"888 Meadowlands Dr. E., OTTAWA, Canada","coffee, polar_pop, froster, redbull_shop",NA,45.3671249,-75.7025045,1,1
Dynes Express,"890 Dynes Rd, Ottawa, ON K2C 0G8",Convenience Stores,NA,45.3699579,-75.7046893,1,1
Mr. Gas,"890 Highway 17, North Bay, Ontario, P1B 8G4",NA,(705) 472-6222,46.3026443,-79.3981826,1,1
Petro-Canada,"890 montée de La Source, Cantley, Quebec, J8V3H4",NA,8198271021,45.5710319,-75.7821721,1,1
RENFREW ESSO,"9 RAGLAN STREET SOUTH, RENFREW, ON",NA,NA,45.4748567,-76.6870242,1,1
DEPANNEUR 9 NEUF,"9 RUE THERIEN, GATINEAU, QC",NA,NA,45.4540293,-75.7520168,1,1
Giant Tiger,"900 Watters Road, Orléans, ON, K4A 0B4",NA,613-841-1946,45.4820643,-75.4734004,1,1
Mr. Gas,"901 McGill Street, Hawkesbury, Ontario, K6A 3K8",NA,(613) 632-1569,45.6001354,-74.6185783,1,1
Canadian Tire Gas Bar,"9020 County Road 17, Rockland, ON, K4K 1V5",NA,6134464589,45.5463729,-75.303034,1,1
Canadian Tire Gas Bar,"9040 County Road 17, Rockland, ON, K4K 1V5",NA,6134464410,45.546828,-75.3023562,1,1
Daisy Mart Beckers,"906 Shefford Road, Gloucester, ON K1J 6X4",Convenience Stores,NA,45.4523899,-75.5899417,1,1
Mac's,"909 Edward Street, PRESCOTT, Canada","gas, diesel, atm, coffee, redbull_shop",NA,44.7167482,-75.5206409,1,1
Quickie,"915 WATTERS STREET, Cumberland, Ontario, K4A 3K5",NA,613-841-6972,45.4837088,-75.4756006,1,1
Mr. Gas,"92 Front St, Sturgeon Falls, Ontario, P2B 3L4",NA,NA,46.3659058,-79.9269806,1,1
MacEwen Rosemount,"9225 ON-89, Rosemont, ON",NA,705-435-2544,44.1233314,-79.9924801,1,1
Giant Tiger,"936 Edward Street North, Prescott, ON, K0E 1T0",NA,613-925-4615,44.7177201,-75.5198797,1,1
Giant Tiger,"945, rue de Saint-Jovite, Mont-Tremblant, QC, J8E 3J8",NA,819-429-5775,46.1182256,-74.5943495,1,1
MacEwen Hawkesbury McGill,"952 McGill St, Hawkesbury, ON",NA,613-632-7565,45.5998272,-74.6194942,1,1
Shell,"962 MERIVALE RD, OTTAWA, Ontario, K1Z 6A2",NA,+1 613 729 3234,45.3812484,-75.7334967,1,1
Franktown Grocery Gas and Pizza,"9645 Highway 15, Smiths Falls, ON K7A 4S7","Pizza, Convenience Stores, Gas Stations",NA,45.038795,-76.0594594,1,1
MacEwen Prescott,"965 Edward Street North, Prescott, ON",NA,613-925-3479,44.7181767,-75.5216193,1,1
Cummings Convenience Store,"969 Cummings Ave, Gloucester, ON K1J 7R9",Convenience Stores,NA,45.4320779,-75.6344962,1,1
MacEwen Peterborough,"971 Lansdowne Street West, Peterborough, ON",NA,705-741-1221,44.2819,-78.3432174,1,1
Giant Tiger,"98 George Street, Ottawa, ON, K1N 5W2",NA,613-241-6733,45.427402,-75.6905046,1,1
Mr. Gas,"980 Cameron Street, Cumberland, Ontario, K4C 1A1",NA,(613) 833-3038,45.5177895,-75.4112554,1,1
Scott's Corner Store,"99 Beckwith Street North, Smiths Falls, ON",NA,613-283-4336,44.9038415,-76.0212506,1,1
Dollar Tree,"E-2015 Parkedale Ave, Brockville SmartCentre, Brockville, ON, K6V 0B4",NA,613-341-8787,44.6115306,-75.6864395,1,1
Pipeline Truck Stop,"Glenfield Road, Ottawa, ON K1G 5N3","Gas Stations, Convenience Stores",NA,45.3838331,-75.600742,1,1
Pioneer Gas,"RR #3 10514 COUNTY RD., MOUNTAIN, ON",NA,NA,44.986202,-75.457925,1,1
Shell,"RTE 105 RR1, Gracefield, Quebec, J0X 1W0",NA,+1 819 463 2561,46.0910902,-76.0479053,1,1
J & J GROCERY,"RTE 148, SHAWVILLE, QC",NA,NA,45.6000738,-76.4945494,1,1
Dollar Tree,"Unit 2 -1021 Cyrville Rd, Riocan St Laurent Shopping Center, Ottawa, ON, K1J 7S3",NA,613-744-1997,45.4265482,-75.6371528,1,1
Dollar Tree,"Unit 2  2950 Bank Street, Blossom Pk Plaza, Ottawa (Gloucester), ON, K1T 1N8",NA,613-523-4644,45.3456943,-75.6264265,1,1
Dollar Tree,"Unit 8 - 3722 Innes Road, Riocan Center, Orleans, ON, K1W 0C8",NA,613-824-4304,45.4496516,-75.5170968,1,1
Petro Canada,"Wellington, Ottawa, ON K1Y","Gas Stations, Convenience Stores",NA,45.4004397,-75.7300647,1,1
