name,address,phone,lat,lng
Mr. Gas,"400 Daniel Street South, Arnprior, Ontario, K7S 3G9",(613) 623-8291,45.4213606,-76.37200180000002
Mr. Gas,"3065 Highway 29, Brockville, Ontario, K6V 5T4",(613) 345-1146,44.6281348,-75.80727969999998
Mr. Gas,"980 Cameron Street, Cumberland, Ontario, K4C 1A1",(613) 833-3038,45.5178264,-75.41131949999999
Mr. Gas,"2336 Rue Saint-Louis, Gatineau, Quebec, J8V 1A2",(819) 561-1552,45.488509,-75.74713889999998
Mr. Gas,"1970 Ogilvie Road, Gloucester, Ontario, K1J 9M8",613-744-0759,45.433547,-75.61307779999999
Mr. Gas,"901 McGill Street, Hawkesbury, Ontario, K6A 3K8",(613) 632-1569,45.600013,-74.61858640000003
Mr. Gas,"4042 Innes Road, Ottawa, Ontario, K1C 1T1",613-837-7652,45.446332,-75.51788770000002
Mr. Gas,"720 John Street, Mattawa, Ontario, ON P0H",(705) 744-2100,46.3110834,-78.70827459999998
Mr. Gas,"58 Armstrong St , New Liskeard, Ontario, P0J 1P0",705-805-3085,47.5097177,-79.67176940000002
Mr. Gas,"2660 Trout Lake Rd, North Bay, Ontario, P1B 7S7",705-995-1491,46.3242263,-79.430363
Mr. Gas,"2701 Highway 11, North Bay, Ontario, P1B 8G3",(705) 472-7245,46.3478456,-79.47092809999998
Mr. Gas,"890 Highway 17, North Bay, Ontario, P1B 8G4",(705) 472-6222,46.3026443,-79.39818259999998
Mr. Gas,"1141 County Road 6, Odessa, Ontario, K0H 2H0",(613) 386-7402,44.279867,-76.71515920000002
Mr. Gas,"1270 Trim Road, Orleans, Ontario, K4A 3P7",(613) 824-7126,45.49115399999999,-75.48001479999999
Mr. Gas,"152 King Street East, Prescott, Ontario, K0E",(613) 925-3091,44.7110713,-75.51210509999999
Mr. Gas,"297 Edwards Street, Rockland, Ontario, K4K 1H6",(613) 446-6877,45.5514579,-75.2954618
Mr. Gas,"12 Union Street, Smiths Falls, Ontario, K7A 2S1",(613)283-1171,44.91044489999999,-76.02127589999998
Mr. Gas,"5899 Hazeldean Road, Stittsville, Ontario, K2S 1B9",(613) 836-2769,45.2779141,-75.92090969999998
Mr. Gas,"92 Front St, Sturgeon Falls, Ontario, P2B 3L4",,46.3658845,-79.92703089999998
Mr. Gas,"2000 Bancroft Drive, Sudbury, Ontario, P3B 1S9",(705) 560-1540,46.4908318,-80.935092
Mr. Gas,"3140 Old Hwy 69, Val Caron, Ontario, P3N 1G3",(705) 897-2350,46.6130205,-81.0063022
Mr. Gas,"102 Hwy 17, Wahnapitae, Ontario, P0M 3C0",(705) 694-3061,46.4878611,-80.80758249999997
