address,address2,postal_code,phone,name
127 FRONT STREET,"Gatineau, Quebec",J9H 5S9,819-684-1303,Quickie
1166 BANK STREET,"Ottawa, Ontario",K1S 3X8,613-730-1113,Quickie
2201 JOCKVALE ROAD,"Nepean, Ontario",K2J 4J9,613-825-1920,Quickie
56 BATH ROAD,"Kingston, Ontario",K7L 1H5,613-547-2487,Quickie
435 ALBERT STREET,"Ottawa, Ontario",K1R 7X4,613-232-6488,Quickie
64 BEECHWOOD AVENUE,"Ottawa, Ontario",K1L 8B2,613-744-7256,Quickie
163 BELL STREET NORTH,"Ottawa, Ontario",K1R 7E1,613-236-5054,Quickie
375 DES ÉPINETTES AVE,"Cumberland, Ontario",K1E 3E6,613-830-3507,Quickie
1275 KENSINGTON PKWY,"Brockville, Ontario",K6V 6C3,613-342-4221,Quickie
655 BRONSON AVE.,"Ottawa, Ontario",K1S 4E7,613-238-1948,Quickie
700-14TH STREET WEST,"Cornwall, Ontario",K6J 5M2,613-932-0295,Quickie
1435 CALDWELL AVE.,"Ottawa, Ontario",K1Z 8L3,613-729-8912,Quickie
16 CENTRAL Avenue East,"Brockville, Ontario",K6V 1W4,613-345-5710,Quickie
"1356-1366 CLYDE AVENUE, UNIT 13","Nepean, Ontario",K2C 3Z4,613-422-1366,Quickie
4 LORRY GREENBERG DRIVE,"Ottawa, Ontario",K1G 5H6,613-739-8493,Quickie
1 CHARTWELL AVENUE,"Ottawa, Ontario",K2G 4C6,613-226-7676,Quickie
431 DONALD STREET,"Ottawa, Ontario",K1K 1L8,613-748-0641,Quickie
9 DUBARRY STREET,"Gatineau, Quebec",J8T 5Y6,819-568-1544,Quickie
348 ELGIN STREET,"Ottawa, Ontario",K2P 1M6,613-695-7778,Quickie
350 VIEWMOUNT DRIVE,"Ottawa, Ontario",K2E 7T5,613-224-4389,Quickie
108 GRÉBER BLVD,"Gatineau, Quebec",J8T 3P8,819-561-2222,Quickie
326-332 BANK STREET,"Ottawa, Ontario",K2P 1Y1,613-598-0052,Quickie
1661 HUNT CLUB ROAD,"Ottawa, Ontario",K1T 3Z3,613-248-9160,Quickie
2 GOLDRIDGE DRIVE,"Kanata, Ontario",K2T 1C7,613-592-8019,Quickie
712 NORTH RIDEAU STREET,"Kemptville, Ontario",K0G 1J0,613-258-3880,Quickie
3023 CEDARVIEW ROAD,"Nepean, Ontario",K2J 4A8,613-825-2458,Quickie
4505 BANK STREET,"Ottawa, Ontario",K1T 3W5,613-822-2301,Quickie
2335 SAINT-LOUIS STREET,"Gatineau, Quebec",J8V 1J2,819-561-0583,Quickie
2 LOUISE-CAMPAGNA BLVD.,"Gatineau, Quebec",J9A 2X1,819-772-1764,Quickie
"786 Main Street, Unit 1","Gatineau, Quebec",J8R 1W7,819-893-6669,Quickie
151 MALONEY BLVD. EAST,"Gatineau, Quebec",J8P 1B9,819-663-9647,Quickie
119 MANN AVENUE,"Ottawa, Ontario",K1N 5A4,613-288-0434,Quickie
3332 McCARTHY ROAD,"Ottawa, Ontario",K1V 0H9,613-526-1230,Quickie
305 ST. LAWRENCE STREET,"Merrickville, Ontario",K0G 1N0,613-269-3320,Quickie
207 du Mont Bleu BLVD.,"Gatineau, Quebec",J8Z 3G3,819-770-3561,Quickie
255 PARKDALE AVENUE,"Ottawa, Ontario",K1Y 1G1,613-725-3708,Quickie
60 WILLIAM STREET,"Brockville, Ontario",K6V 4V5,613-342-8482,Quickie
24 du Mont-Bleu BLVD.,"Gatineau, Quebec",J8Z 1J1,819-771-9456,Quickie
361 POULIN AVENUE,"Ottawa, Ontario",K2B 5V2,613-829-5073,Quickie
1386 RICHMOND ROAD,"Ottawa, Ontario",K2B 8L4,613-820-0204,Quickie
490 RIDEAU STREET,"Ottawa, Ontario",K1N 8L4,613-789-5454,Quickie
1 RIDEAUCREST DR.,"Nepean, Ontario",K2G 6A4,613-823-4050,Quickie
25 SACRÉ COEUR BLVD.,"Gatineau, Quebec",J8X 4C5,819-771-5685,Quickie
110 BECKWITH STREET NORTH,"Smiths Falls, Ontario",K7A 2C3,613-283-3394,Quickie
287A SOMERSET STREET EAST,"Ottawa, Ontario",K1N 6V7,613-233-0016,Quickie
1034 PLEASANT PARK RD,"Ottawa, Ontario",K1G 2A1,613-733-0985,Quickie
800 STONEHAVEN DRIVE,"Kanata, Ontario",K2M 2Z2,613-254-9413,Quickie
487 ALEXANDRE TACHÉ BLVD.,"Gatineau, Quebec",J9A 1M8,819-771-5338,Quickie
882 MALONEY BOULEVARD EAST,"Gatineau, Quebec",J8P 1H5,819-663-3525,Quickie
1780 HERON ROAD,"Ottawa, Ontario",K1V 6A1,613-737-9008,Quickie
915 WATTERS STREET,"Cumberland, Ontario",K4A 3K5,613-841-6972,Quickie
