name,address,phone,lat,lon
A&W,"19705 Fraser Highway, (Food Court), Langley, BC, V3A 7E9",(604)533-1917,49.11336300,-122.67715100
A&W,"45585 Luckakuck Way, (Food Court), Chilliwack, BC, V2R 1A1",(604)858-6883,49.14262900,-121.96395700
A&W,"11900 Haney Pl, (Food Court), Maple Ridge, BC, V2X 8R9",(604)463-7201,49.21791300,-122.59896700
A&W,"3211 Grant McConachie, Domestic Terminal - Before Security, Level 3, Richmond, BC, V7B 0A5",(604)303-3343,49.20426000,-123.17841000
A&W,"6551 No. 3 Road, (Food Court), Richmond, BC, V6Y 2B6",(604)270-1968,49.16594500,-123.13817400
A&W,"1105 Lakeside Drive, Nelson, BC, V1L 5Z3",(250)352-2956,49.49860400,-117.29100500
A&W,"909 - 9855 Austin Ave, Lougheed Mall, Burnaby, BC, V3J 1N4",(604)420-4912,49.25094000,-122.89550900
A&W,"2929 Barnet Highway, (Food Court), Coquitlam, BC, V3B 5R5",(604)464-7141,49.27955700,-122.79844000
A&W,"2002 Marine Drive, Park Royal Ctre (South, Food Court), West Vancouver, BC, V7T 1A1",(604)925-3367,49.32553000,-123.13610700
A&W,"32900 South Fraser Way , (Food Court), Abbotsford, BC, V2S 5A1",(604)852-9420,49.05040300,-122.31870400
A&W,"2526 St. John's St, Port Moody, BC, V3H 2B4",(604)939-2371,49.27685700,-122.85518400
A&W,"45801 First Avenue, Chilliwack, BC, V2P 1R3",(604)792-0044,49.16696200,-121.95761600
A&W,"1204 Cranbrook St, Cranbrook, BC, V1C 3S5",(250)489-5333,49.52429900,-115.75426800
A&W,"581 Ryan Rd, Courtenay, BC, V9N 3R5",(250)338-4901,49.69757100,-124.98945000
A&W,"1982 Columbia Ave, Castlegar, BC, V1N 2W7",(250)365-4990,49.29577200,-117.65408700
A&W,"6241 200th St, Langley, BC, V2Y 1A2",(604)534-1497,49.11594200,-122.66910800
A&W,"7 Eagle Court, Osoyoos, BC, V0H 1V2",(250)495-2509,49.03380800,-119.47459800
A&W,"12000 8 St, Dawson Creek, BC, V1G 4Y5",(250)782-8775,55.74093900,-120.22440000
A&W,"5838 Trans Canada Highway, Duncan, BC, V9L 3S1",(250)748-7889,48.78244600,-123.69967200
A&W,"7330 King George Highway, Surrey, BC, V3W 5A8",(604)590-2226,49.13595800,-122.84528200
A&W,"12133 72nd Ave, Scott Rd at 72nd Ave, Surrey, BC, V3W 2M1",(604)596-2224,49.13427400,-122.88674100
A&W,"2033 East Hastings St, Vancouver, BC, V5L 1T9",(604)255-5942,49.28127900,-123.06292100
A&W,"1355 Lougheed Highway, Coquitlam, BC, V3K 6P9",(604)517-1191,49.23330700,-122.85565600
A&W,"2991 Lougheed Highway, Pinetree Village, Coquitlam, BC, V3B 6J6",(604)464-8953,49.27651000,-122.79656100
A&W,"6535 Kingsway Ave, Burnaby, BC, V5E 1E1",(604)433-6212,49.21953600,-122.96917200
A&W,"15988 Fraser Highway, Fleetwood, Surrey, BC, V4N 0X8",(604)597-9599,49.15753600,-122.77986700
A&W,"512 Railway St, Nelson, BC, V1L 1H4",(250)352-7424,49.48915700,-117.30021400
A&W,"1152 Main Street, Lillooet, BC, V0K 1V0",(250)256-7789,50.70255100,-121.92521300
A&W,"8790 204th St, Langley, BC, V1M 2Y5",(604)513-8788,49.16259900,-122.65676800
A&W,"5300 North Access Road, Chetwynd, BC, V0C 1J0",(250)788-2224,55.69642300,-121.63558000
A&W,"22259 48th Avenue, Murrayville Square, Langley, BC, V3A 3N4",(604)534-6333,49.08941000,-122.60809000
A&W,"34651 97th Street, Oliver Place Shopping Centre, Oliver, BC, V0H 1T0",(250)498-5559,49.17880100,-119.55153400
A&W,"805 Boyd Street, New Westminster, BC, V3M 5X2",(604)515-5351,49.19028000,-122.94919400
A&W,"700-1210 Summit Drive, Columbia Place, Kamloops, BC, V2C 6M1",(250)828-0068,50.66547000,-120.35334600
A&W,"435 Ross Street, Kimberley, BC, V1A 2C5",(250)427-2524,49.68428400,-115.98120400
A&W,"113 Shuswap Avenue, Chase, BC, V0E 1M0",(250)679-8123,50.80624200,-119.69910300
A&W,"2536 Shaughnessy Street, Port Coquitlam, BC, V3C 3G2",(604)942-1838,49.26130100,-122.78233400
A&W,"2222 2nd Avenue, Whitehorse, YT, Y1A 1C8",(867)633-3772,60.72822700,-135.05902600
A&W,"1300 Trans Canada Highway, Golden, BC, V0A 1H0",(250)344-4784,51.31358000,-116.97238000
A&W,"261 Yellowhead Hwy 16, Burns Lake, BC, V0J 1E0",(250)692-0049,54.22649000,-125.75880000
A&W,"3211 Grant McConachie, International Terminal - Post Security, Gate D67, Richmond, BC, V7B 0A5",(604)278-9344,49.19474000,-123.17876800
A&W,"1495 5th Avenue, Petro Canada, Valemount, BC, V0E 2Z0",(250)566-4151,52.83124900,-119.27869600
A&W,"777 West Broadway, Vancouver, BC, V5Z 1J5",(604)877-0796,49.26341100,-123.12142200
A&W,"32530 Lougheed Highway, Mission Hills Shopping Centre, Mission, BC, V2V 1A5",(604)820-0980,49.13269600,-122.32083200
A&W,"26431 Fraser Highway, Aldergrove, BC, V4W 3E2",(604)856-6007,49.05946900,-122.49134700
A&W,"1520 Main Street, North Vancouver, BC, V7J 1E2",(604)986-5778,49.30522100,-123.03171600
A&W,"920 Marine Drive, North Vancouver, BC, V7P 1R9",(604)985-2733,49.32286300,-123.09858300
A&W,"380 Eden Road, Clearwater, BC, V0E 1N1",(250)674-3148,51.65077000,-120.03133000
A&W,"22805 Lougheed Highway, Lougheed Hwy & 228 St, Maple Ridge, BC, V2X 2V7",(604)463-5712,49.21622400,-122.58990900
A&W,"1884 Trans Canada Highway, Revelstoke, BC, V0E 2S0",(250)837-4544,51.00780900,-118.21717900
A&W,"3130 Smith Drive, Armstrong, BC, V0E 1B1",(250)546-2807,50.44511000,-119.18432600
A&W,"5725 Vedder Road, Chilliwack, BC, V2R 3N4",(604)847-0694,49.10653700,-121.96047400
A&W,"4901 Anderson Way , Vernon, BC, V1T 9V1",(250)545-6085,50.28198900,-119.27177900
A&W,"3101  Highway #6, Fruit Union Plaza, Vernon, BC, V1T 9H6",(250)549-4717,50.26157700,-119.27108700
A&W,"2112 Harvey Avenue, Kelowna, BC, V1Y 6G8",(250)762-6621,49.88205600,-119.44156400
A&W,"5500 Clements Crescent, Peachland Village, Peachland, BC, V0H 1X5",(250)767-9557,49.78438200,-119.71757700
A&W,"4696 Joyce Avenue, Powell River, BC, V8A 3B6",(604)485-6277,49.84305100,-124.52058600
A&W,"300 Riverside Drive, Penticton, BC, V2A 5A9",(250)487-9009,49.49593300,-119.61443200
A&W,"1402 Main Street, Penticton, BC, V2A 5G5",(250)493-3237,49.48367000,-119.58583000
A&W,"8140 Garden City Road, Richmond, BC, V6Y 2N9",(604)272-7773,49.15371300,-123.12517300
A&W,"3080 St. Edwards Drive, Richmond, BC, V6X 4C4",(604)214-9901,49.19132800,-123.11215600
A&W,"2840 Cliffe Avenue, Courtenay, BC, V9N 2L7",(250)334-4078,49.67332400,-124.98080500
A&W,"3140 Lakeshore Road, Kelowna, BC, V1W 3T1",(250)762-6151,49.86090200,-119.49179800
A&W,"2040 Sumas Way, Abbotsford Village, Abbotsford, BC, V2S 2C7",(604)852-1320,49.03888700,-122.26945700
A&W,"32520 South Fraser Way, Abbotsford, BC, V2T 1X5",(604)850-1012,49.05107200,-122.32323000
A&W,"15280 Highway #10, Surrey, BC, V3S 5K7",(604)574-1982,49.10390400,-122.79772000
A&W,"2303 King George Boulevard, Surrey, BC, V4A 5A4",(604)538-8807,49.04386400,-122.79179800
A&W,"1966 Guthrie Road, Comox, BC, V9M 3X7",(250)339-9353,49.68828000,-124.93348000
A&W,"888 Carnarvon Street, New Westminster, BC, V3M 0C6",(604)549-4280,49.20149100,-122.91347300
A&W,"3850 Highway 97 North, Quesnel, BC, V2J 5Z1",(250)992-5778,53.01221100,-122.49850700
A&W,"640 Newman Road, Gateway Shopping Centre, Quesnel, BC, V2J 6Z8",(250)747-8445,52.96908900,-122.44099200
A&W,"121 Caribou Highway, 100 Mile House, BC, V0K 2E0",(250)395-3451,51.64738000,-121.29635000
A&W,"350 Lakeshore Drive NW, Salmon Arm, BC, V1E 4M2",(250)832-0502,50.70004900,-119.28988300
A&W,"913 Maclean McPherson Road, Sicamous, BC, V0E 2V0",(250)836-2762,50.83772100,-118.96699000
A&W,"1392 Highway #3, Fernie, BC, V0B 1M0",(250)423-4333,49.51273500,-115.05969000
A&W,"19840 96 Ave, Port Kells, Langley, BC, V1M 3B9",(778)298-1171,49.17676100,-122.67343400
A&W,"1737 Heath Road, Agassiz, BC, V0M 1A0",(604)796-2070,49.23582200,-121.76078200
A&W,"859 Village Drive, Fremont Village, Port Coquitlam, BC, V3B 0G9",(604)474-0234,49.25331100,-122.73742300
A&W,"4605 Hastings Street, Burnaby, BC, V5C 2K6",(604)293-7731,49.28102500,-123.00018600
A&W,"310-1200 Hunter Place, Squamish Station, Squamish, BC, V8B 0G8",(604)815-0833,49.70350600,-123.14594600
A&W,"1136 Bay Avenue, Trail, BC, V1R 4A3",(250)368-4990,49.09749000,-117.70933000
A&W,"131 Aspen Drive, Sparwood, BC, V0B 2G0",(250)425-0345,49.73271900,-114.88322700
A&W,"2301 Voght St, Merritt, BC, V1K 1B8",(250)378-6123,50.11353600,-120.78745700
A&W,"235 Highway #3, PO BOX 847, Princeton, BC, V0X 1W0",(250)295-7977,49.45505100,-120.49493000
A&W,"8950 Granville Street, Port Hardy, BC, V0N 2P0",(250)949-2345,50.72089200,-127.49787000
A&W,"96 Wellington Road West, Lake Cowichan, BC, V0R 2G0",(250)749-0111,48.82271000,-124.05723300
A&W,"9512 Alaska Road, Fort St. John, BC, V1J 6L5",(250)785-8336,56.23494800,-120.83919000
A&W,"4616 Keith Ave, Terrace, BC, V8G 4K1",(250)638-0100,54.51335900,-128.58927200
A&W,"123 City Centre, Kitimat, BC, V8C 1T6",(250)632-6190,54.05485800,-128.65573800
A&W,"4304 50th Avenue North, Fort Nelson, BC, V0C 1R0",(250)774-7325,58.80374900,-122.68393900
A&W,"2054 Whatcom Road, Abbotsford, BC, V3G 2K8",(604)776-0797,49.04010000,-122.22086000
A&W,"1716 20th Avenue, Prince George, BC, V2L 4B8",(250)564-2311,53.90554200,-122.75948900
A&W,"2099 5th Avenue, Prince George, BC, V2M 1K1",(250)561-2327,53.92051300,-122.76421300
A&W,"5998 Southridge Ave, Prince George, BC, V2N 7A1",(250)964-8591,53.86545900,-122.78210000
A&W,"1799 Gordon Drive, Capri Centre Kelowna, Kelowna, BC, V1Y 3H3",(250)762-4307,49.88230300,-119.47679800
A&W,"1039 Highway 97 South, Williams Lake, BC, V2G 2W3",(250)392-2880,52.12611400,-122.12606000
A&W,"1847 East Trans Canada Highway, Valleyview, Kamloops, BC, V2C 3Z7",(250)372-3363,50.67887100,-120.28091000
A&W,"7A - 750 Fortune Dr, Fortune Plaza, Kamloops, BC, V2B 2L2",(250)376-6631,50.69970000,-120.36228500
A&W,"#130 - 2725 192 Street, Surrey, BC, V3Z 3X1",(604)560-9861,49.05294000,-122.69146700
A&W,"2150 - 1502 Broadway Street, Port Coquitlam, BC, V3C 0G1",(604)472-9193,49.24101000,-122.76194000
A&W,"1695 Central Avenue, Grand Forks, BC, V0H 1H0",(250)442-2929,49.02950500,-118.45593600
A&W,"540 East Island Highway, Parksville, BC, V9P 2H6",(250)248-2040,49.31706400,-124.29443900
A&W,"#201 - 3555 Johnson Road, Port Alberni, BC, V9Y 8K2",(250)720-0062,49.26617000,-124.78601000
A&W,"3335 Douglas Street, Victoria, BC, V8Z 3L2",(250)475-2713,48.45071000,-123.37409000
A&W,"#402 - 4949 Canoe Pass Way, Tsawwassen, BC, V4M 0B2",(604)383-0035,49.04310500,-123.08796900
A&W,"RR#7 967 Venture Way, Gibsons, BC, V0N 1V7",(604)886-9669,49.40708000,-123.52444000
A&W,"301 - 5500 Sunshine Coast Highway, Sechelt, BC, V0N 3A0",(604)885-5119,49.47468100,-123.74610500
A&W,"1944 Como Lake Avenue, Coquitlam, BC, V3J 3R3",(604)492-4972,49.26311000,-122.83875000
A&W,"20811 Lougheed Highway, Maple Ridge, BC, V2X 2R2",(604)380-3030,49.21794700,-122.64436400
A&W,"3640 Gellatly Road, Westbank, West Kelowna, BC, V4T 2E6",(250)768-1424,49.83048200,-119.62211300
A&W,"701 - 5800 Turner Rd, Nanaimo, BC, V9T 6J4",(250)756-4076,49.22337800,-124.03840500
A&W,"1 - 1275 Island Highway South, Nanaimo, BC, V9R 7A4",(250)716-0035,49.13002900,-123.92120200
A&W,"1192 Stevens Road, Chevron, West Kelowna, BC, V1Z 2S8",(250)769-1605,49.86603000,-119.56564000
A&W,"991 Denman Street, Vancouver, BC, V6G 2M3",(604)681-0466,49.28936000,-123.13890000
A&W,"200 - 2083 Alma Street, Vancouver, BC, V6R 4N6",(604)564-2083,49.26854000,-123.18608000
A&W,"860 Esquimalt Road, Victoria, BC, V9A 3M4",(250)388-5221,48.43136900,-123.39914900
A&W,"3667 Shelbourne Street, Victoria, BC, V8P 4H1",(250)477-1996,48.46029800,-123.33300600
A&W,"2430 Millstream Road, Victoria, BC, V9B 3R3",(250)474-2288,48.46039500,-123.49745500
A&W,"1778 Old Island Highway, Victoria, BC, V9B 1H8",(250)391-4822,48.44717000,-123.46664700
A&W,"6660 Sooke Road, Unit 1806, Sooke, BC, V9Z 0A5",(250)642-0420,48.37848000,-123.72190000
A&W,"916 Northwest Boulevard, RR 4, Creston, BC, V0B 1G4",(250)428-4849,49.10414100,-116.51926500
A&W,"3282 Highway 16, Houston, BC, V0J 1Z0",(250)845-7555,54.39923600,-126.64987000
A&W,"#101 - 14404 Rosedale Avenue, Summerland, BC, V0H 1Z5",(250)494-0077,49.60645600,-119.67758400
A&W,"555 12th Ave W, City Square, Unit 025, Vancouver, BC, V5Z 3X7",(604)829-6724,49.26042200,-123.11646100
A&W,"828 Deloume Rd, Mill Bay, BC, V0R 2P0",(250)743-1607,48.65192900,-123.56043100
A&W,"108 - 3016 Merchant Way, Langford, BC, V9B 0X1",(250)590-0080,48.43774300,-123.51246400
A&W,"590 Old Hope Princeton Way, Hope, BC, V0X 1L4",,49.37544400,-121.42986100
A&W,"1708 Innovation Drive, Kelowna, BC, V1V 2Y4",(778)753-6383,49.95167400,-119.39040600
A&W,"255 Third Avenue, Invermere, BC, V0A 1K7",(250)342-3575,50.51419500,-116.02511900
A&W,"17830 Highway #10, Surrey, BC, V3S 4N7",(604)574-9594,49.10402500,-122.72854600
A&W,"9685 Highway 97 #101, Winfield, BC, V4V 1P5",(250)766-1050,50.02236500,-119.40572900
A&W,"7092 Kerr Street, Champlain Square, Vancouver, BC, V5S 4W2",(604)435-4311,49.21972900,-123.04080200
A&W,"700 West Georgia Street, Pacific Centre (Food Court), Vancouver, BC, V7Y 1E4",(604)689-1133,49.28308300,-123.11767400
A&W,"505 Burrard Street, Bentall Tower 1 (Food Court), Vancouver, BC, V7X 1M3",(604)681-8727,49.28642100,-123.11907300
A&W,"8671 No. 1 Road, Seafair, Richmond, BC, V7C 1V2",(604)271-4480,49.14846800,-123.18245000
A&W,"1715 East Broadway, Vancouver, BC, V5N 1W2",(604)872-1532,49.26247400,-123.06964900
A&W,"4086 Yellowhead Highway 16 East, Smithers, BC, V0J 2N0",(250)847-3700,54.78626200,-127.17189300
A&W,"2703 Highway 97 North, Leathead, Kelowna, BC, V1X 4J8",(250)763-5552,49.89557400,-119.41335200
A&W,"4820 Kingsway, (Food Court), Burnaby, BC, V5H 4P1",(604)430-2336,49.22570100,-122.99684300
A&W,"4700 Kingsway, (Skytrain station), Burnaby, BC, V5H 4P1",(604)430-8932,49.22606500,-123.00254000
A&W,"4900 27th Street, (Food Court), Vernon, BC, V1T 7G7",(250)542-5658,50.28266900,-119.26671500
A&W,"2111 Main Street, (Food Court), Penticton, BC, V2A 6W6",(250)493-0131,49.47320300,-119.58398400
A&W,"10153 King George Highway, (Food Court), Surrey, BC, V3T 2W1",(604)581-4569,49.18664600,-122.84801800
A&W,"610 6th Street, (Food Court), New Westminster, BC, V3L 3C2",(604)522-3723,49.21264600,-122.92205600
A&W,"4905 - 50th Avenue, Yellowknife, NT, X1A 3S5",(867)669-7071,62.45469000,-114.37059000
A&W,"601 West Cordova Street, Vancouver, BC, V6B 1G1",(604)689-1544,49.28590900,-123.11225100
A&W,"450 Robson Street, Vancouver, BC, V6B 0H3",(604)569-2409,49.27965400,-123.11746200
A&W,"8249 Eagle Landing Parkway, Chilliwack, BC, V2R 0P9",(604)392-1128,49.15185000,-121.97908000
A&W,"6491 Oak Street, Vancouver, BC, V6M 2W7",(604)266-0502,49.22672900,-123.12880600
A&W,"113 East 1st St, PO#1109, Vanderhoof, BC, V0J 3A0",(250)567-4740,54.01412200,-124.00875600
A&W,"1199 Lynn Valley Road, (Food Court), North Vancouver, BC, V7J 3H2",(604)984-1226,49.33471200,-123.04057400
A&W,"10355 152nd Street, (Food Court), Surrey, BC, V3R 7C1",(604)498-4370,49.19006400,-122.80455900
A&W,"468 S.W. Marine Drive, Vancouver, BC, V5X 0C4",(604)327-0468,49.20979000,-123.11714000
A&W,"5778 University Blvd, Vancouver, BC, V6T 1K6",(604)428-0060,49.26638800,-123.24336100
A&W,"1150 Station Street, Pacific Central Station, Vancouver, BC, V6A 4C7",(604)681-1000,49.27371000,-123.09851000
A&W,"11991 Steveston Highway, Richmond, BC, V7A 1N8",(604)448-5591,49.13349000,-123.09256000
A&W,"8811 - 126th Street, Petro Canada, Surrey, BC, V3V 0B9",(778)578-7451,49.16308000,-122.87356000
A&W,"12615 Trans-Canada Highway, Ladysmith, BC, V9G 1M5",(250)245-5213,49.01520300,-123.85245200
A&W,"3177 Massey Dr, (Food Court), Prince George, BC, V2N 2S9",(250)614-0881,53.89777500,-122.77821700
A&W,"1746 Hart Highway, Prince George, BC, V2K 2X6",(250)561-9392,53.94071100,-122.76028600
A&W,"6631 Island Highway N, Nanaimo, BC, V9T 4T7",(250)390-3611,49.23594780,-124.04995080
A&W,"Orchard Park Centre Food Court, 2271 Harvey Avenue, Kelowna, BC, V1Y 6H2",(250)860-5488,49.88179800,-119.44092400
A&W,"Aberdeen Mall (Food Court) , 1320 Trans Canada Highway West, Kamloops, BC, V1S 1J2",(250)374-3438,50.65499900,-120.37137800
A&W,"1271 A Salish Road, Esso Service Station, Kamloops, BC, V2H 1P6",(250)314-9801,50.70994200,-120.33756100
A&W,"12808 King George Blvd, Surrey, BC, V3T 2S9",(778)395-5670,49.20625000,-122.86728000
A&W,"Petro Canada, 1885 West Trans Canada Highway , Kamloops, BC, V1S 1J7",(250)374-6263,50.66066000,-120.39827000
A&W,"Unit 101, 16033 108 Ave, Surrey, BC, V4N 1P2",(604)588-0560,49.19883000,-122.77801000
A&W,"30 - 9900 King George Blvd, Surrey, BC, V3T 4Y3",(604)585-3996,49.18216000,-122.84553000
A&W,"5000 Canoe Pass Way (Food Court), Tsawwassen Mills - Unit FC6 , Tsawwassen, BC, V4M 0B3",(604)948-3144,49.03798500,-123.08407100
A&W,"1028 Granville St, Vancouver, BC, V6Z 1L5",(604)620-5014,49.27889700,-123.12356600
A&W,"467 West Broadway, Vancouver, BC, V5Y 1R4",(604)707-0010,49.26337000,-123.11446000
A&W,"9055 University High Street, Burnaby, BC, V5A 4X6",(604)299-2194,49.27790400,-122.90989100
A&W,"60 Victoria Crescent, Nanaimo, BC, V9R 5B8",(250)753-9960,49.16323400,-123.93505300
A&W,"110 - 1399 Main Street, Main Street Skytrain Station, Vancouver, BC, V6A 4G2",(604)681-1911,49.27296000,-123.10071000
A&W,"550 Bute Street, Vancouver, BC, V6E 3M1",(778)379-5043,49.28780300,-123.12367100
A&W,"1644 Hillside Avenue, (Food Court), Victoria, BC, V8T 2G5",(250)250-2500,48.44560800,-123.33607600
A&W,"1150 Douglas St., Bay Centre Food Court, Victoria, BC, V8W 3M9",(250)383-3811,48.42505300,-123.36520400
A&W,"3170 Tillicum Road, Victoria, BC, V9A 7C5",(250)361-4635,48.45414000,-123.39583400
A&W,"Westshore Town Centre, 2945 Jacklin Road, Victoria, BC, V9B 5E3",(250)391-9516,48.44050200,-123.50846200
A&W,"3147 Douglas Street, Mayfair Shopping Centre Food Court, Victoria, BC, V8Z 6E3",(250)388-9955,48.44765800,-123.36888900
A&W,"Lansdowne Park Mall, 1035 - 5300 No. 3 Road, Richmond, BC, V6X 2X9",(604)276-8819,49.17567700,-123.13240600
A&W,"128 - 1133 Mount Seymour Road, Parkgate Village Shopping Centre, North Vancouver, BC, V7H 2Y4",(604)985-5944,49.31644100,-122.96929100
A&W,"7855 Kingsway, Burnaby, BC, V3N 3E4",(604)553-4033,49.21372500,-122.93884600
A&W,"351 Yellowhead Highway, Barriere, BC, V0E 1E0",(250)672-2189,51.18111900,-120.13676100
A&W,"603 Dunsmuir Street, BCIT Downtown Campus, Vancouver, BC, V6B 1Y7",(604)648-0333,49.28300300,-123.11542500
A&W,"170 - 2332 160th Street, Surrey, BC, V3Z 0R5",(604)385-0410,49.04310000,-122.77556000
A&W,"Chevron, 7630 Lickman Road, Chilliwack, BC, V2R 4A7",(604)705-1333,49.14078200,-122.00678400
A&W,"1340 Highway 97 North, Cache Creek, BC, V0K 1H0",(250)457-9344,50.81218700,-121.32624700
A&W,"1158 Alberni Street, Vancouver, BC, V6E 1A5",(604)569-3406,49.28632600,-123.12537400
A&W,"Joyce-Collingwood Station, 5090 Joyce Street, Vancouver, Vancouver, BC, V5R 6B8",(604)419-0770,49.23837300,-123.03175800
A&W,"Unit 6 - 8605 Glenyon Parkway, Burnaby, BC, V5J 0B6",(604)423-3706,49.20594800,-123.01058300
A&W,"McArthur Glen Outlets - Unit 67b , 7899 Templeton Station Road, Richmond, BC, V7B 0B7",,49.19682700,-123.14032200
A&W,"1701 152nd St, (Food Court), Surrey, BC, V4A 4N3",(604)538-8710,49.03290400,-122.80253400
A&W,"935 Marine Drive, Capilano Mall (Food Court), North Vancouver, BC, V7P 1S3",(604)984-0809,49.32252800,-123.09966500
A&W,"465 Merecroft Road, Campbell River, BC, V9W 6K6",(250)286-4247,49.99925500,-125.24714100
A&W,"1412 Island Highway, Campbell River, BC, V9W 8C9",(250)850-0040,50.03358000,-125.24965000
A&W,"Highway 3, Fort Macleod, AB, T0L 0Z0",(403)553-3011,49.72245700,-113.41313400
A&W,"12205 100 St, Grande Prairie, AB, T8V 4H1",(780)532-4565,55.19066700,-118.79387200
A&W,"4900 Molly Banister Dr, (Food Court), Red Deer, AB, T4R 1N9",(403)346-6028,52.24358100,-113.80668900
A&W,"375 St. Albert Trail, St. Albert Mall, St. Albert, AB, T8N 0P6",(780)458-4686,53.64188100,-113.62327900
A&W,"6455 Macleod Trail S.W., Chinook Mall (Food Court), Calgary, AB, T2H 0K9",(403)640-4127,50.99960300,-114.07379100
A&W,"11801 100th St, (Food Court), Grande Prairie, AB, T8V 3Y2",(780)538-0552,55.18798000,-118.79237700
A&W,"100 Andreson Rd SE, SouthCentre Mall (Food Court), Calgary, AB, T2J 3V1",(403)278-3329,50.95241700,-114.06667100
A&W,"YYC Domestic PreSecurity Air Canada, 2000 Airport Rd NE, Calgary, AB, T2E 6W5",(403)291-1999,51.13243000,-114.00490000
A&W,"5035 Gateway Blvd., Edmonton, AB, T6H 4R7",(780)435-7106,53.48740000,-113.49143600
A&W,"8206 Centre Street NE, Beddington Co-Op Shopping Centre, Calgary, AB, T3K 2X4",(403)275-9319,51.12594900,-114.07131600
A&W,"400-70 Shawville Blvd SE, Calgary, AB, T2Y 2Z3",(403)256-5681,50.90479200,-114.06509000
A&W,"10007 24th Street SW, Oakridge (Co-Op Parking Lot), Calgary, AB, T2V 5K3",(403)238-4515,50.96248200,-114.11821000
A&W,"121 Leva Ave, Red Deer County, Red Deer, AB, T4N 1B2",(403)343-6893,52.20479600,-113.81478900
A&W,"616 2nd St W, Brooks, AB, T1R 1B6",(403)362-7272,50.57282300,-111.89701000
A&W,"4801 44 Ave, Stony Plain, AB, T7Z 1V5",(780)963-5554,53.53599700,-114.00259700
A&W,"10122 100th St, Riverdrive Mall, Peace River, AB, T8S 1R8",(780)624-4784,56.23109500,-117.29067300
A&W,"1250 2A Avenue N, Lethbridge, AB, T1H 0E3",(403)381-3444,49.70138000,-112.82450700
A&W,"4617 59th Street, Stettler, AB, T0C 2L1",(403)742-3636,52.32076900,-112.71871700
A&W,"10604 100th Avenue, Morinville, AB, T8R 1L6",(780)939-4785,53.80210800,-113.65656300
A&W,"61 Gasoline Alley East, Red Deer, AB, T4E 1B1",(403)309-2416,52.21779800,-113.81288900
A&W,"18 Westway Road, Spruce Grove, AB, T7X 3X3",(780)962-2440,53.54207400,-113.92328600
A&W,"422 McKnight Blvd NE, McKnight & Edmonton Trail, Calgary, AB, T2K 6A6",(403)274-1992,51.09619500,-114.05503400
A&W,"5621 Signal Hill Centre SW, Signal Hill Centre, Calgary, AB, T3H 3P8",(403)217-4104,51.01879500,-114.16852100
A&W,"5015 47th Ave, Taber, AB, T1G 1R7",(403)223-8901,49.78307200,-112.14800000
A&W,"11441 100th Ave, Grande Prairie, AB, T8V 5M6",(780)539-5001,55.17031500,-118.84050700
A&W,"5120 Shaganappi Trail N.W., Northland Free Standing (Outside), Calgary, AB, T3A 2L7",(403)247-0603,51.10110000,-114.14348000
A&W,"3711 Caxton Street, Whitecourt, AB, T7S 1N9",(780)778-6611,54.12368700,-115.66120600
A&W,"2924 Mayor Magrath Drive S., Lethbridge, AB, T1H 0A1",(403)381-3339,49.66734500,-112.79833900
A&W,"3120 17th Avenue SE, Forest Lawn Location, Calgary, AB, T2A 0P9",(403)273-1373,51.03812300,-113.99017500
A&W,"650 South Railway Avenue, Drumheller, AB, T0J 0Y0",(403)823-8108,51.45866900,-112.70463500
A&W,"4531 4th Avenue, Edson, AB, T7E 1C3",(780)723-4824,53.58666800,-116.42055700
A&W,"4 Northlands Way N.E., Medicine Hat, AB, T1C 1Z2",(403)504-6394,50.06260400,-110.68701000
A&W,"2004 50th Avenue, Southpointe Common, Red Deer, AB, T4R 3A2",(403)358-3588,52.23383800,-113.81453400
A&W,"9951 103rd Street, Lac La Biche, AB, T0A 2C0",(780)623-1778,54.76698600,-111.98126200
A&W,"121 Edmonton Trail N.E., Airdrie, AB, T4B 1S1",(403)948-2565,51.29232000,-114.00181600
A&W,"10023 Franklin Avenue, Fort McMurray, AB, T9H 2K7",(780)743-2226,56.72883800,-111.38380800
A&W,"9713 Hardin Street, (Food Court), Fort McMurray, AB, T9H 1L2",(780)791-5098,56.72493700,-111.37817000
A&W,"300 Thickwood Boulevard, Fort McMurray, AB, T9K 1Y1",(780)791-2227,56.73394500,-111.42621200
A&W,"3616 57th Avenue, Provost, AB, T0B 3S0",(780)753-6257,52.36111000,-110.26260000
A&W,"5002 55th Street, Cold Lake, AB, T9M 1P1",(780)594-2360,54.41364900,-110.21503800
A&W,"751 - 3rd St. SW, Eaton Centre (The Core-Food Court), Calgary, AB, T2P 4K8",(403)237-7408,51.04619900,-114.06940300
A&W,"2700 Main Street South, Airdrie Co-Op Centre, Airdrie, AB, T4B 2A7",(403)948-6566,51.26897900,-114.00591800
A&W,"1103 18th Street SE, High River, AB, T1V 1M5",(403)652-7233,50.57241800,-113.84362800
A&W,"900 Main Street South, Slave Lake, AB, T0G 2A0",(780)849-5656,55.27636700,-114.77646200
A&W,"4205 53rd Avenue, High Prairie, AB, T0G 1E0",(780)523-3332,55.43271900,-116.47504000
A&W,"100-500 Country Hills Blvd. NE, Calgary, AB, T3K 4Y7",(403)226-6993,51.15445300,-114.05645100
A&W,"5114 46th Street, Olds, AB, T4H 1A5",(403)556-1011,51.79526400,-114.10721200
A&W,"4902 50th Avenue, Barrhead, AB, T7N 1A6",(780)674-7666,54.11809200,-114.40213700
A&W,"4747 67th Street, (Food Court), Red Deer, AB, T4N 6H3",(403)347-3999,52.28678100,-113.81091300
A&W,"400 Big Rock Lane, Okotoks, AB, T1S 1A7",(403)938-0365,50.71758500,-113.98165000
A&W,"6201 50th Street, Leduc, AB, T9E 7A8",(780)986-8191,53.27661100,-113.54795100
A&W,"5015 111st Street, (Food Court), Edmonton, AB, T6H 4M6",(780)432-3930,53.48525300,-113.51352000
A&W,"6707 Highway 53, Ponoka, AB, T4J 1K3",(403)783-3644,52.67542300,-113.60978300
A&W,"5702 43rd. Street, Rimbey, AB, T0C 2J0",(403)843-4524,52.64658700,-114.22440700
A&W,"606 Main Avenue, Sundre, AB, T0M 1X0",(403)638-9050,51.79505800,-114.62912000
A&W,"9104 Macleod Trail SE, 90th & McLeod Trail, Calgary, AB, T2J 0P5",(403)252-5426,50.97214000,-114.07141400
A&W,"516 16th Avenue NW, 16th Ave & 4th ST NW, Calgary, AB, T2M 0J4",(403)220-9027,51.06712800,-114.07197600
A&W,"5520 Highway 2A, Lacombe, AB, T4L 1A3",(403)782-2488,52.47005800,-113.72116400
A&W,"6001 48th Avenue, Camrose, AB, T4V 0K2",(780)672-4338,53.01778000,-112.84296400
A&W,"501 1st Avenue South, Lethbridge, AB, T1J 4L9",(403)320-5958,49.69803300,-112.84123200
A&W,"80 Crowfoot Way NW, Crowfoot Location, Calgary, AB, T3G 4C8",(403)239-8896,51.12477200,-114.20441000
A&W,"3625 Shaganappi Trail NW, Market Mall (Food Court), Calgary, AB, T3A 0E2",(403)202-4983,51.08410200,-114.15545600
A&W,"109th St. Princess Elizabeth Ave., (Kingsway Mall Food Court), Edmonton, AB, T5G 3A6",(780)474-1186,53.56264100,-113.50617100
A&W,"8882 170th Street, (Phase 3 Food Court), Edmonton, AB, T5T 4M2",(780)444-2283,53.52267600,-113.62003900
A&W,"605 5th Ave. SW, 5th St & 5th Ave (Downtown), Calgary, AB, T2P 3H5",(403)269-7537,51.04870400,-114.07375700
A&W,"8330 82nd Avenue, (Food Court), Edmonton, AB, T6C 4E3",(780)466-7050,53.52000200,-113.45722400
A&W,"240 4th Ave SW, BP Blding Downtown (Food Court), Calgary, AB, T2P 4H4",(403)262-8638,51.04971300,-114.06721800
A&W,"2525 36th St NE, Sunridge Mall (Food Court), Calgary, AB, T1Y 5T4",(403)280-1768,51.07407100,-113.98633200
A&W,"222 Baseline Road, Sherwood Park, AB, T8H 1S8",(780)449-0466,53.54175600,-113.31883400
A&W,"4521 - 51 Street, PO BOX# 1664, Grimshaw, AB, T0H 1W0",(780)332-1870,56.18782000,-117.61079000
A&W,"3210 32nd Street NE, 32nd St & 32nd Ave NE, Calgary, AB, T1Y 6J7",(403)735-4977,51.08103500,-113.98860600
A&W,"6001 Parkwood Road, Blackfalds, AB, T0M 0J0",(403)885-2515,52.38284600,-113.78701800
A&W,"150 3rd Ave South, Lethbridge, AB, T1J 4L2",(403)328-3434,49.69536400,-112.84579300
A&W,"510 Highway 1, Country Lane Mall, Strathmore, AB, T1P 1M6",(403)934-3724,51.03840000,-113.40098600
A&W,"109 Palliser Trail, Hanna, AB, T0J 1P0",(403)854-2441,51.63926800,-111.94207600
A&W,"1506 27th Street, Wainwright, AB, T9W 0A4",(780)842-6200,52.84381400,-110.83276300
A&W,"12326 111 Avenue, Petro Canada, Edmonton, AB, T5M 2H4",(780)455-9952,53.55940300,-113.53551400
A&W,"16435 97th Street, Petro Canada, Edmonton, AB, T5X 6A5",(780)456-5678,53.62561600,-113.49120200
A&W,"5011 137th Avenue N.E., Petro Canada A&W, Edmonton, AB, T5A 5C5",(780)478-8001,53.59851100,-113.42062000
A&W,"204 18th Avenue North, Three Hills, AB, T0M 2A0",(403)443-2893,51.70697000,-113.24388100
A&W,"4820 Woodheights Road, Athabasca, AB, T9S 1V4",(780)675-0327,54.71954600,-113.25741500
A&W,"26230 Township Road 531A, Petro Canada Hunter's Corner, Acheson, AB, T7X 5A4",(780)960-0859,53.56340900,-113.76056500
A&W,"52 Highway Avenue, Fox Creek, AB, T0H 1P0",(780)622-2221,54.39442000,-116.80834600
A&W,"5517 47th Avenue, Wetaskiwin, AB, T9A 0L2",(780)352-6516,52.96705300,-113.38972300
A&W,"4241 50th Avenue, St. Paul, AB, T0A 3A3",(780)645-3136,53.99098000,-111.27570000
A&W,"64273 Highway 547 East, Petro Canada, Aldersyde, AB, T0L 0A0",(403)995-9152,50.69625200,-113.88680200
A&W,"216 - 202 6th Ave SW, Calgary, AB, T2P 2R9",(587)296-2272,51.04802500,-114.06651600
A&W,"YYC(Domestic) Post-Security Westjet, 2000 Airport Rd NE, Calgary, AB, T2E 6W5",(403)717-0990,51.13062000,-114.00925000
A&W,"310 1st Avenue, Highway 43, Beaverlodge, AB, T0H 0C0",(780)354-2781,55.20145200,-119.41980500
A&W,"4504 47th Avenue, Highway 11, Rocky Mountain House, AB, T4T 1C5",(403)845-5151,52.37027500,-114.91057100
A&W,"261055 CrossIron Boulevard, CrossIron Mills Mall (Food Court), Rocky View, AB, T4A 0G3",(403)274-9772,51.20259300,-113.99418300
A&W,"5821 50th Avenue, PO BOX# 7715, Drayton Valley, AB, T7A 1S8",(780)542-4333,53.22146400,-114.99330800
A&W,"200-5075 Falconridge Blvd N.E., Castleridge Plaza, Calgary, AB, T3J 3K9",(403)285-9070,51.09787800,-113.95872200
A&W,"4303 Macleod Trail SW, 42nd & Macleod Trail, Calgary, AB, T2G 0A3",(403)287-7866,51.01542500,-114.06520500
A&W,"4130 Calgary Trail, Edmonton, AB, T6J 6Y6",(780)438-3102,53.47771200,-113.49585300
A&W,"5415 50th Avenue, Unit #1, Vegreville, AB, T9C 1W8",(780)632-7792,53.49993700,-112.06610100
A&W,"190-4307 130th Ave. S.E., South Trail Crossing, Calgary, AB, T2Z 3V8",(403)257-5337,50.93137000,-113.96945500
A&W,"137th Ave & 66th Street, (Food Court), Edmonton, AB, T5C 3C8",(780)476-0994,53.60308000,-113.44709100
A&W,"4926 50th Avenue, Niton Junction, AB, T0E 1S0",(780)795-0003,53.61731000,-115.76954000
A&W,"3292 Dunmore Road SE, (Food Court), Medicine Hat, AB, T1B 2R4",(403)529-1344,50.00334300,-110.64359900
A&W,"220 Mayfield Common NW, Edmonton, AB, T5P 4B3",(780)489-9869,53.54166700,-113.61059500
A&W,"200-120 Chestermere Station Way, Chestermere, Chestermere, AB, T1X 1V3",(403)235-1811,51.05055600,-113.82367300
A&W,"99 Wye Road, Sherwood Park, AB, T8B 1M1",(780)449-3366,53.51168200,-113.33060900
A&W,"15233 20th Avenue, Frank, AB, T0K 0E0",(403)564-4381,49.59895500,-114.40314500
A&W,"12222 137th Ave, White Oaks Square, Edmonton, AB, T5L 4Y4",(780)457-7610,53.59985900,-113.53291500
A&W,"80 Glendeer Circle SE, Glendeer JCT (Across from Automall), Calgary, AB, T2H 2Z7",(403)252-0352,50.98849000,-114.02826900
A&W,"333 Gregg Ave, Box #6922, Hinton, AB, T7V 2A7",(780)865-3034,53.39910800,-117.59217700
A&W,"11925 101st Ave, Grande Prairie, AB, T8V 3X9",(780)539-6663,55.17166400,-118.85707400
A&W,"2 Hebert Rd, Gateway Village, St. Albert, AB, T8N 5T8",(780)460-2060,53.62149100,-113.60793600
A&W,"5004 - 50th Street, Husky Gas (PO Box 166), Wandering River, AB, T0A 3M0",(780)771-3336,55.20139000,-112.46521000
A&W,"Highway 9 & Highway 41, Oyen, AB, T0J 2J0",(403)664-3267,51.38707000,-110.47371000
A&W,"1632 14th Ave NW, Northhill Mall (Food Court), Calgary, AB, T2N 1M7",(403)282-8222,51.06603800,-114.10101900
A&W,"9016 112th St, Hub Mall, Edmonton, AB, T6G 2C5",(780)439-7406,53.52574000,-113.51991400
A&W,"5135 167 Avenue NW, Petro Canada Pilot Sound, Edmonton, AB, T5Y 0L2",(780)473-1840,53.62829000,-113.41467000
A&W,"402 Collegiate Blvd NW, MacEwan Hall, University of Calgary, Calgary, AB, T2N 1N4",(403)289-1569,51.07846600,-114.13217100
A&W,"640 Connaught Drive, Jasper, AB, T0E 1E0",(780)852-4004,52.87352500,-118.08217000
A&W,"116 - 89th Street SW, Petro-Canada - 89 St. SW, Calgary, AB, T3H 0M4",(403)263-9304,51.06616000,-114.21689000
A&W,"2900 Box Springs Boulevard NW , PC Redcliff (Hwy 1), Medicine Hat, AB, T1C 0C8",(403)548-3388,50.05913000,-110.73440000
A&W,"100 - 261200 CrossIron Boulevard, Petro-Canada CrossIron Blvd, Rocky View, AB, T4A 0J6",(403)730-5129,51.21016500,-113.99194050
A&W,"275 - 520 3rd Avenue SW, Calgary, AB, T2P 0R3",(403)266-0785,51.05055900,-114.07251100
A&W,"9620 Ellerslie Rd SW, Edmonton, AB, T6X 0N5",(587)754-6139,53.42495400,-113.48001800
A&W,"YYC Int'l Terminal (Post Security), 2000 Airport Road NE, Calgary, AB, T2E 6Z8",(403)250-0228,51.12561200,-113.99709800
A&W,"2331  66th Street NW, (Food Court), Edmonton, AB, T6K 4B5",(780)450-9814,53.45488200,-113.43195600
A&W,"5009 Ellerslie Road SW, Petro Canada, Edmonton, AB, T6X 1X2",(587)463-2133,53.42469200,-113.41869900
A&W,"1000 Emerald Drive, Petro-Canada , Sherwood Park, AB, T8H 0W6",(780)416-4327,53.56737000,-113.28433000
A&W,"895 Tamarack Way NW, Petro Canada, Edmonton, AB, T6T 0N3",(587)463-2605,53.47957300,-113.36788200
A&W,"5031 Nose Hill Drive NW, Petro-Canada Nose Hill, Calgary, AB, T3L 0A2",(403)239-1128,51.10731100,-114.23882900
A&W,"507 - 17th Avenue SW, Calgary, AB, T2S 0A9",(587)351-3450,51.03781000,-114.07248000
A&W,"100 Auburn Meadows Drive SE, Auburn Village, Calgary, AB, T3M 2G5",(587)354-2511,50.89506600,-113.94706700
A&W,"Outlet Collection at Edm Intl #FC10, 1 Outlet Collection Way, Edmonton, AB, T9E 1J5",(780)932-2557,53.30236600,-113.55335400
A&W,"7960-A 50th Avenue West, Fas Gas, Red Deer, AB, T4P 3N4",(403)347-9988,52.31432000,-113.81436000
A&W,"606 Bow Valley Trail, Canmore, AB, T1W 1N9",(403)678-1888,51.08739200,-115.34687700
A&W,"7201 44th Street, Cornerstone, Lloydminster, AB, T9V 0B7",(780)872-0598,53.27761300,-110.05085900
A&W,"4205 118th Avenue NW, Edmonton, AB, T5W 1A5",(780)474-7346,53.57014800,-113.40674100
A&W,"10205 - 102 Ave, Edmonton City Centre East, FCU-1, Edmonton, AB, T5J 4H5",(780)705-4411,53.54315600,-113.49592900
A&W,"470 Riverbend Square Road NW, Riverbend Square, Edmonton, AB, T6R 2E3",(780)432-4384,53.46863900,-113.58378400
A&W,"Unit 150 - 11680 Sarcee Trail NW, Beacon Hill Shopping Centre, Calgary, AB, T3R 0A1",(587)619-5019,51.15607000,-114.15739000
A&W,"2254 98th Street NW, Edmonton, AB, T6N 1J2",(780)430-0048,53.45332200,-113.48350800
A&W,"13440 97th St, Edmonton, AB, T5E 4E1",(780)476-8686,53.59606400,-113.49224800
A&W,"920 Mistatim Link NW, Mark Messier Trail & 137th Ave, Edmonton, AB, T6V 0M8",(780)455-4692,53.60326000,-113.57917000
A&W,"450 Main Street, Cardston, AB, T0K 0K0",(403)659-0499,49.19644000,-113.30149000
A&W,"1324-3800 Memorial Dr NE, Marlborough Mall, Calgary, AB, T2A 2K2",(403)272-1715,51.05602800,-113.97821300
A&W,"58 - 6320 50th Ave, Red Deer, AB, T4N 4C6",(403)346-6100,52.28512100,-113.81476400
A&W,"#120 - 734 7th Avenue SW, Calgary, AB, T2P 3P8",(403)455-7116,51.04716100,-114.07836200
A&W,"42 - 2020 Sherwood Dr, Sherwood Park Mall, Sherwood Park, AB, T8A 3H9",(780)449-1571,53.53056000,-113.29346000
A&W,"110 W.T. Hill Boulevard, Lethbridge, AB, T1J 4T4",(403)394-0490,49.69794200,-112.78869300
A&W,"4808 12th Street NE, 12th & McKnight Chevron, Calgary, AB, T2E 4R4",(403)769-1911,51.09469100,-114.03274700
A&W,"Petro Canada Lot 2b , Fort McKay Industrial Park, Fort McKay, AB, T0P 1C0",(780)743-8094,57.17146900,-111.60107400
A&W,"601 Banff Ave, Husky Gas Station, Banff, AB, T1L 1A2",,51.18592300,-115.55553600
A&W,"310 Manning Crossing, Edmonton, AB, T5A 5A1",(587)473-2653,53.59928000,-113.42139000
A&W,"Unit G-101, 8882 170th Street, Phase 1, #1874, West Edm Mall, Edmonton, AB, T5T 3J7",(780)444-8027,53.52268600,-113.62194000
A&W,"200-6730 Taylor Drive, Taylor Plaza, Red Deer, AB, T4P 1K4",(403)346-2828,52.28943400,-113.83836100
A&W,"5114 47th Avenue, Vermilion, AB, T9X 1J6",(780)853-2987,53.35113100,-110.85787100
A&W,"9 Alberta Road, Claresholm, AB, T0L 0T0",(403)625-5309,50.03951500,-113.58936200
A&W,"1123 Freebairne Avenue, Pincher Creek, AB, T0K 1W0",(403)627-5635,49.49697300,-113.94681900
A&W,"150 8th Avenue SE, Stephen Avenue (across City Hall), Calgary, AB, T2G 0N3",(403)263-3808,51.04474100,-114.06148100
A&W,"10001 100th Street, Grande Cache, AB, T0E 0Y0",(780)827-4136,53.88878000,-119.11433000
A&W,"2420 50th Street N.W., Edmonton, AB, T6L 6Z4",(780)450-4067,53.45591100,-113.42120700
A&W,"8101 99th Street, Clairmont, AB, T8X 5B1",(780)567-3335,55.24089800,-118.79371500
A&W,"208 19th Avenue, Petro Canada, Nisku, AB, T9E 0W8",(780)979-0388,53.33629900,-113.53098500
A&W,"10220 104th Avenue, Westlock, AB, T7P 2H6",(780)349-5011,54.15493700,-113.85119600
A&W,"10110 97th Street, High Level, AB, T0H 1Z0",(780)926-3151,58.51406300,-117.13136000
A&W,"1320 14th St. SW, (14th Ave & 14th St.), Calgary, AB, T3C 1C5",(403)244-2761,51.04045000,-114.09458400
A&W,"4007 Highway Street, Valleyview, AB, T0H 3N0",(780)524-4533,55.05875800,-117.28017600
A&W,"10101 88th Avenue, Fort Saskatchewan, AB, T8L 2T2",(780)998-9944,53.70012300,-113.20350000
A&W,"700 - 62 Thevenaz Industrial Trail, Sylvan Lake, AB, T4S 0B6",(403)887-4737,52.30461000,-114.06924000
A&W,"12670 Symons Valley Road NW, Creekside Shopping Centre, Calgary, AB, T3P 0A3",(403)567-0763,51.16757800,-114.13027300
A&W,"6104 50th Street NW, Oxford Cityview Business Park, Edmonton, AB, T6B 0P2",(780)465-5707,53.49941000,-113.41898000
A&W,"3033 Dunmore Rd SE, Medicine Hat, AB, T1B 2H2",(403)528-3737,50.01122300,-110.65079600
A&W,"2608 - 39th Avenue N.E., Calgary, AB, T1Y 7J9",(403)291-0210,51.08900600,-114.00091100
A&W,"3663 - 12th Avenue NE, 36 St. & 12 Ave NE (Pacific Place), Calgary, AB, T2A 7T1",(403)248-7640,51.06265200,-113.98260200
A&W,"8115 - 101 St (at 82nd Ave),  , Edmonton, AB, T6E 1Z2",(780)433-1451,53.51803300,-113.49027500
A&W,"10823 Kingsway Avenue NW, Edmonton, AB, T5G 0X1",(780)477-6436,53.56009600,-113.50740400
A&W,"10015 110th St., Fairview, AB, T0H 1L0",(780)835-3438,56.06575300,-118.38419000
A&W,"300 - 975 St. Albert Trail, Erin Ridge, St. Albert, AB, T8N 7H5",(780)470-3328,53.66984100,-113.63750300
A&W,"4940 101st Ave NW, Edmonton, AB, T6A 3Y1",(780)490-0550,53.54165300,-113.41699600
A&W,"11135 - 149th St, Edmonton, AB, T5M 2P5",(780)453-1319,53.55969000,-113.57654000
A&W,"45A Superior Street, Building A, Devon, AB, T9G 1K8",(780)987-5661,53.36343600,-113.73214200
A&W,"532 64th Avenue NE, Calgary, AB, T2K 6G9",(403)287-3021,51.11123000,-114.05587000
A&W,"2600 Country Hills Blvd, NE, Petro-Canada Country Hills, Calgary, AB, T3N 1A7",(587)755-5466,51.15474900,-114.00110700
A&W,"1300 Redcliff Dr SW, Redcliff Dr. (Hwy 3), Medicine Hat, AB, T1A 5E5",(403)526-2483,50.02732000,-110.70810000
A&W,"6666 Macleod Trail SW, 66th & Macleod Trail, Calgary, AB, T2H 0K6",(403)255-2622,50.99463400,-114.07076100
A&W,"300 - 1751 Strachan Road SE, Medicine Hat, AB, T1B 4M3",(403)528-2180,49.99948600,-110.65238900
A&W,"105 Eagle Ridge Boulevard, Fort McMurray, AB, T9K 2Z7",(780)714-3053,56.75451000,-111.42997700
A&W,"7455 101st Avenue N.W., Capilano Corner, Edmonton, AB, T6A 3Z5",(780)469-3026,53.54109000,-113.44195700
A&W,"5212 50th avenue, Bonnyville, AB, T9N 1Y5",(780)826-2929,54.26785700,-110.74862100
A&W,"4211 50th St, Innisfail, AB, T4G 1V6",(403)227-4310,52.02755600,-113.93512400
A&W,"Heritage Valley Town Centre, 2704 James Mowatt Trail Southwest, Edmonton, AB, T6W 3R3",(587)454-5423,53.40677500,-113.53628800
A&W,"Township Shopping Centre, Unit 350 - 200 Hartwell Way Southea, Calgary, AB, T2X 4S9",(587)482-9704,50.86520900,-114.02898800
A&W,"Suite 110 - 7 Chambers Avenue, Clearview Market Square, Red Deer, AB, T4P 0G7",(587)457-8920,52.28569700,-113.76733300
A&W,"110 – 4200 Veteran’s Boulevard, Stony Plain, AB, T7Z 0N1",(587)461-7701,53.54077600,-113.96015000
A&W,"Unit 740, 2220 68th Street NE, Monterey Square Co-op Shopping Ctr, Calgary, AB, T1Y 6Y7",(403)475-8810,51.06826500,-113.93364600
A&W,"23 Westside Drive, Cochrane, AB, T4C 1M1",(403)932-9552,51.19254300,-114.48920700
A&W,"5007 30th Avenue, Beaumont, AB, T4X 1T9",(780)929-0668,53.34082300,-113.41578300
A&W,"5325 72nd Ave S.E., 72nd Ave SE (Foothills Industrial), Calgary, AB, T2C 4X6",,50.98936800,-113.95741900
A&W,"239 Griffin Road E, Cochrane, AB, T4C 2B9",(403)932-9777,51.18276400,-114.46357300
A&W,"2487 91st Avenue, Esso, Calgary, AB, T2C 4P3",(403)236-2655,50.97098500,-114.00275200
A&W,"Parkland Fuels, #3 Heritage Drive, Bowden, AB, T0M 0K0",(403)507-1630,51.93154000,-114.02651000
A&W,"356 Cranston Road SE, Calgary, AB, T3M 0S9",(403)257-0672,50.88011000,-113.97765000
A&W,"108 Service Road, Highway 23, Vulcan, AB, T0L 2B0",,50.40652200,-113.25467000
A&W,"110 11th St W, Prince Albert, SK, S6V 3B1",(306)764-8441,53.20307500,-105.75717400
A&W,"2102 11th Ave, (Food Court), Regina, SK, S4P 3Y6",(306)757-3273,50.45076200,-104.61147400
A&W,"489 Albert St N, (Food Court), Regina, SK, S4R 3C4",(306)775-2552,50.48242000,-104.61575100
A&W,"Highway 9 & Highway 13, Carlyle, SK, S0C 0R0",(306)453-2220,49.63971900,-102.27641000
A&W,"3310 8th St E, (Food Court), Saskatoon, SK, S7H 5M3",(306)373-9808,52.11381800,-106.60245600
A&W,"2325 Preston Ave, (Food Court), Saskatoon, SK, S7J 2G2",(306)373-6800,52.10176900,-106.62161400
A&W,"215 First Ave S, (Food Court), Saskatoon, SK, S7K 1J9",(306)242-1433,52.12747400,-106.66720200
A&W,"134 Primrose Dr, (Food Court), Saskatoon, SK, S7K 5S6",(306)975-0525,52.16793800,-106.64316500
A&W,"808 9th Avenue West, Nipawin, SK, S0E 1E0",(306)862-4499,53.35427100,-104.02632000
A&W,"605 36th Street East, Marquis & 6th Avenue East, Prince Albert, SK, S6V 8B3",(306)763-7272,53.18039100,-105.73670100
A&W,"61 Centennial Drive North, Martensville, SK, S0K 2T0",(306)242-0110,52.29185200,-106.66983200
A&W,"1340 Main St N, Moose Jaw, SK, S6H 4P5",(306)692-1711,50.40534800,-105.53578900
A&W,"202 9th St W, Meadow Lake, SK, S9X 1Z7",(306)236-5234,54.13148100,-108.45232100
A&W,"1437 4th Street, Estevan, SK, S4A 2A5",(306)634-9228,49.14289500,-103.00044700
A&W,"2142 100th Street North, North Battleford, SK, S9A 0X6",(306)445-9453,52.78945600,-108.29846200
A&W,"309 Highway 7, Rosetown, SK, S0L 2V0",(306)882-4333,51.54787100,-107.99648700
A&W,"115 Victoria Avenue E, Regina, SK, S4N 0N3",(306)522-0422,50.44694900,-104.58107400
A&W,"2701 Avonhurst Drive, Avon Shopping Centre, Regina, SK, S4R 3J3",(306)545-6441,50.47081700,-104.61822600
A&W,"4355 Albert St S, Regina, SK, S4S 3R6",(306)584-5151,50.41020400,-104.61733800
A&W,"1879 Victoria Avenue E, Capital City Centre, Regina, SK, S4N 7K3",(306)565-3095,50.44664700,-104.55272800
A&W,"404 Mountain Street, Moosomin, SK, S0G 3N0",(306)435-3266,50.14733300,-101.65871000
A&W,"710 South Service Road East, Highway 1, Swift Current, SK, S9H 3W5",(306)773-0641,50.29959500,-107.79093700
A&W,"39 - 275 Broadway Street E, Yorkton, SK, S3N 0K4",(306)783-5119,51.21066400,-102.44428600
A&W,"1301 Park Avenue, Esterhazy, SK, S0A 0X0",(306)745-4004,50.65336900,-102.05703400
A&W,"678 Saskatchewan Avenue, Melfort, SK, S0E 1A0",(306)752-4960,52.85688500,-104.59575800
A&W,"502 100A Street, Tisdale, SK, S0E 1T0",(306)873-5070,52.84370600,-104.04750200
A&W,"920 North Service Road, Moose Jaw, SK, S6H 4P4",(306)692-5400,50.42683100,-105.55835800
A&W,"Highway 11 S, Davidson, SK, S0G 1A0",(306)567-3235,51.24927100,-105.96727100
A&W,"735 15th Street, PO#2167, Humboldt, SK, S0K 2A0",(306)682-0722,52.20161900,-105.13380900
A&W,"11401 Railway Avenue East, North Battleford, SK, S9A 2R7",(306)499-7070,52.75951100,-108.27665700
A&W,"1781 50th Ave, Lloydminster, SK, S9V 2H3",(306)825-4145,53.25378000,-110.00548000
A&W,"2512 8th St E, Saskatoon, SK, S7H 0V6",(306)374-6464,52.11454200,-106.61732200
A&W,"2222 22nd St, Saskatoon, SK, S7M 0V4",(306)382-7123,52.12943600,-106.70566200
A&W,"1607 Idylwyld Drive, Saskatoon, SK, S7L 1B2",(306)652-3551,52.15042500,-106.67060500
A&W,"822 51st St East, Saskatoon, SK, S7K 0X8",(306)931-3376,52.17327700,-106.65220200
A&W,"4504 44th Street, Lloydminster, SK, S9V 0G3",(306)825-3455,53.27809000,-109.99201000
A&W,"3005 Clarence Ave. South, Stone Gate, Saskatoon, SK, S7T 0B4",(306)384-4820,52.08694600,-106.64369300
A&W,"165 Gibson Bend, Saskatoon, SK, S7K 0P1",,52.13393400,-106.55579500
A&W,"200 South Service Road, Melville, SK, S0A 2P0",(306)728-5535,50.93976000,-102.80806600
A&W,"445 Highway 14, North Service Road, Unity, SK, S0K 4L0",(306)228-4004,52.43535700,-109.15016800
A&W,"597 Bay Ave. South, Fort Qu'Appelle, SK, S0G 1S0",(306)332-6371,50.76217000,-103.79766600
A&W,"101 - 1st Avenue West, Assiniboia, SK, S0H 0B0",(306)642-2223,49.63352000,-105.99200000
A&W,"127 11th Avenue West, Highway 7, Kindersley, SK, S0L 1S0",(306)463-6363,51.47450700,-109.16377000
A&W,"20 1st Avenue South, Weyburn, SK, S4H 2H8",(306)842-4555,49.65826600,-103.85834500
A&W,"303 Service Road, Wynyard, SK, S0A 4T0",(306)554-3470,51.76475200,-104.18184000
A&W,"3805 Rochdale Blvd, Regina, SK, S4X 4P7",,50.49644600,-104.63667000
A&W,"238 Main St, Selkirk, MB, R1A 1S2",(204)482-5417,50.13741000,-96.88081000
A&W,"1226 Gordon Avenue, The Pas, MB, R9A 1L6",(204)623-2246,53.80901800,-101.25172100
A&W,"1485 Portage Ave, Polo Park Mall (Food Court), Winnipeg, MB, R3G 0W4",(204)775-2370,49.88424800,-97.19904500
A&W,"1120 Grant Avenue, Grant Park Mall, Winnipeg, MB, R3M 2A6",(204)475-6578,49.85711000,-97.16557500
A&W,"52 Osborne Street, Winnipeg, MB, R3L 1Y3",(204)452-3219,49.87979400,-97.14658900
A&W,"1570 18th Street, Brandon Shopper's Mall (Food Court), Brandon, MB, R7A 5C5",(204)571-3167,49.82473000,-99.96396100
A&W,"1555 Regent Avenue, Kildonan Place (Food Court), Winnipeg, MB, R2C 4J2",(204)663-7974,49.89957800,-97.05990900
A&W,"360 Main Street, Winnipeg Square (Food Court), Winnipeg, MB, R3C 3Z8",(204)421-3736,49.89386800,-97.13851400
A&W,"1225 St. Mary's Rd., St. Vital Centre (Food Court), Winnipeg, MB, R2M 5E5",(204)255-9338,49.82790500,-97.10908300
A&W,"40 24th Street NW, Portage la Prairie, MB, R1N 0G5",(204)857-8336,49.97481300,-98.32784100
A&W,"12-2305 McPhillips St, Garden City Shopping Ctr (Food Crt), Winnipeg, MB, R2V 3E1",(204)338-5021,49.95079700,-97.14491700
A&W,"373 Marion Street, Winnipeg, MB, R2H 0V4",(204)237-5673,49.88209600,-97.10977800
A&W,"1636 King Edward Street, Winnipeg, MB, R3H 0J8",(204)694-9306,49.91572500,-97.20762000
A&W,"54 - 333 Av St Mary, Winnipeg, MB, R3C 4A5",(204)956-5591,49.89117100,-97.14303000
A&W,"1450 Plessis Road, A&W Restaurant, Winnipeg, MB, R2C 2X4",(204)224-0686,49.89909900,-97.02610000
A&W,"1121 Main Street South, Dauphin, MB, R7N 1M5",,51.14088800,-100.06106600
A&W,"1639 Regent Ave, Winnipeg, MB, R2C 4H9",(204)668-8303,49.89885600,-97.07096200
A&W,"1875 Pembina Highway, Winnipeg, MB, R3T 2G7",(204)269-5706,49.82197200,-97.15327700
A&W,"1078 St. Mary's Rd (by Dakota), Winnipeg, MB, R2M 3T2",(204)253-6728,49.83627500,-97.11323900
A&W,"2585 Main Street, Rivergrove Shopping Centre, Winnipeg, MB, R2V 4W3",(204)338-2503,49.95906400,-97.08967800
A&W,"867 Waverley St, (Wilkes at Waverley), Winnipeg, MB, R3T 5P4",(204)487-0381,49.84589100,-97.18012900
A&W,"36718 - 55097 Provincial Road 207,, Petro Canada Deacon's(Hwy1E@Hwy207), Dugald, MB, R0E 0K0",(204)256-9069,49.82071000,-96.93427600
A&W,"107 Vermillion Road, Southdale Square, Winnipeg, MB, R2J 4A9",(204)255-2176,49.85541500,-97.07149600
A&W,"77 Thompson Dr, Thompson, MB, R8N 0C3",(204)778-6500,55.74450400,-97.85427200
A&W,"1550 Highland Ave, Trans Canada Highway Brandon, Brandon, MB, R7C 1A7",(204)729-0811,49.88646400,-99.95883200
A&W,"3011 Portage Avenue, Portage Ave & Sturgeon Rd., Winnipeg, MB, R3K 0W4",(204)885-7633,49.87996400,-97.27940600
A&W,"393 Portage Avenue, Portage Place (Food Court), Winnipeg, MB, R3B 3H6",(204)947-2102,49.89265200,-97.14775200
A&W,"1458 Main St., Main St & Inkster Blvd., Winnipeg, MB, R2W 3V7",(204)306-8644,49.92738300,-97.12479500
A&W,"817 Keewatin St., Winnipeg, MB, R2X 3B9",(204)697-2033,49.93789300,-97.19444400
A&W,"360 Frontage Road West, Virden, MB, R0M 2C0",(204)748-2008,49.85884700,-100.92878500
A&W,"2230 McPhillips Street, Winnipeg, MB, R2V 3C8",(204)697-8180,49.95325500,-97.14828900
A&W,"23022 Highway 44, Lockport, MB, R1B 1A1",(204)757-2704,50.08506400,-96.93480400
A&W,"1403 Henderson Highway, Winnipeg, MB, R2G 1N3",(204)338-5023,49.94450400,-97.08618300
A&W,"1 Lowson Crescent, Kenaston & Lowson (by Ikea), Winnipeg, MB, R3P 0T3",(204)488-0588,49.83966300,-97.20868200
A&W,"1520 Portage Avenue (by Polo Park), Winnipeg, MB, R3G 0W8",(204)774-3275,49.88029400,-97.19986000
A&W,"1260 - 18th Street, Brandon, MB, R7A 5C3",(204)727-3793,49.82934000,-99.96197100
A&W,"920 Main Street, Winkler, MB, R6W 0L7",(204)325-5332,49.19325200,-97.93965400
A&W,"555 Sterling Lyon Parkway, The Outlet Collection Winnipeg #FC2, Winnipeg, MB, R3P 1E9",(204)453-3957,49.84594000,-97.21124000
A&W,"35 Brandt Rd, Steinbach, MB, R5G 1N5",(204)326-9818,49.52877300,-96.69127400
A&W,"1419 Main Street, Swan River, MB, R0L 1Z0",(204)734-9090,52.10682700,-101.25348700
A&W,"510 Pelly Avenue South, Russell, MB, R0J 1W0",(204)773-2001,50.77255600,-101.28687200
A&W,"2607 Portage Avenue , Petro-Canada Portage Avenue, Winnipeg, MB, R3J 0P6",(204)831-0020,49.87670000,-97.26597400
A&W,"2012 Pembina Highway , Petro Canada Pembina Highway, Winnipeg, MB, R3T 2G8",(204)275-3456,49.81744000,-97.15175600
A&W,"1720 Kenaston Boulevard , Petro-Canada Kenaston (Whyteridge), Winnipeg, MB, R3Y 1V5",(204)489-6309,49.82028800,-97.20220900
A&W,"100 Bayshore Dr, (Food Court) #FH 14, Ottawa, ON, K2B 8C1",(613)828-8191,45.34763400,-75.80635400
A&W,"50 Rideau Street, (Food Court) Unit #FC013, Ottawa, ON, K1N 9J7",(613)230-2753,45.42550000,-75.69222000
A&W,"2121 Carling Ave, (Food Court), Ottawa, ON, K2A 1H2",(613)729-9864,45.37316100,-75.76871900
A&W,"1349 Lasalle Blvd (Food Court), Sudbury, ON, P3A 1Z2",(705)566-6399,46.51971600,-80.94467400
A&W,"250 The East Mall, (Food Court), Toronto, ON, M9B 3Y8",(416)236-7274,43.63147700,-79.55517000
A&W,"1010 Talbot Street, St. Thomas, ON, N5P 4N2",(519)637-9864,42.77845100,-81.17719500
A&W,"366 Front Street North, Bellfront Shopping Centre, Belleville, ON, K8P 5E6",(613)969-9276,44.18740700,-77.39891300
A&W,"804 Ontario Street, Stratford, ON, N5A 3K1",(519)271-4025,43.37109200,-80.95497600
A&W,"221 Glendale Avenue, Pad of Pen Centre, St. Catharines, ON, L2T 4C4",(905)641-0001,43.13329400,-79.22473400
A&W,"522 Welland Avenue, St. Catharines, ON, L2M 5V5",(905)688-0008,43.17588500,-79.21111800
A&W,"B7 - 77 Billy Bishop Way, North York, ON, M3K 0C2",(416)636-7274,43.73221100,-79.45184300
A&W,"Dixie Outlet Mall, 1250 South Service Road, Mississauga, ON, L5E 1V4",,43.59309000,-79.56835000
A&W,"4841 Yonge Street, Yonge Sheppard Centre, North York, ON, M2N 5X2",(416)225-0786,43.76240100,-79.41105200
A&W,"67 McNaughton Avenue, Wallaceburg, ON, N8A 1R7",(519)627-2329,42.58512000,-82.38244700
A&W,"300 Maidstone Avenue West, Essex, ON, N8M 2X8",(519)776-8550,42.17813900,-82.84037400
A&W,"1380 Lasalle Blvd, Sudbury, ON, P3A 1Z6",(705)566-6477,46.52255400,-80.94577000
A&W,"367 Lake St, St. Catharines, ON, L2N 4H5",(905)934-6839,43.18449500,-79.25238100
A&W,"1585 Warden Avenue, Scarborough, ON, M1R 2S9",(416)754-1252,43.76626100,-79.30191600
A&W,"16650 Yonge Street, Yonge & Mulock, Newmarket, ON, L3X 2N8",(905)868-9020,44.03367300,-79.47596300
A&W,"5880 Mavis Road, Mississauga, ON, L5V 3B7",(647)479-4020,43.60910300,-79.69324900
A&W,"84 Lynden Road, (Food Court), Brantford, ON, N3R 6B8",(519)753-6361,43.17147600,-80.23973100
A&W,"945 Gardiner's Rd., (Food Court) Unit FCU-4, Kingston, ON, K7M 7H4",(613)389-9833,44.25585300,-76.57220700
A&W,"390 North Front Street, (Food Court), Belleville, ON, K8P 3E1",(613)966-4817,44.18872100,-77.40181600
A&W,"933 Victoria Street North, Kitchener, ON, N2B 3C6",(519)576-1859,43.46409600,-80.46397400
A&W,"30 Lynden Road, Brantford, ON, N3R 8A4",(519)751-7744,43.17082800,-80.24392300
A&W,"1155 Division Street, Kingston, ON, K7K 5W3",(613)548-4713,44.26470900,-76.49797800
A&W,"1313 16th Street East, Owen Sound, ON, N4K 1Z4",(519)371-8009,44.57379800,-80.92014700
A&W,"777 Guelph Line, (Food Court), Burlington, ON, L7R 3N2",(905)637-1711,43.34784800,-79.79382100
A&W,"900 Maple Avenue, (Food Court), Burlington, ON, L7S 2J8",(905)681-3351,43.32570000,-79.81938400
A&W,"1270 Highbury Avenue North, London, ON, N5Y 6M7",(519)951-6414,43.01930700,-81.21448100
A&W,"44 Broadway Street, Orangeville, ON, L9W 1J4",(519)942-1492,43.92080100,-80.08850100
A&W,"1900 Parkedale Ave., Brockville, ON, K6V 7N4",(613)342-7878,44.61505900,-75.68422500
A&W,"733 Central Parkway West, Mississauga, ON, L5B 4L1",(905)848-8885,43.57615600,-79.64667800
A&W,"2464 Queen Street East, Imperial Centre, Brampton, ON, L6S 5X9",(289)298-3095,43.73894100,-79.70196900
A&W,"618 Main Street North, Mount Forest, ON, N0G 2L2",(519)509-2929,43.98971100,-80.74589200
A&W,"1830 Merivale Road, Ottawa, ON, K2G 1E6",(613)228-9714,45.33570800,-75.72517200
A&W,"1130 Dundas Street East, Mississauga, ON, L4Y 2C1",(905)272-3447,43.60395100,-79.58918000
A&W,"14 Depot Drive, Bracebridge, ON, P1L 0A1",(705)645-3304,45.04786400,-79.29097200
A&W,"270 Bleams Road, Kitchener, ON, N2C 2K6",(519)894-5500,43.41101900,-80.45999300
A&W,"505 Grand Avenue West, Chatham, ON, N7L 1C5",(519)351-9376,42.40068100,-82.20749900
A&W,"72 King George Road, Brantford, ON, N3R 5K4",(519)756-1666,43.16505600,-80.27420200
A&W,"924 5th Street South, Kenora, ON, P9N 1L8",(807)468-8002,49.76031200,-94.47592000
A&W,"420 Government Road East, Kapuskasing, ON, P5N 2X7",(705)335-5900,49.39652500,-82.36795100
A&W,"506 McNeely Avenue, Carleton Place, ON, K7C 0A7",(613)253-8777,45.13158700,-76.12013800
A&W,"170 Culloden Road, Ingersoll, ON, N5C 3J7",(519)485-0424,43.01725200,-80.87685700
A&W,"292 Brock Road South, Puslinch, ON, N0B 2J0",(519)763-1110,43.45718600,-80.12910600
A&W,"140 Queensway East, Simcoe, ON, N3Y 2G9",(519)429-3215,42.84778000,-80.29372300
A&W,"165 Highway 8, Stoney Creek, ON, L8G 1C4",(289)426-1998,43.22337800,-79.74397600
A&W,"1078 Hoover Park Drive, Stouffville, ON, L4A 0K2",(905)642-2880,43.95473700,-79.27835000
A&W,"1975 Dundas Street, London, ON, N5V 4Y5",(519)455-8989,43.00575000,-81.17105300
A&W,"526 Memorial Avenue, Thunder Bay, ON, P7B 3Y8",(807)346-4300,48.42058100,-89.23911400
A&W,"605 Rogers Road, Toronto, ON, M6M 1B9",(416)410-4421,43.68195400,-79.47202500
A&W,"659 Dupont Street, Toronto, ON, M6G 1Z5",(416)533-1056,43.67134800,-79.42188300
A&W,"4459 Highway 7, Norwood, ON, K0L 2V0",(705)639-0999,44.39484800,-77.97164100
A&W,"2692 Eglinton Avenue E, Scarborough, ON, M1K 2S3",(416)266-8282,43.73682500,-79.24863300
A&W,"99 Highway 11 S, Esso Petrol Station, Cochrane, ON, P0L 1C0",(705)272-2262,49.05200300,-81.03122900
A&W,"Unit 3 - 167 Church Street, Toronto, ON, M5B 1Y6",(647)874-5222,43.65473600,-79.37623600
A&W,"2151 St. Clair Avenue West, Toronto, ON, M6N 1K5",(647)350-3006,43.67074700,-79.47296600
A&W,"Downsview Plaza, 1010A Wilson Avenue, Toronto, ON, M3K 1G6",(416)792-0110,43.72862000,-79.47822000
A&W,"6045 Bank Street, Greely, ON, K4P 0G5",(613)574-0120,45.26415800,-75.55591400
A&W,"1390 Neilson Road, Unit B1, Scarborough, ON, M1B 0C2",(416)293-1999,43.80907500,-79.22241200
A&W,"3214 Lake Shore Boulevard West, Toronto, ON, M8V 1L9",(416)901-0361,43.59740100,-79.52116200
A&W,"110 Place D'Orleans Dr, (Food Court), Orleans, ON, K1C 2L9",(613)424-4700,45.47854000,-75.51508900
A&W,"F109 - 1 Promenade Circle, Promenade Shopping Centre, Thornhill, ON, L4J 4P8",,43.80671000,-79.45247600
A&W,"175 Hanes Road, Huntsville, ON, P1H 1M4",(705)789-5188,45.33166800,-79.23294900
A&W,"85 Front Street East, Toronto, ON, M5E 1B8",(416)551-4786,43.64876700,-79.37238000
A&W,"580 Government Street, Highway 17, Dryden, ON, P8N 2Z1",(807)223-6980,49.78580600,-92.81656500
A&W,"1530 Albion Road, Toronto, ON, M9V 1B4",(289)469-0262,43.74288900,-79.58641200
A&W,"155 Queen St, Ottawa, ON, K1A 1K2",(613)421-0588,45.42153300,-75.69921700
A&W,"642 Church Street, Toronto, ON, M4Y 2G3",(416)944-2554,43.67007300,-79.38290600
A&W,"1606 Danforth Avenue, Toronto, ON, M4C 1H6",(416)672-0452,43.68380600,-79.32303200
A&W,"121 Great Northern Road, Sault Ste. Marie, ON, P6B 4Y9",(705)254-2451,46.52892300,-84.31998400
A&W,"659 Great Northern Road, Sault Ste. Marie, ON, P6B 5A1",(705)254-2451,46.54555000,-84.32033000
A&W,"5 Sandalwood Pkwy, Petro Canada, Brampton, ON, L7A 1J6",(905)846-7880,43.71699600,-79.80324000
A&W,"235 Steeles Ave East, Petro Canada, Milton, ON, L9T 1Y2",(905)878-5829,43.52227700,-79.89419200
A&W,"1021 Avenue Road, Petro Canada, Toronto, ON, M5R 1S2",(416)440-0666,43.70454600,-79.40754200
A&W,"3100 Ellesmere Road, Petro Canada Ellesmere@Morningside, Scarborough, ON, M1E 4C2",(416)271-1258,43.78454000,-79.19460000
A&W,"3733 Highway 7 West, Petro Canada, Woodbridge, ON, L4L 9H4",(905)264-0041,43.78884700,-79.54665800
A&W,"1896 Eglinton Ave. East,  PC Pharmacy, Scarborough, ON, M1L 2L9",(416)751-8896,43.72647700,-79.29691000
A&W,"7011 Bathurst Street, Petro Canada, Vaughan, ON, L4J 2J6",(289)843-1076,43.79327200,-79.44529700
A&W,"310 Harwood Avenue South, Ajax, ON, L1S 2J1",(905)231-1985,43.84489300,-79.01909500
A&W,"5100 Erin Mills Parkway, (Food Court), Mississauga, ON, L5M 2Z5",(647)479-4803,43.55850000,-79.71199000
A&W,"533 Broadway Street, Tillsonburg, ON, N4G 3S8",(519)842-6748,42.87537000,-80.74388400
A&W,"681 Algonquin Blvd. East, Highway 101, Timmins, ON, P4N 8S6",(705)268-8586,48.47712900,-81.31508200
A&W,"638 County Road 41, Petro Canada RR 6, Napanee, ON, K7R 3L1",(613)354-1462,44.26843100,-76.96783800
A&W,"1000 Fort William Road, (Food Court), Thunder Bay, ON, P7B 6B9",(807)623-0109,48.40302300,-89.24426000
A&W,"1586 Centennial Drive, Petro Canada, Kingston, ON, K7P 0C7",(613)389-0380,44.28020300,-76.57056500
A&W,"5000 Highway 7, (Food Court), Markham, ON, L3R 4M9",(905)513-1059,43.86829200,-79.28849500
A&W,"10 Legend Court, Ancaster, ON, L9K 1J3",(905)304-6572,43.22693900,-79.94766200
A&W,"351 Argyle Street South, Caledonia, ON, N3W 1K7",(289)284-1035,43.06179600,-79.96220000
A&W,"1811 Walker's Line, Burlington, ON, L7M 0H6",(289)427-5863,43.37888800,-79.80428300
A&W,"2960 Kingsway Drive, (Food Court), Kitchener, ON, N2C 1X1",(519)894-1281,43.42433800,-80.43901400
A&W,"9271 Country Road 93, Midland, ON, L4R 4K4",(705)526-8267,44.73917300,-79.91154800
A&W,"855 10th Street, Hanover, ON, N4N 1S1",(519)364-6723,44.15492500,-81.00754100
A&W,"213 Broad Street East, Dunnville, ON, N1A 1G1",(905)774-7992,42.90387800,-79.61605000
A&W,"2404 Long Lake Road, Sudbury, ON, P3E 5H5",(705)222-4670,46.44084000,-81.00453100
A&W,"41 Edgewater Street, Kanata, ON, K2L 1V7",(613)836-9595,45.29699000,-75.90022700
A&W,"2250 Rymal Road East, Hamilton, ON, L0R 1P0",(289)426-1981,43.17351700,-79.77972100
A&W,"1063 Chemong Road, Peterborough, ON, K9H 7R8",(705)874-0422,44.32575700,-78.33845400
A&W,"2448 Princess Street, Kingston, ON, K7M 3G4",(613)531-4999,44.25866000,-76.56004600
A&W,"3210 Wonderland Road South, London, ON, N6L 1A6",(519)690-3000,42.93300400,-81.27963200
A&W,"588 Arthur Street W., Thunder Bay, ON, P7E 5R8",(807)475-5930,48.38052300,-89.29421200
A&W,"103 - 5949 Baldwin Street South, Whitby, ON, L1M 2J7",(905)655-4500,43.95211000,-78.96168900
A&W,"1195 Oxford Street West, London, ON, N6H 1V6",(519)641-2000,42.97640300,-81.32019400
A&W,"305 Colonade Drive, RR 3, Kemptville, ON, K0G 1J0",(613)258-7857,45.02929600,-75.63246500
A&W,"931 Upper James Street, Hamilton, ON, L9C 3A6",(289)426-1980,43.22468200,-79.88291800
A&W,"6980 McLeod Road, Niagara Falls, ON, L2G 7K3",(289)296-5865,43.07018900,-79.11102400
A&W,"649 Yonge Street, Barrie, ON, L4N 4E7",(705)739-8810,44.35603100,-79.64394100
A&W,"194 King Street West, Hamilton, ON, L8P 1A5",(289)426-1982,43.25845200,-79.87466500
A&W,"1207 Appleby Line, Burlington, ON, L7L 5H9",(289)427-5886,43.38577800,-79.77861600
A&W,"3080 Highway 69 North, Val Caron, ON, P3N 1R8",(705)222-4581,46.61257100,-81.00644100
A&W,"1129 Princess St, Kingston, ON, K7M 3E1",(613)767-8221,44.24511600,-76.51933800
A&W,"1380 Exmouth Street, Sarnia, ON, N7S 3X9",(519)542-0114,42.98532600,-82.35294500
A&W,"96 Caradoc St. South, Strathroy, ON, N7G 2N8",(519)245-2100,42.95421700,-81.62043400
A&W,"240A Erie Street South, Leamington, ON, N8H 3C2",(519)324-0269,42.03934200,-82.60012600
A&W,"369 Speers Road, Oakville, ON, L6K 3T2",(905)849-5700,43.44039200,-79.69425600
A&W,"190 Barton Street E, Hamilton, ON, L8L 2W8",(289)426-1986,43.26213900,-79.85790500
A&W,"555 Woodlawn Road West, Guelph, ON, N1K 1E9",(519)836-2561,43.54276300,-80.30888000
A&W,"3228 Hawthorne Rd, Ottawa, ON, K1G 3W9",(613)730-8241,45.38152400,-75.60209900
A&W,"414 Huron Rd., Goderich, ON, N7A 3A5",(519)524-6664,43.73239900,-81.69321400
A&W,"201 Highway 17, White River, ON, P0M 3G0",(807)822-2240,48.59273000,-85.27506000
A&W,"7008 Industrial Drive, Comber, ON, N0P 1J0",(519)687-6600,42.23875700,-82.55143500
A&W,"2930 Argentia Rd, Mississauga, ON, L5N 8C5",(647)479-8212,43.59826900,-79.78145400
A&W,"198 Main Street North, Exeter, ON, N0M 1S3",(519)235-1178,43.36139200,-81.48269100
A&W,"2267 Highway #7, Concord, ON, L4K 1V7",(905)532-0887,43.80037000,-79.49952000
A&W,"4140 Walker Road, Windsor, ON, N8W 3T5",(519)966-8484,42.25907300,-82.96617500
A&W,"1099 Marcus Dr, Sudbury, ON, P3B 4K6",(705)222-1099,46.50054100,-80.94693900
A&W,"7665 Thorold Stone Road, Niagara Falls, ON, L2H 2P7",(289)296-5700,43.11501500,-79.12592700
A&W,"501 St. Clair Avenue West, Toronto, ON, M5P 0A2",(647)748-0005,43.68302000,-79.41801000
A&W,"1206 Dundas Street East, Whitby, ON, L1N 2K5",(905)444-9170,43.88473900,-78.92190600
A&W,"383 Arthur Street, Elmira, ON, N3B 2P5",(519)669-9410,43.57558200,-80.56158900
A&W,"18203 Yonge Street, Yonge & Green Lane, Newmarket, ON, L9N 0H9",(905)895-4848,44.07090300,-79.48310700
A&W,"10909 Yonge Street, Richmond Hill, ON, L4C 3E3",(905)883-9915,43.89440800,-79.43958300
A&W,"30 Highbury Park Drive, Greenbank & Highbury, Barrhaven, ON, K2J 6K8",(613)800-4716,45.27700000,-75.75022000
A&W,"510 Mitchell Road South, Listowel, ON, N4W 2B4",(519)291-6759,43.73254200,-80.96810700
A&W,"639 Southdale Road East, London, ON, N6E 3M2",(519)690-0550,42.94165300,-81.22799800
A&W,"Toronto Premium Outlets, 13850 Steeles Ave W, Halton Hills, ON, L7G 0J1",(289)218-0090,43.57555000,-79.83016500
A&W,"363 Kent Street West, Kawartha Lakes Centre, Lindsay, ON, K9V 2Z7",(705)341-0913,44.35054600,-78.75622500
A&W,"239 St. Catherine's St, Smithville, ON, L0R 2A0",(289)800-7637,43.09521300,-79.53935300
A&W,"947 Lansdowne Street West, Peterborough, ON, K9J 1Z5",(705)876-8443,44.28241200,-78.34218500
A&W,"843 Tower Street South, Tower St South & McQueen Blvd, Fergus, ON, N1M 2R2",(226)383-1665,43.69652000,-80.36847000
A&W,"328 King Street East, Unit 101, Kingston, ON, K7L 3B4",(613)542-0218,44.23036200,-76.48158300
A&W,"496 Causley Street, Blind River, ON, P0R 1B0",(705)356-3771,46.18531100,-82.92736500
A&W,"245 Front Street, Sturgeon Falls, ON, P2B 2J4",(705)580-3078,46.36622600,-79.91490700
A&W,"278 Toronto Street South, Uxbridge, ON, L9P 0C5",(905)862-2444,44.09400300,-79.13150200
A&W,"451 Norwich Avenue, Woodstock, ON, N4S 3W4",(519)290-2075,43.11715700,-80.73775600
A&W,"Stone Road Mall, Unit No. FC3, Guelph, ON, N1G 2X6",,43.51858500,-80.23813300
A&W,"2A - 5005 South Service Road, S Service Road & Ontario St, Beamsville, ON, L0R 1B4",(905)563-1800,43.18729400,-79.47774600
A&W,"580 Hespeler Rd., Cambridge, ON, N1R 6J8",(519)621-3116,43.40336700,-80.32720400
A&W,"1200 St Laurent Blvd, (Food Court), Ottawa, ON, K1K 3B8",(613)741-8950,45.42167500,-75.63921000
A&W,"2300 Yonge Street, (Food Court), Toronto, ON, M4P 1E4",(416)487-6143,43.70701900,-79.39873100
A&W,"221 Glendale Ave, (Food Court), St. Catharines, ON, L2T 2K9",(905)684-1884,43.13360000,-79.22427300
A&W,"25 Peel Centre Dr, (Food Court), Brampton, ON, L6T 3R5",(905)791-2879,43.71556200,-79.72393600
A&W,"260 Yonge St, Toronto Eaton Centre, Toronto, ON, M5B 2L9",(416)596-9134,43.65439500,-79.38071800
A&W,"1355 Kingston Rd, (Food Court), Pickering, ON, L1V 1B8",(905)831-0330,43.83691400,-79.08870000
A&W,"3401 Dufferin St, Yorkdale Shopping Centre, Toronto, ON, M6A 2T9",(416)789-3400,43.72585200,-79.45327200
A&W,"20 Bloor St East, (Food Court), Toronto, ON, M4W 1A8",(416)323-3108,43.67087500,-79.38575700
A&W,"1500 Fisher Street, (Food Court), North Bay, ON, P1B 2H3",(705)472-6106,46.31420400,-79.44080200
A&W,"17600 Yonge Street, (Food Court), Newmarket, ON, L3Y 4Z1",(905)967-0809,44.05620100,-79.48443100
A&W,"550 King Street North, (Food Court), Waterloo, ON, N2L 5W6",(519)747-9394,43.49867900,-80.52712300
A&W,"1105 Wellington Road South, (Food Court), London, ON, N6E 1V4",(519)681-5293,42.93144100,-81.22314900
A&W,"1680 Richmond Street, (Food Court), London, ON, N6G 3Y9",(519)660-6121,43.02532000,-81.27864000
A&W,"1 Bass Pro Mills Drive, (Food Court), Vaughan, ON, L4K 5W4",(905)760-1787,43.82538300,-79.53853500
A&W,"300 Borough Drive, (Food Court), Scarborough, ON, M1P 4P5",(416)296-2559,43.77602100,-79.25964400
A&W,"9350 Yonge Street, (Food Court), Richmond Hill, ON, L4C 5G2",(905)508-1032,43.85515500,-79.43668100
A&W,"1275 Barton Street East, Centre Mall, Hamilton, ON, L8H 2V4",(289)389-4746,43.25064500,-79.80771900
A&W,"496 Yonge Street, Yonge & Grosvenor, Toronto, ON, M4Y 1X9",(647)344-6616,43.66309000,-79.38382000
A&W,"ONroute Dutton, Highway 401 Eastbound, Dutton, ON, N0L 1J0",(519)762-2246,42.64321400,-81.56144800
A&W,"ONroute Trenton, Highway 401 Eastbo, Trenton, ON, K0K 1H0",(613)394-5815,44.11069300,-77.65931600
A&W,"ONroute West Lorne, Highway 401 Westbound, West Lorne, ON, N0L 2P0",(519)762-5706,42.64976300,-81.55635300
A&W,"17277 Highway 401 Eastbound, Onroute Trenton Travel Centre, Trenton, ON, K0K 1H0",(613)394-5175,44.10896800,-77.65951000
A&W,"ONroute Mallorytown North, 678 Highway 401 Westbound, Mallorytown, ON, K0E 1R0",(613)923-2610,44.48963200,-75.85704500
A&W,"ONroute Mallorytown South, 680 Highway 401 Eastbound, Mallorytown, ON, K0E 1R0",(613)923-2611,44.50568000,-75.83542000
A&W,"1380 London Road, (Food Court), Sarnia, ON, N7S 1P8",(226)784-2109,42.98213000,-82.35287100
A&W,"100 City Centre Drive, (Food Court), Mississauga, ON, L5B 2C9",(647)479-8058,43.59433100,-79.64102900
A&W,"1 Richmond Street West, Yonge & Richmond, Toronto, ON, M5H 3W4",(647)349-0741,43.65153500,-79.37904100
A&W,"372 Queen St West, Queen & Spadina, Toronto, ON, M5V 2A3",(647)348-2600,43.64899300,-79.39612800
A&W,"1500 Riverside Dr, (Food Court), Timmins, ON, P4R 1A1",(705)268-8558,48.47260200,-81.38221600
A&W,"3100 Howard Ave, (Food Court), Windsor, ON, N8X 3Y8",(519)969-6685,42.27470300,-83.00163600
A&W,"6301 Silver Dart Drive, Terminal 1, Post Security, Level 2, Mississauga, ON, L5P 1B2",(647)479-7879,43.68083700,-79.61128800
A&W,"35 Eglinton Avenue East, Yonge & Eglinton, Toronto, ON, M4P 1A1",(647)748-7778,43.70687000,-79.39715000
A&W,"1067 Ontario St., Unit H7, (Food Court), Stratford, ON, N5A 6W6",(519)271-4323,43.36956700,-80.94638800
A&W,"1980 Ogilvie Road, (Food Court), Gloucester, ON, K1J 9L3",(613)747-9920,45.43140900,-75.61034900
A&W,"1636 Highway 15, RR2, Kingston, ON, K7L 5H6",(613)544-8221,44.28534000,-76.43293000
A&W,"375 Mountainview Road South, Petro Canada, Georgetown, ON, L7G 5X3",(905)873-9982,43.63059900,-79.87580400
A&W,"201 Taunton Road West, Petro Canada, Ajax, ON, L1T 4W9",(905)428-3726,43.89286000,-79.05084700
A&W,"8480 Highway 27, Petro Canada, Woodbridge, ON, L4H 0A1",(905)851-9042,43.79120000,-79.62619000
A&W,"577 Holland Street  West, Petro Canada, Bradford, ON, L3Z 0C1",(905)775-5682,44.10665800,-79.60131900
A&W,"4641 Highway 7 East, Petro Canada, Markham, ON, L3R 1M6",(905)940-9863,43.86328300,-79.30302800
A&W,"11600 Keele Street, PetroCan @ Kirby & Keele , Vaughan, ON, L6A 1S1",(905)417-3921,43.89237000,-79.52105000
A&W,"1990 Hallstone Road, Petro Canada, Brampton, ON, L6Y 0L7",(905)457-7681,43.62196800,-79.76790100
A&W,"1867 Major MacKenzie Drive, Petro Canada, Vaughan, ON, L6A 3Z1",(905)417-5571,43.85874000,-79.49785000
A&W,"175 Cundles Road East, Petro Canada, Barrie, ON, L4M 4X7",(705)726-2224,44.41104900,-79.68898100
A&W,"8980 Goreway Drive, Petro Canada, Brampton, ON, L6T 0C4",(905)799-9767,43.75204700,-79.68431000
A&W,"620 Thompson Road, Petro Canada, Milton, ON, L9T 0C7",(905)693-8491,43.51573000,-79.85088100
A&W,"654 Danforth Avenue, Pape & Danforth, Toronto, ON, M4J 1L1",(416)466-1630,43.67917100,-79.34484000
A&W,"1100 Pembroke St E, (Food Court), Pembroke, ON, K8A 6Y7",(613)735-0909,45.82038400,-77.08383900
A&W,"1638 Avenue Road, Lawrence and Avenue Rd, North York, ON, M5M 3X9",(416)785-7195,43.72583800,-79.41708400
A&W,"20 Bay Street, FC-3, RBC Waterpark III, Toronto, ON, M5J 2N8",(416)306-0333,43.64164000,-79.37820000
A&W,"800 Niagara St., Seaway Mall, Welland, ON, L3C 1M3",(905)734-8272,43.01570500,-79.24778100
A&W,"1496 Queen Street West, Queen & MacDonnell, Toronto, ON, M6R 1A1",(416)534-2400,43.64034900,-79.43789600
A&W,"505 Jarvis Street, Petro Canada, Toronto, ON, M4Y 1H5",(416)413-0250,43.66658000,-79.37809000
A&W,"3305 Dorchester Rd., Petro Canada, Dorchester, ON, N0L 1G0",(519)268-2929,42.95786000,-81.06165000
A&W,"10625 Mississauga Road, Mississauga Rd & Sandalwood Pkwy, Brampton, ON, L7A 0B6",(905)846-7917,43.67895100,-79.84569200
A&W,"661 Atherley Road, Orchard Gate, Orillia, ON, L3V 1P1",(705)327-5356,44.60421300,-79.37295600
A&W,"176 Dundas Street, London Music Hall, London, ON, N6A 1G7",(519)679-6565,42.98398000,-81.24920000
A&W,"2858 Dundas St. W., Dundas & Keele, Toronto, ON, M6P 1Y8",(416)792-3006,43.66550000,-79.46515000
A&W,"832 College Street, College & Ossington, Toronto, ON, M6G 1C8",(416)534-0303,43.65454000,-79.42252000
A&W,"60 John Street, John & Mercer, Toronto, ON, M5V 3W2",(647)348-1550,43.64592300,-79.38989000
A&W,"1115 Bloor Street West, Bloor & Dufferin, Toronto, ON, M6H 1M7",(647)957-0474,43.65988400,-79.43465100
A&W,"201 Fairview Road, Barrie Travel Centre, Barrie, ON, L4N 9B1",(705)726-6694,44.35156000,-79.68754000
A&W,"419 King St W, Oshawa Centre, A&W Restaurant, Oshawa, ON, L1J 2K5",(905)728-4120,43.89405000,-78.87905000
A&W,"3300 Bloor Street West, Bloor & Islington, Toronto, ON, M8X 2X4",(416)231-0001,43.64547000,-79.52240000
A&W,"1277 York Mills Road, Toronto, ON, M3A 1Z5",(416)792-9030,43.76045000,-79.32521000
A&W,"650.5 Queen Street West, Queen & Palmerston, Toronto, ON, M6J 1E4",(647)503-5831,43.64681000,-79.40647000
A&W,"355 Hespeler Rd, Cambridge Centre Mall, Unit 321, Cambridge, ON, N1R 6B3",(519)623-7955,43.39393100,-80.31990700
A&W,"Petro Canada, 1182 Colborne Street East, Brantford, ON, N3T 5M1",(519)751-3828,43.14753100,-80.19428700
A&W,"657 John Street North, Aylmer, ON, N5H 2B6",(519)765-3002,42.78445000,-80.98250000
A&W,"500 Bloor St West, Bloor & Bathurst, Toronto, ON, M5S 1Y3",(647)349-5006,43.66548000,-79.41016000
A&W,"7 - 2016 Ogilvie Road, Ottawa, ON, K1J 6M6",(613)695-0497,45.43392000,-75.61246500
A&W,"756 Broadview Avenue, Broadview & Danforth, Toronto, ON, M4K 2P1",(416)901-2240,43.67590000,-79.35884000
A&W,"245 Daniel Street South, Arnprior, ON, K7S 3K5",(613)622-1112,45.42567000,-76.36458000
A&W,"359-361 Broadview Avenue, Toronto, ON, M4M 2H1",(416)461-8076,43.66536000,-79.35233400
A&W,"183B - 499 Main Street S, Shoppers World Brampton, Brampton, ON, L6Y 1N7",(905)450-8877,43.66762800,-79.73545700
A&W,"Dufferin Mall Unit 0112, 900 Dufferin Street, Toronto, ON, M6H 4A9",(416)516-0947,43.65516500,-79.43383900
A&W,"599 Main Street West, Port Colborne, ON, L3K 5Y7",(289)651-2786,42.89805600,-79.26517700
A&W,"1190 Danforth Avenue, Danforth & Greenwood, Toronto, ON, M4J 1M6",(416)456-1156,43.68163300,-79.33227800
A&W,"2625 Yonge Street, Yonge & Sheldrake, Toronto, ON, M4P 2J6",(416)903-8465,43.71524900,-79.39986800
A&W,"915 Taunton Road East, RR 2, Oshawa, ON, L1H 7K5",(905)571-2711,43.94019700,-78.84604900
A&W,"6570 Tecumseh Road East, Windsor, ON, N8T 1E6",(519)945-1670,42.31176700,-82.94661600
A&W,"1695 Manning Road, RR 1, Tecumseh, ON, N8N 2L9",(519)735-3010,42.30704000,-82.86992200
A&W,"3090 Dougall Avenue, Windsor, ON, N9E 1S4",(519)966-3255,42.27206400,-83.01277500
A&W,"12700 Hwy 50, Bolton, ON, L7E 1L9",(905)857-1888,43.86173100,-79.71438200
A&W,"330 Farmer's Market Road, Waterloo, ON, N2V 0A4",(519)746-0550,43.51179600,-80.54940200
A&W,"570 Harbour Expressway, Thunder Bay, ON, P7B 6P4",(807)344-4650,48.40675000,-89.25006000
A&W,"20 Wellington Street East, Guelph, ON, N1H 3R8",(519)821-2561,43.54146600,-80.24469600
A&W,"289 Highway 401 East, Cambridge South Highway, Cambridge, ON, N3C 2V6",(519)654-2010,43.43312600,-80.24513500
A&W,"806 Niagara St, Welland, ON, L3C 5Z4",(289)820-7925,43.01538000,-79.24978000
A&W,"1219 Confederation Street, Sarnia, ON, N7S 4M7",(519)344-1219,42.96008400,-82.36569000
A&W,"315 Lincoln Road, Waterloo, ON, N2J 4H7",(519)888-7676,43.48341800,-80.50677500
A&W,"3895 Innes Road, Orleans, ON, K1C 1T1",(613)837-9000,45.45335600,-75.51127600
A&W,"443 Highland Road West, Kitchener, ON, N2M 3C6",(519)579-1515,43.43643800,-80.51229100
A&W,"143 Mapleview Drive West, Veterans Village, Barrie, ON, L4N 9H7",(705)735-4809,44.33196100,-79.69833800
A&W,"490 Bayfield Street, Barrie, ON, L4M 5A2",(705)792-2973,44.41209700,-79.71080400
A&W,"850 McKeown Avenue, North Bay, ON, P1B 8M1",(705)495-8888,46.33212100,-79.47469600
A&W,"2 Hemlo Dr., Marathon, ON, P0T 2E0",(807)229-9760,48.72161300,-86.37305300
A&W,"3700 Major Mackenzie Drive West, Petro Canada, Vaughan, ON, L4H 3W1",(905)417-2224,43.84525600,-79.55681000
A&W,"422 Ninth Street West, Smart Centres, Cornwall, ON, K6L 0B3",(613)938-0002,45.02630000,-74.74298700
A&W,"6305 Hazeldean Rd, Stittsville, ON, K2S 0T2",(613)836-6611,45.26563000,-75.94136000
A&W,"2545 Parkedale Avenue, Brockville, ON, K6V 3H2",(613)342-7779,44.60192500,-75.70532000
A&W,"2870 Gibford Drive, Hunt Club, Ottawa, ON, K1V 2R4",(613)738-3153,45.34282100,-75.66764500
A&W,"405 March Road, Kanata, ON, K2K 0K1",(613)592-1514,45.33867000,-75.91220000
A&W,"1040 O'Brien Road, Renfrew, ON, K7V 3Z4",(613)432-6262,45.47885900,-76.65356500
A&W,"4195 King St. West, Kitchener, ON, N2P 2E8",(519)653-8778,43.41093000,-80.40045000
A&W,"417 South Service Rd, S Service Road & Casablanca Blvd, Grimsby, ON, L3M 4E8",(905)945-0010,43.20477700,-79.59515000
A&W,"300 4th Ave, St. Catharines, ON, L2R 6P9",(905)641-3700,43.15535000,-79.27356600
A&W,"419 Wharncliffe Road South, London, ON, N6J 2M6",(519)438-5281,42.96228600,-81.26141000
A&W,"390 Dundas Street East, Oakville, ON, L6H 6Z9",(905)257-6822,43.48907800,-79.71695600
A&W,"6775 Airport Rd , Mississauga, ON, L4V 1E6",(647)483-2392,43.70085900,-79.63787300
A&W,"3315 Monarch Drive, West Ridge Place, Orillia, ON, L3V 7Z4",(705)327-5353,44.61085000,-79.44969600
A&W,"120  Brickyard Way, Brampton, ON, L6V 4N1",(289)298-3375,43.70200000,-79.77891000
A&W,"1465 Aerowood Drive, Mississauga, ON, L4W 1C2",(647)479-7881,43.64400900,-79.63369100
A&W,"1111 Elgin Street West, Cobourg, ON, K9A 5H7",(905)377-1010,43.97147200,-78.19735600
A&W,"7 Balsam Street, Collingwood, ON, L9Y 5H6",(705)444-2900,44.50178200,-80.23505500
A&W,"10 Dunham Drive, Alliston, ON, L9R 0G1",(705)435-4700,44.16302700,-79.82471800
A&W,"751 Ottawa St South, Kitchener, ON, N2E 2N7",(226)647-2167,43.42254300,-80.48672600
A&W,"635 Principale Street, Casselman, ON, K0A 1M0",(613)764-4664,45.30689000,-75.08214000
A&W,"1660 Heron Road, Ottawa, ON, K1V 2P5",(613)731-6644,45.38003000,-75.64183000
A&W,"75 Resolution Drive, Brampton, ON, L6W 0A6",(289)298-0277,43.67882000,-79.72071000
A&W,"95 Dundas Street East, Waterdown, ON, L9H 7G1",(289)426-3251,43.31855000,-79.91060000
A&W,"656 Erb Street West, Waterloo, ON, N2T 2Z7",(226)988-8412,43.44665200,-80.57276500
A&W,"1454 Merivale Road, Ottawa, ON, K2E 5P1",(613)286-6044,45.36257100,-75.73392100
A&W,"23520 Woodbine Avenue, Keswick, ON, L4P 0E2",(905)476-0631,44.21707200,-79.44549500
A&W,"4255 Strandherd Drive, Barrhaven, ON, K2J 6E5",(613)823-2510,45.26974000,-75.78102000
A&W,"180 Holiday Inn Drive, Cambridge, ON, N3C 1Z4",(519)220-1800,43.41529600,-80.32297800
A&W,"281 Dundas Street East, Trenton, ON, K8V 1M1",(613)392-4668,44.10447500,-77.55696700
A&W,"665 Markham Road, Markham Rd & Lawrence, Scarborough, ON, M1H 2A4",(647)628-0532,43.76106600,-79.22529000
A&W,"317 Guelph Street, Georgetown, ON, L7G 4B3",(905)702-1227,43.64989900,-79.88779900
A&W,"1 - 2736 Chamberland Street, Rockland, ON, K4K 0B2",(613)446-2410,45.54469000,-75.30181000
A&W,"200 Franklin Blvd., Cambridge South Shopping Centre, Cambridge, ON, N1R 8N8",(519)623-6493,43.35761300,-80.28703400
A&W,"450 County Road 17, Hawkesbury, ON, K6A 2R2",(613)636-1010,45.59062700,-74.59218300
A&W,"75 Centennial Parkway N, (Food Court), Stoney Creek, ON, L8E 2P2",(416)672-0569,43.22919200,-79.76515700
A&W,"0303 - 999 Upper Wentworth Street, Lime Ridge Mall, Hamilton, ON, L9A 4X5",(905)575-9361,43.21715000,-79.86201000
A&W,"240 Leighland Road, Oakville, ON, L6H 3H6",(905)844-7457,43.46183500,-79.68724500
A&W,"509 Bayfield Street, Georgian Mall, Barrie, ON, L4M 4Z8",(705)726-9211,44.41271500,-79.70772300
A&W,"5 Ace Drive, Brampton, ON, L6R 3Y2",(905)799-1871,43.76030800,-79.79404400
A&W,"357 Church Street, Toronto, ON, M5B 0B2",(647)748-0786,43.66046800,-79.37851700
A&W,"Unit #4 - 45 Overlea Boulevard, East York Town Centre, Toronto, ON, M4H 1C3",(647)748-0036,43.70626000,-79.34495200
A&W,"1118 Finch Avenue West, A&W Restaurant, Toronto, ON, M3J 3J4",(647)508-1404,43.76700000,-79.47606900
A&W,"3318 Keele Street, Toronto, ON, M3M 2H7",(416)546-9666,43.74409600,-79.48689900
A&W,"3571 Sheppard Ave East, Toronto, ON, M1T 3K8",(416)901-2233,43.78032800,-79.29905900
A&W,"875 Queen Street East, Toronto, ON, M4M 1J2",(647)341-4444,43.66017200,-79.34274700
A&W,"3515 - Highway 89, Cookstown, ON, L0L 1L0",(705)458-1155,44.19930300,-79.65938000
A&W,"80 Dufferin, Perth, ON, K7H 2P3",(613)264-9110,44.90899300,-76.26378600
A&W,"6815, route Transcanadienne, (Foire alimentaire), Pointe-Claire, QC, H9R 5J1",(514)694-9709,45.46391500,-73.83141200
A&W,"3035, boulevard le Carrefour Laval, (Foire alimentaire), Laval, QC, H7T 1C8",(450)687-3521,45.57007500,-73.75195600
A&W,"160, boulevard des Promenades, (Foire alimentaire), St-Bruno, QC, J3V 5K1",(450)441-7959,45.50553400,-73.37805100
A&W,"320, boulevard St-Joseph, (Foire alimentaire), Gatineau, QC, J8Y 3Y8",(819)770-5560,45.44195500,-75.73192000
A&W,"5060, rue Jean-Talon Est, St-Léonard, QC, H1S 3G5",(514)376-3636,45.57596700,-73.58356500
A&W,"3020, chemin Gascon, Terrebonne, QC, J6X 3Z3",(450)477-4377,45.73140600,-73.67676700
A&W,"1200, boulevard Alphonse-Desjardins, (Foire alimentaire), Lévis, QC, G6V 6Y8",(418)833-1189,46.79658200,-71.17097700
A&W,"1255, rue Nouvel, Baie-Comeau, QC, G5C 3B3",(418)589-4485,49.19719600,-68.26510100
A&W,"2021, boulevard St-Martin Ouest, Laval, QC, H7S 1N3",(450)681-8464,45.56519500,-73.73393100
A&W,"380, chemin Principal, Cap-aux-Meules, QC, G4T 1C9",(418)986-3301,47.37694500,-61.86593500
A&W,"900, boulevard Grignon, St-Jérôme, QC, J7Y 4P7",(450)432-8303,45.79309400,-74.01792400
A&W,"546, 3e Rang, Petro Canada, Ste-Hélène-de-Bagot, QC, J0H 1M0",(450)791-2301,45.73453600,-72.74150300
A&W,"335, rue Barkoff, Trois-Rivières, QC, G8T 2A5",(819)379-5312,46.37291700,-72.55583000
A&W,"1695, boulevard Curé-Labelle, Laval, QC, H7V 2W6",(450)973-6000,45.55162100,-73.75906900
A&W,"100, boulevard Brien, (Foire alimentaire), Repentigny, QC, J6A 5N4",(450)657-8889,45.74283600,-73.45907800
A&W,"78, boulevard du Curé-Labelle, Ste-Thérèse, QC, J7E 2X4",(450)433-4214,45.64017800,-73.82839900
A&W,"495, rue Leclerc, Repentigny, QC, J6A 8J4",(450)470-0833,45.74741900,-73.45206500
A&W,"40, rue Évangéline, (Foire alimentaire), Granby, QC, J2G 8K1",(450)378-6330,45.41368800,-72.74953900
A&W,"7235, rue Saint-Jacques Ouest, Montréal, QC, H4B 1V3",(514)486-0777,45.45579100,-73.63269800
A&W,"1245, avenue Jules-Verne, L'Ancienne Lorette, QC, G2E 6L6",(418)872-9661,46.79045100,-71.35257600
A&W,"8400, avenue Christophe-Colomb, Montréal, QC, H2P 1X3",(514)382-8884,45.54991300,-73.62956000
A&W,"7600, rue Béclard, Anjou, QC, H1J 2X7",(514)355-8666,45.61050500,-73.58311700
A&W,"108, route du Président Kennedy, Lévis, QC, G6V 6C9",(418)835-8338,46.78881200,-71.16786000
A&W,"3551, boulevard des Sources, Dollard-des-Ormeaux, QC, H9B 1Z8",(514)683-7666,45.48705500,-73.79925700
A&W,"719, boulevard Laure, Sept-Îles, QC, G4R 1Y2",(418)968-0488,50.21927700,-66.38425500
A&W,"1100, boulevard Maloney Ouest, (Foire alimentaire), Gatineau, QC, J8T 6G3",(819)243-0435,45.47632000,-75.69796200
A&W,"1065, boulevard du Grand-Héron, St-Jérôme, QC, J7Y 3P2",(450)432-8338,45.75858800,-74.01822900
A&W,"1025, boulevard Talbot, Chicoutimi, QC, G7H 4B5",(418)543-6527,48.41149000,-71.05052900
A&W,"1555, boulevard de Montarville, Boucherville, QC, J4B 8T3",(450)645-2561,45.56747300,-73.40588900
A&W,"1730, boulevard Royal, Shawinigan, QC, G9N 8S8",(819)537-0395,46.55577000,-72.74768100
A&W,"2915, boulevard de la Gare, Vaudreuil-Dorion, QC, J7V 9R2",(450)455-0438,45.39205900,-74.05434900
A&W,"880, avenue Gabriel Brissette, Berthierville, QC, J0K 1A0",(450)836-8273,46.08598600,-73.19718300
A&W,"8000, boulevard Maurice-Duplessis, Montréal, QC, H1E 2Y9",(514)494-9888,45.63146400,-73.58903700
A&W,"1310, boulevard Casavant Est, St-Hyacinthe, QC, J2S 0G2",(450)250-5371,45.64676900,-72.95270000
A&W,"3321, rue du Carrefour, Beauport, QC, G1C 7E1",(418)661-1331,46.86253400,-71.21395300
A&W,"176, boulevard les Écureuils, Donnacona, QC, G3M 0J2",(418)462-1600,46.68331900,-71.72951600
A&W,"297, avenue du Moulin, Mont-Laurier, QC, J9L 3V8",(819)623-4007,46.55012000,-75.47653000
A&W,"555, rte 131, Notre-Dame-des-Prairies, QC, J6E 0M1",(450)756-2169,46.06125800,-73.41937000
A&W,"745, avenue du Pont Sud, Alma, QC, G8B 2V3",(418)662-6404,48.53902200,-71.64600400
A&W,"339, boulevard Fiset, Sorel-Tracy, QC, J3P 3R3",(450)743-5050,46.03675100,-73.09486700
A&W,"453 Blvd Jutras Est., Victoriaville, QC, G6P 7H4",(819)752-1705,46.05712700,-71.94321800
A&W,"2015, 12 ième Avenue nord, Suite #700 (Fleurimont), Sherbrooke, QC, J1E 4J5",(819)566-6472,45.43450500,-71.86899100
A&W,"2030, avenue Industrielle, Plaza Val-Belair, Québec, QC, G3K 1L7",(418)845-1611,46.85911700,-71.40407400
A&W,"182 Boulevard St-Luc, Boul. St Luc et Rue Douglas, St-Jean-sur-Richelieu, QC, J2W 1C7",(579)362-1700,45.34246500,-73.28489200
A&W,"1017, Chemin de Masson, Gatineau, QC, J8M 1R4",(819)986-9090,45.55848000,-75.41951000
A&W,"1210, rue de la Concorde, Lévis, QC, G6W 0M7",(418)834-3300,46.73106200,-71.26077900
A&W,"885 Route Martin, Ste-Marie-de-Beauce, QC, G6E 1E6",(418)387-0002,46.45136300,-71.03187400
A&W,"24 rue St-Jacques, Sherbrooke, QC, J1R 0T2",(819)933-1200,45.39475000,-71.99469000
A&W,"99, rte 235, Ange-Gardien, QC, J0E 1E0",(450)293-0029,45.36538400,-72.93341700
A&W,"72 A, boulevard Saint-Jean-Baptiste, Châteauguay, QC, J6K 4Y7",(450)692-0349,45.36211400,-73.71320800
A&W,"1935 blvd Roland-Therrien, Plaza Roland Therrien, Longueuil, QC, J4N 1A3",(450)468-0438,45.53771000,-73.47668800
A&W,"479 Chemin Vanier, Gatineau, QC, J9J 1Z4",(819)557-3790,45.41775000,-75.80899000
A&W,"7721, boulevard Taschereau, Brossard, QC, J4Y 1A3",(450)443-6900,45.45441100,-73.46458600
A&W,"7525 boulevard Jean XXIII, Trois-Rivières, QC, G9A 5C9",(819)841-4040,46.32155000,-72.60341000
A&W,"600, rue Pierre-Caisse, Carrefour Richelieu Centre, St-Jean-sur-Richelieu, QC, J3A 1M1",(450)376-5409,45.32935100,-73.28060700
A&W,"830, boulevard Vanier, Petro Canada, Laval, QC, H7C 2M7",(450)661-4571,45.60390600,-73.65185100
A&W,"395, montée Paiement, Petro Canada, Gatineau, QC, J8P 6M7",(819)561-7007,45.49009900,-75.67629300
A&W,"7800, boulevard Cousineau, Petro Canada, St-Hubert, QC, J3Z 1H2",(450)678-3571,45.48191500,-73.38841700
A&W,"9901, boulevard de l'Acadie, Petro Canada, Montréal, QC, H4N 3K3",(514)334-3036,45.53623400,-73.66613200
A&W,"20905, chemin de la Côte Nord, Mirabel, QC, J7J 2B7",(450)435-5998,45.64526500,-73.86920400
A&W,"4505, avenue du Parc, Petro Canada, Montréal, QC, H2V 4E4",(514)849-3001,45.51719900,-73.58922700
A&W,"545, boulevard Henri-Bourassa, Petro Canada, Montréal, QC, H3L 1C7",(514)388-8174,45.55486700,-73.66906200
A&W,"2033, boulevard de Maisonneuve Est, Petro Canada, Montréal, QC, H2K 4M2",(514)521-5505,45.52544500,-73.55249300
A&W,"14, route Sainte-Anne Ouest, Yamachiche, QC, G0X 3L0",(819)228-3443,46.26244600,-72.87606600
A&W,"3176, boulevard Taschereau, Petro Canada, Greenfield Park, QC, J4V 2H3",(450)466-5878,45.49615100,-73.48456100
A&W,"2525, boulevard de la Grande Allée, Petro Canada, Boisbriand, QC, J7H 1E3",(450)420-9052,45.62285900,-73.85205100
A&W,"859, chemin Saint-Féréol, Petro Canada, Les Cèdres, QC, J7T 1N2",(450)452-4717,45.34339900,-74.08785000
A&W,"1540 boulevard de Maisonneuve ouest, Montréal, QC, H3G 1N1",(514)937-5001,45.49733100,-73.57897600
A&W,"2911, chemin Milletta, Aire de service de Memphrémagog, Magog, QC, J1X 0R4",(819)594-8531,45.29111000,-72.21356600
A&W,"2665, côte Saint-Charles St-Lazare, Hudson, QC, J7T 2H8",(450)458-0438,45.43401000,-74.17365700
A&W,"4501, rue Saint-Denis, Montréal, QC, H2J 2L4",(514)281-5534,45.52412800,-73.58295200
A&W,"705, rue Ste-Catherine Ouest, (Foire alimentaire), Montréal, QC, H3B 4G5",(514)842-7979,45.50297000,-73.57134500
A&W,"81, boulevard Jacques-Cartier, Matane, QC, G4W 4K8",(418)562-5490,48.85173100,-67.51239700
A&W,"23, rte 116 Est, Danville, QC, J0A 1A0",(819)642-0060,45.78621700,-72.02353800
A&W,"330, rue Ste-Catherine est, Montréal, QC, H2X 1L7",(514)842-2323,45.51310000,-73.56088000
A&W,"845, rue Sainte-Catherine Est, (Foire alimentaire), Montréal, QC, H2L 4M4",(514)847-0193,45.51622400,-73.55909900
A&W,"7077 Boulevard Newman, Carrefour Angrignon, Lasalle, QC, H8N 1X1",(514)379-6777,45.44746000,-73.61556000
A&W,"2151, boulevard Lapinière, (Foire alimentaire), Brossard, QC, J4W 2T5",(450)672-1966,45.47129800,-73.47111900
A&W,"250, rue Saint-Jude Nord, Granby, QC, J2J 0C2",(450)994-9944,45.42124500,-72.74664800
A&W,"120, place Charles-Le Moyne, Longueuil, QC, J4K 2T4",(450)670-5535,45.52494800,-73.52207700
A&W,"755, boulevard René Lévesque, (Foire alimentaire), Drummondville, QC, J2C 6Y7",,45.90039800,-72.51574500
A&W,"19001, Chemin Notre-Dame, Suite 627, Premium Outlets Montréal, Mirabel, QC, J7J 0R6",(450)420-1183,45.66782800,-73.92378200
A&W,"1651, Avenue Mont-Royal Est., Montréal, QC, H2J 1Z6",(514)522-5549,45.53230200,-73.57532600
A&W,"48, Rue Notre Dame Est, Montréal, QC, H2Y 1B9",(514)396-5550,45.50683800,-73.55513900
A&W,"5195 chemin de la Côte-des-Neiges, Montréal, QC, H3T 1Y1",(514)731-1111,45.49558600,-73.62065500
A&W,"5000, rue Girardin, Drummondville, QC, J2E 1A1",(819)474-7255,45.90288600,-72.52955900
A&W,"2117, rue Canadien, Drummondville, QC, J2C 7V9",(819)850-7520,45.88582600,-72.53868100
A&W,"6411 Rue Saint-Hubert, Montréal, QC, H2S 2L9",(514)270-7764,45.53616000,-73.60316000
A&W,"2305, chemin Rockland, (Foire alimentaire), Montréal, QC, H3P 3E9",(514)543-3301,45.52753100,-73.64914200
A&W,"161, autoroute 40 Est, Aire de service de la Baie-de-Maski, Maskinongé, QC, J0K 1N0",(819)227-4410,46.19574500,-73.00366700
A&W,"3780, boulevard St-Laurent, Montréal, QC, H2W 1X6",(514)840-5560,45.51528073,-73.57594511
A&W,"229, boulevard de lHotel-de-Ville"", Rivière-du-Loup, QC, G5R 5H4",(418)605-0927,47.82707000,-69.54917000
A&W,"363, Avenue Leonidas, Rimouski, QC, G5M 1A1",(418)721-7798,48.45692000,-68.49975000
A&W,"3740 Chemin de Chambly, Longueuil, QC, J4L 1N8",(450)679-6464,45.51205000,-73.44073000
A&W,"1753, rue Sherbrooke, Magog, QC, J1X 2T5",(819)769-1366,45.27871000,-72.12944000
A&W,"605 Boulevard Jean-Jacques Bertrand, Cowansville, QC, J2K 3Y8",(450)263-3385,45.19175000,-72.75767000
A&W,"5120, chemin Queen Mary, Montréal, QC, H3W 1X2",(514)303-1205,45.48527000,-73.62730000
A&W,"260, 8ieme Avenue , Dolbeau-Mistassini, QC, G8L 1Z5",(418)979-3090,48.88072000,-72.23470000
A&W,"8950, boulevard Lacroix, St-Georges, QC, G5Y 2B5",(418)227-0057,46.13036200,-70.69614000
A&W,"56 Route 132 , Delson, QC, J5R 3X8",(438)227-4294,45.38532400,-73.54702100
A&W,"401, boulevard Labelle, (Foire alimentaire), Rosemère, QC, J7A 3T2",(450)437-1550,45.63071900,-73.81970400
A&W,"1010, boulevard Taschereau, La Prairie, QC, J5R 1W6",(450)444-5373,45.40707900,-73.49791600
A&W,"Harnois Gas Station, 2914 Route 125, Sainte-Julienne, QC, J0K 2T0",(450)333-9333,46.00022300,-73.72231800
A&W,"183 boulevard Hymus, Pointe-Claire, QC, H9R 1E9",(514)693-5577,45.46165000,-73.81739000
A&W,"1510, boulevard Greber, Gatineau, QC, J8R 0E1",(819)576-7880,45.50342400,-75.67810600
A&W,"Petro Canada, 500 Block 2e Rue Est (route 393), La Sarre, QC, J9Z 2J3",(819)333-3578,48.80029700,-79.20015400
A&W,"Petro Canada, 1807, 3e Avenue, Val d'Or, QC, J9P 7A9",(819)824-2444,48.09676200,-77.82699100
A&W,"348, boulevard Marcotte, Roberval, QC, G8H 1Z6",(418)765-2005,48.50376000,-72.22268000
A&W,"1200, rue Sainte-Catherine Est, Montréal, QC, H2L 2G9",(514)508-2005,45.51850000,-73.55596000
A&W,"510 Avenue Bethany, App. 1, Lachute, QC, J8H 4H5",(579)476-0128,45.63709500,-74.32777600
A&W,"185 2 Rang, St-Louis-de-Blandford, QC, G0Z 1B0",(819)234-0105,46.21904500,-72.05488300
A&W,"1494, boulevard de la Cote-Vertu, Montréal, QC, H4L 1Z8",(514)700-6516,45.51406800,-73.68277900
A&W,"9205 Boulevard Lacordaire, Montréal, QC, H1R 2B6",(514)303-3330,45.59676000,-73.60868800
A&W,"2313 rue Sainte-Catherine Ouest, Montréal, QC, H3H 1N2",(514)664-6097,45.48937200,-73.58446100
A&W,"5150, rue Sherbrooke ouest, Montréal, QC, H4A 1T4",(514)369-4777,45.47585300,-73.60701900
A&W,"3251 Rue Beaubien Est, Montréal, QC, H1X 1G4",(514)725-3030,45.55555000,-73.58642600
A&W,"Petro Canada, 220, boulevard Saint-Jean-Baptiste, Mercier, QC, J6R 2B8",(514)664-5592,45.33628800,-73.72961800
A&W,"Petro Canada, 850, rue Principale Est, Ste-Agathe-des-Monts, QC, J8C 1L5",(819)323-0004,46.04383000,-74.26808200
A&W,"4505, rue de la Sortie 185, Irving , St-Cyrille-de-Wendover, QC, J1Z 1B4",(873)886-9520,45.95015100,-72.44639800
A&W,"3457 Avenue du Parc, Montréal, QC, H2X 2H6",(514)289-8535,45.50916300,-73.57275300
A&W,"440, rue de Murano, local 140, Sainte-Julie, QC, J3E 0G5",(450)649-1579,45.58266700,-73.32383800
A&W,"104 Chemin de Lavaltrie, Lavaltrie, QC, J5T 3C7",(450)586-0256,45.89488900,-73.29808900
A&W,"1610, boulevard de Port Royal, Becancour, QC, G9H 0J1",(819)591-4444,46.29247000,-72.54064000
A&W,"150, rue Sainte-Catherine, (Foire alimentaire), Montréal, QC, H2X 3Y2",(514)844-4784,45.50737000,-73.56406500
A&W,"1190 boulevard Louis XIV, Charlesbourg, QC, G1H 6P2",(581)981-2902,46.86967800,-71.25579300
A&W,"1623 Route 132, Local 1, Varennes, QC, J3X 1P7",(450)929-0472,45.65635000,-73.42027000
A&W,"697 Chemin Avila, St-Sauveur, QC, J0R 1R3",(579)476-0129,45.88945000,-74.14631000
A&W,"2000a, boulevard Pierre-Laporte, Bromont, QC, J2L 2W8",(450)534-0707,45.33586300,-72.70264400
A&W,"Local 101, 181, boulevard Sir-Wilfred-Laurier, St-Basile-le-Grand, QC, J3N 1M2",(578)883-8475,45.52195000,-73.28859300
A&W,"20, boulevard Frontenac Ouest, Thetford Mines, QC, G6G 1M7",(418)755-0302,46.10322000,-71.31289600
A&W,"3500 Boulevard du Tricentenaire, Pointe-aux-Trembles, QC, H1B 0A3",(514)645-2647,45.65257800,-73.51131400
A&W,"4813 Boulevard St-Jean, Pierrefonds, QC, H9H 2A9",(438)220-7587,45.48961600,-73.84985800
A&W,"6810 Jean-Talon Est, St-Léonard, QC, H1S 0A5",(514)256-9797,45.59424900,-73.57274800
A&W,"7610 Newman Boulevard, Lasalle, QC, H8N 1X8",(514)368-7770,45.43897000,-73.62200000
A&W,"2193 rue King Ouest, Sherbrooke, QC, J1J 2G2",(819)416-1461,45.40013700,-71.92999700
A&W,"600, Montee Masson, Mascouche, QC, J7K 2L5",(450)474-1612,45.73563900,-73.61325900
A&W,"3550, rue Galt Ouest, Sherbrooke, QC, J1H 0A5",(819)416-1464,45.37571100,-71.95305400
A&W,"4075, boulevard des Récollets, Trois-Rivières, QC, G9A 6M1",(819)372-1125,46.32878800,-72.56649300
A&W,"3650, boulevard des Forges, Trois-Rivières, QC, G8Y 5H5",,46.35343800,-72.58105100
A&W,"3733, boulevard Harvey, Jonquiere, QC, G7X 8R6",(418)512-0833,48.41237100,-71.24226700
A&W,"700, avenue Taniata, Saint-Jean-Chrysostome, QC, G6Z 2E2",(418)834-5197,46.73629500,-71.21338600
A&W,"453, boulevard Arthur-Sauvé, St-Eustache, QC, J7P 2B3",,45.56627200,-73.90626300
A&W,"2335, chemin de Chambly, Carignan, QC, J3L 4N4",(450)447-0667,45.45941900,-73.31017600
A&W,"190, rue de St-Jovite, Mont-Tremblant, QC, J8E 2Z9",(873)479-0125,46.11776000,-74.56232000
A&W,"4685, 1re Avenue, Charlesbourg, QC, G1H 2T1",(418)623-2336,46.84512700,-71.25237500
A&W,"597, boulevard Wilfrid-Hamel, Québec, QC, G1M 2T2",(418)529-0888,46.81677000,-71.25060800
A&W,"7999, boulevard Les-Galeries-d'Anjou, Les Galeries D'Anjou, F011, Anjou, QC, H1M 1W9",(438)601-1044,45.60064500,-73.56356600
A&W,"5325, boulevard Cousineau, St-Hubert, QC, J3Y 9E2",(450)656-6808,45.50120100,-73.42343000
A&W,"832, 1re Avenue Ouest, Amos, QC, J9T 1V8",(819)732-0712,48.57166500,-78.13039300
A&W,"3720, boulevard Taschereau, Greenfield Park, QC, J4V 2V6",(438)983-1251,45.48846700,-73.47242300
A&W,"175, boulevard René-Lepage Ouest, Rimouski, QC, G5L 8X8",(418)722-9737,48.44797100,-68.53553900
A&W,"7240 Boulevard Laurier, La Plaine, QC, J7M 0K6",(450)325-1414,45.76665800,-73.72924600
A&W,"1401 rue Denison Ouest, St-Alphonse-de-Granby, QC, J2J 0L8",(450)372-5750,45.35243000,-72.77930000
A&W,"220, boulevard René-Lévesque Est., Chandler, QC, G0C 1K0",(418)689-5588,48.35098000,-64.66987000
A&W,"9675, boulevard Ste-Anne, Ste-Anne-de-Beaupre, QC, G0A 3C0",(418)702-1811,47.01979700,-70.93543200
A&W,"2485, boulevard Sainte-Anne, Les Galeries de La Canardière, Québec, QC, G1J 1Y4",(581)742-2389,46.84401000,-71.21557000
A&W,"655, avenue du Président-Kennedy, Montréal, QC, H3A 1K1",(514)600-4159,45.50459300,-73.57246100
A&W,"253 rue de Migrateurs, Terrebonne, QC, J6V 0A8",(450)585-6765,45.71594100,-73.50499300
A&W,"Jean Lesage International Airport, 505, rue Principale, Québec, QC, G2G 0J4",(581)204-8052,46.79158000,-71.38380800
A&W,"Les Galeries de la Capitale, # FC9, 5401, boulevard des Galeries, Québec, QC, G2K 1N4",(418)627-3820,46.83065500,-71.30044200
A&W,"2700, boulevard Laurier, (Foire alimentaire), Ste-Foy, QC, G1V 2L8",(418)658-4217,46.77110900,-71.28582100
A&W,"2450, boulevard Sir-Wilfrid-Laurier, Unit F-25 (Foire alimentaire), Ste-Foy, QC, G1V 2L1",(418)652-9616,46.77351700,-71.27899400
A&W,"4225, boulevard des Forges, Centre Commercial Les Rivieres-Z 1D, Trois-Rivières, QC, G8Y 1W1",(819)803-4996,46.35632600,-72.58935700
A&W,"3050, boulevard de Portland, (Foire alimentaire), Sherbrooke, QC, J1L 1K1",(438)315-7952,45.40184400,-71.95212000
A&W,"419, boulevard Jessop, (Foire alimentaire), Rimouski, QC, G5L 7Y5",(418)722-0337,48.46733400,-68.51272500
A&W,"576, rue Dubois, Saint-Eustache, QC, J7P 0A1",(450)472-2520,45.58131100,-73.88187500
A&W,"455 Guy Street, Montréal, QC, H3J 1S9",(514)935-8684,45.49023000,-73.56681200
A&W,"1044, avenue Larivière, Rouyn-Noranda, QC, J9X 3Y4",(819)762-2220,48.22368900,-78.99648000
A&W,"316, rue George-Muir, Charlesbourg, QC, G2N 1L2",(418)849-1956,46.89575200,-71.31411200
A&W,"100-2005 blvd Monseigneur-Langlois, Valleyfield, QC, J6S 5P8",(514)299-1833,45.27198000,-74.09824500
A&W,"615, rue Principale, Riviere Beaudette, QC, J0P 1R0",(450)269-0909,45.21935400,-74.32191200
A&W,"1620 Montée Masson, Laval, QC, H7E 4P2",(450)661-0163,45.64650400,-73.64256000
A&W,"1230, chemin des Oliviers, Petro Canada, St-Nicolas, QC, G7A 2M6",(418)831-2328,46.67963800,-71.34573300
A&W,"453, rue Ste-Catherine Ouest, Montréal, QC, H3B 1B1",(514)849-6886,45.50528000,-73.56801000
A&W,"963 Central Ave, (Food Court), Greenwood, NS, B0P 1N0",(902)765-8113,44.96844200,-64.92526500
A&W,"800 Grand Lake Rd, (Food Court), Sydney, NS, B1P 5T9",(902)539-8070,46.14569000,-60.13832000
A&W,"5201 Duke St, (Food Court), Halifax, NS, B3J 1P1",(902)423-0160,44.64928100,-63.57541100
A&W,"21 Micmac Blvd, (Food Court), Dartmouth, NS, B3A 4K6",(902)463-0188,44.68589300,-63.55923300
A&W,"1 Bell Boulevard, Halifax International Airport, Enfield, NS, B2T 1K2",(902)873-2491,44.88704000,-63.51257000
A&W,"357 Highway 4, Port Hastings, NS, B9A 1M8",(902)625-0033,45.64213100,-61.39023500
A&W,"7001 Mumford Rd., (Food Court), Halifax, NS, B3L 2H8",(902)455-1790,44.64864600,-63.62103800
A&W,"9203 Commercial Street, New Minas, NS, B4N 3G1",(902)681-0403,45.06764200,-64.44738800
A&W,"138 Robie Street, Truro, NS, B2N 1L1",(902)843-3471,45.36817200,-63.30756400
A&W,"1748 Bedford Highway, Bedford, NS, B4A 1G2",(902)418-4855,44.73935200,-63.65497500
A&W,"774 Sackville Drive, Lower Sackville, NS, B4E 1R7",(902)864-5958,44.77315400,-63.69298100
A&W,"321 Wentworth Road, Windsor, NS, B0N 2T0",(902)792-4024,44.99228900,-64.11243900
A&W,"124 North Foord Street, New Glasgow, NS, B2H 5H2",(902)752-2446,45.57369400,-62.65791000
A&W,"17 North Street, Bridgewater, NS, B4V 2V7",(902)530-3066,44.38438900,-64.51552200
A&W,"250 Highway 214, Elmsdale, NS, B2S 1J9",(902)883-0316,44.97534500,-63.50790000
A&W,"54 James Street, Antigonish, NS, B2G 1R7",(902)867-1071,45.61540000,-62.00376000
A&W,"314 Prince Street, Sydney Shopping Centre, Sydney, NS, B1P 5K6",(902)270-3799,46.13907000,-60.18664000
A&W,"8 Gary Martin Dr, Bedford, NS, B4B 0V4",(902)835-6161,44.72670500,-63.70267800
A&W,"219 South Albion Street, Amherst, NS, B4H 4H5",(902)667-2229,45.81057600,-64.20261600
A&W,"210 Willow Street, Truro, NS, B2N 5A2",(902)895-5628,45.35837700,-63.29215700
A&W,"65A Starrs Road, Yarmouth, NS, B5A 2T2",(902)742-8305,43.84419200,-66.10886600
A&W,"215 Chain Lake Drive, Bayers Lake Centre, Halifax, NS, B3S 1C9",(902)450-0107,44.65293700,-63.67852300
A&W,"7 Treaty Trail, Millbrook, NS, B6L 1W1",(902)896-0346,45.33466500,-63.30414500
A&W,"1 - 975 Wilkinson Avenue, Shell Gas Station, Dartmouth, NS, B3B 0M9",(902)468-3233,44.71045000,-63.56887000
A&W,"20 Damascus Road, Bedford, NS, B4A 0C1",(902)835-4494,44.75056000,-63.63929900
A&W,"3162 Hwy 2, Fall River, NS, B2T 1J5",,44.81401200,-63.60944400
A&W,"31 Cow Bay Road, Eastern Passage, NS, B3G 1A2",(902)829-2224,44.61170200,-63.49259500
A&W,"312 Val d'Amour Road, Sugarloaf Mall, Atholville, NB, E3N 4E2",(506)753-5663,47.99379300,-66.69973700
A&W,"477 Paul St, (Food Court), Dieppe, NB, E1A 4X5",(506)854-1511,46.09597700,-64.76142400
A&W,"519 Westmorland Rd, (Food Court), Saint John, NB, E2J 3W9",(506)658-6072,45.30932300,-66.01550600
A&W,"1381 Regent Street, (Food Court), Fredericton, NB, E3C 1A2",(506)459-7111,45.93573000,-66.66534900
A&W,"131 Mcallister Drive, Saint John, NB, E2J 2S6",(506)657-1200,45.31216700,-66.01895900
A&W,"36 St-Pierre Boulevard West, Caraquet, NB, E1W 1B6",(506)727-6600,47.79227000,-64.94363300
A&W,"1018 Prospect Street, Prospect Plaza, Fredericton, NB, E3B 3C1",(506)457-6005,45.94155700,-66.66889000
A&W,"6 Champlain Street, Moncton/Dieppe, Dieppe, NB, E1A 1N3",(506)383-9433,46.09286100,-64.76094000
A&W,"102 Douglastown Blvd., Miramichi, NB, E1V 7V3",(506)778-2225,47.03568100,-65.49012200
A&W,"20 Plaza Boulevard, Moncton, NB, E1C 0G4",(506)854-7888,46.11343800,-64.82659500
A&W,"111 Everett Street, Woodstock, NB, E7M 3R1",(506)328-3334,46.17143800,-67.59988500
A&W,"167 Hampton Road, Rothesay, NB, E2E 2R3",(506)849-8137,45.40301300,-65.97370600
A&W,"1 - 15 Shadowave Drive, Salisbury, NB, E4J 0E7",(506)372-5953,46.04759000,-65.05670000
A&W,"Miramichi Rd & Commerce Dr., Oromocto, NB, E2V 0B3",(506)357-2634,45.83261000,-66.48877000
A&W,"Main Street Plaza, 235 Main Street, Fredericton, NB, E3A 1E1",(506)450-5045,45.97605500,-66.64836400
A&W,"650 Fairville Blvd, Saint John, NB, E2M 3M2",(506)657-1086,45.25439500,-66.09558000
A&W,"12 Park Drive, Richibucto, NB, E4W 4G5",(506)523-1562,46.66817700,-64.86748600
A&W,"Petro Canada, 241 Bayside Drive, Saint John, NB, E2J 1A7",(506)632-8010,45.28015200,-66.03574600
A&W,"2600 Mountain Road, Petro Canada Magnetic Hill, Moncton, NB, E1G 3T6",(506)859-6000,46.13029600,-64.88182200
A&W,"650 University Avenue, Charlottetown, PE, C1E 1E3",(902)892-9868,46.26361400,-63.14567500
A&W,"451 Granville Street, Summerside, PE, C1N 4P7",(902)436-5114,46.41011300,-63.78231700
A&W,"Avalon Mall, 48 Kenmount Road, St. John's, NL, A1B 1W3",(709)753-8133,47.55878300,-52.75347800
A&W,"430 Topsail Road, (Food Court), St. John's, NL, A1E 4N1",(709)364-6161,47.53494900,-52.75118600
A&W,"1452 Topsail Road, North Atlantic Fuels, Paradise, NL, A1L 1P9",(709)782-9107,47.53307100,-52.85521400
A&W,"120 Columbus Drive, Carbonear, NL, A1Y 1B3",(709)596-5126,47.72798800,-53.24468400
A&W,"15 Union St, Corner Brook, NL, A2H 6G7",(709)634-3053,48.94297900,-57.94850500
A&W,"11 Loring Drive, Goose Bay, NL, A0P 1C0",(709)896-4554,53.30828500,-60.37951100
A&W,"1 Cunard Crescent, Mount Pearl, NL, A1N 5B5",(709)368-5300,47.51222200,-52.82836400
A&W,"118 Trans Canada Highway, Gander, NL, A1V 1P8",(709)256-2170,48.95301000,-54.62089800
A&W,"6 Shoal Harbour Drive, Clarenville, NL, A5A 2C4",(709)466-7444,48.16786800,-53.98671100
A&W,"96 Conception Bay Highway, Conception Bay South, NL, A1W 3A5",(709)834-1987,47.51949700,-52.95485400
A&W,"7 Harris Avenue, Grand Falls Windsor, NL, A2A 0C5",(709)393-1113,48.94313000,-55.64673000
A&W,"39 Queen Street, Stephenville, NL, A2N 2M3",(709)643-6445,48.54677000,-58.57508000
A&W,"161 Conception Bay Highway, Bay Roberts, NL, A0A 1G0",(709)786-2838,47.57965600,-53.27901100
A&W,"8 Commerce Street, Deer Lake, NL, A8A 1E6",(709)635-5800,49.17457400,-57.43113200
A&W,"272 Torbay Rd, St. John's, NL, A1A 4E1",(709)738-2298,47.59997700,-52.71165200
A&W,"68 Kenmount Rd, St. John's, NL, A1B 1W2",(709)722-5750,47.55839800,-52.75743500
A&W,"739-749 Trans-Canada Hwy, Whitbourne, NL, A0B 3K0",(709)759-5300,47.44942300,-53.55998800
