name,address,phoneNumber,lat,lon
Booster Juice,"123 Pioneer Drive , Kitchener, Ontario, N2P 2A3",(519) 894-0001,0,0
Booster Juice,"3122 Mt. Lehman Road, Unit C140, Abbotsford, British Columbia, V2T 0C5",(604) 853-8555,49.05834406,-122.3794974
Booster Juice,"2653 Trethewey Street, Unit #107 (South Fraser Gate), Abbotsford, British Columbia, V2T0B5",(604) 859-9869,49.05037452,-122.3273686
Booster Juice,"2100 Whatcom Road, Unit #101, Abbotsford, British Columbia, V3G 2K8",(604) 859-8068,49.04126781,-122.2207271
Booster Juice,"800 East Lake Boulevard NE, Unit 166, Airdrie, Alberta, T4A 2K9",(403) 948-0275,51.28476735,-113.9935449
Booster Juice,"505 Main Street South, Unit #103 (Towerlane Mall), Airdrie, Alberta, T4B 2B8",(403) 948-0277,51.28956767,-114.0140945
Booster Juice,"310 Harwood Ave. S, Unit 1C, Ajax, Ontario, L1S 2J1",905-683-2202,43.84518524,-79.0192248
Booster Juice,"5 Rossland Road East, Unit 5, Ajax, Ontario, L1Z 0T4",(905) 426-9222,43.878402,-79.0323
Booster Juice,", Al Kouz District , Emirate of Dubai,",,0,0
Booster Juice,"50 King Street South, Unit #30, Alliston, Ontario, L9R 1H6",705-435-4270,44.14915,-79.879
Booster Juice,"737 Golf Links Road, Unit #F2B, Ancaster, Ontario, L9K1L5",(905) 304-0120,43.22611361,-79.95386037
Booster Juice,"1187 Wilson Street West, unit #2, Ancaster, Ontario, L9G 3K9",905-304-6436,43.1978,-80.021
Booster Juice,"676 Wellington Street East, Unit #B2, Aurora, Ontario, L4G 0K3",(905) 726 3616,44.00597632,-79.44493851
Booster Juice,"509 Bayfield Street, Unit 301, Barrie, Ontario, L4M 4Z8",(705) 737-3070,44.4126,-79.70815
Booster Juice,"89 Park Place Blvd, Unit 5 3E, Barrie, Ontario, L4N 6P4",(705) 792-4567,44.34012,-79.6818
Booster Juice,"#109, 6110 - 50th Street , Beaumont, Alberta, T4X 1T8",780-929-3958,53.36243042,-113.417101
Booster Juice,"14 Peakview Way, Larry Uteck, Bedford, Nova Scotia, B3M 0G2",902-832-5236,44.700155,-63.687105
Booster Juice,"390 North Front Street, Belleville, Ontario, K8P 3E1",613-779-7202,44.18864111,-77.40209211
Booster Juice,"170 Jozo Weider Blvd., Unit 3, Blue Mountain, Ontario, L9Y 0V2",705-293-5842,44.50332287,-80.31133484
Booster Juice,"12788 HWY 50, Unit A12, Bolton, Ontario, L7E 4G1",(289) 616-0100,43.863186,-79.716671
Booster Juice,"#101, 5028 50 Avenue, Bonnyville, Alberta, T9N 2G4",780 812 2042,0,0
Booster Juice,"4-2366 Durham Regional Hwy 2, Bowmanville, Ontario, L1C 4Z3",905-623-1100,43.909722,-78.710779
Booster Juice,"541 Holland Street W, Unit S2, Bradford, Ontario, L3Z 0C1",(905) 778-0950,44.10745,-79.59755
Booster Juice,"7899 McLaughlin Road, Brampton, Ontario, L6V 1G6",905-845-9430 ext 205,43.656054,-79.739344
Booster Juice,"11755 Bramalea Road, Brampton, Ontario, L6R 3S9",905-458-2471,43.771382,-79.77813
Booster Juice,"25 Peel Centre Drive, Unit #311 Bramalea City Centre, Brampton, Ontario, L6T3R5",(905) 230-6111,43.715263,-79.72378
Booster Juice,"Unit No. 113 Brampton Corners , 50 - 74 Quarry Edge Drive, Brampton, Ontario, L6V 4K2",905-499-9946,43.70694184,-79.78485335
Booster Juice,"9525 Mississauga Road, Unit 6, Brampton, Ontario, L6X0Z8",(905) 457-9500,43.65842519,-79.81650121
Booster Juice,"17 Ray Lawson Blvd., Unit #5, Brampton, Ontario, L6Y 5L8",(905) 497-3771,43.6579165,-79.72384239
Booster Juice,"9055 Airport Road, Unit #2, Brampton, Ontario, L6S 0B8",905-791-4011,43.7452389,-79.6994547
Booster Juice,"1212 18th Street, Unit #2 , Brandon, Manitoba, R7A 5C3",(204) 727-8908,49.83034136,-99.96230065
Booster Juice,"175 Lynden Road, Unit A2, Brantford, Ontario, N3R 8A7",519-304-8477,43.1743,-80.2339
Booster Juice,"300 King George Road, Unit J2, Brantford, Ontario, N3R 5L8",519-753-0577,43.18174284,-80.28074603
Booster Juice,"2539 Parkedale Ave, Suite D, Brockville, Ontario, K6V 3H2",(613) 345-6555,44.601177,-75.702774
Booster Juice,"3600 Dundas Street, Unit #104 (Headon Forest), Burlington, Ontario, L7M 4B8",(905) 332-6100,43.39136583,-79.82347989
Booster Juice,"3700 Willingdon Ave, Unit SE#14, Burnaby, British Columbia, V5G 3H2",604-432-8983,49.250741,-123.001449
Booster Juice,"4820 Kingsway Ave., Unit M151, Burnaby, British Columbia, V5H4J2",(604) 432-6666,49.22570152,-122.9972534
Booster Juice,"11674 Sarcee Trail NW, Unit #200 (Beacon Hill), Calgary, Alberta, T3R0A1",(403) 233-0141,51.15701874,-114.1595313
Booster Juice,"3630 Brentwood Road NW, Unit 328, Calgary, Alberta, T2L 1K8",(403) 455-9399,51.08541359,-114.1256095
Booster Juice,"280 - 520 - 3rd Avenue SW, Calgary, Alberta, T2P0R3",587 351-6558,51.05100419,-114.0721942
Booster Juice,"130 Country Village Rd NE, Unit #635 Coventry Hills, Calgary, Alberta, T3K 6B8",(403) 226-5330,51.160885,-114.065186
Booster Juice,"20 Crowfoot Crescent NW, Unit #430, Calgary, Alberta, T3G 2P6",(403) 241-9505,51.12576068,-114.1985451
Booster Juice,"1221 Canyon Meadows Drive SE, Unit 206, Calgary, Alberta, T2J 6G2",(403) 265-2113,50.93072048,-114.0279367
Booster Juice,"971 - 64th Avenue N.E., Unit #131, Calgary, Alberta, T2E 7P4",587-755-8878,51.11003032,-114.0400621
Booster Juice,"409 East Hills Blvd. SE, Unit #627, Calgary, Alberta, T2A 4X7",587-470-1772,51.03911,-113.909325
Booster Juice,"333 Shawville Bvld. S.E, Calgary, Alberta, T2Y 4H3",403-608-2184,50.89717706,-114.0633176
Booster Juice,"3542 Garrison Gate SW, Calgary, Alberta, T2T 6N1",(403) 240-3289,51.02274746,-114.1140276
Booster Juice,"1600 - 90 Ave SW, Unit #D172, Calgary, Alberta, T2V 5A8",(403) 252-1333,50.97319801,-114.0984248
Booster Juice,"4825 Mount Royal Gate SW, Room #Z124, Calgary, Alberta, T3E 6K6",(403) 474-4990,51.0138338,-114.1326961
Booster Juice,"CRU 2A, Calgary, Alberta,",,0,0
Booster Juice,"275 Shawville Blvd. SE, Unit 23, Calgary, Alberta, T2Y 3H9",(403) 265-1006,50.90149363,-114.0678996
Booster Juice,"4703 - 130 Avenue SE, Unit #15, Calgary, Alberta, T2Z 4J2",(403) 726-0483,50.93090996,-113.9678921
Booster Juice,"300 - 5th Avenue SW, Unit 210, Calgary, Alberta, T2P 3C4",403-699-8844,51.048725,-114.06834
Booster Juice,"2525 - 36th Street NE, Unit 115B, Calgary, Alberta, T1Y 5T4",(403) 800-8282,51.07410039,-113.9861208
Booster Juice,"3221 Sunridge Way NE, Unit #110, Calgary, Alberta, T1Y 7M4",(403) 291-2175,51.06898542,-113.9924885
Booster Juice,"131 Stewart Green SW, Calgary, Alberta, T3H 3C8",(403) 685-4745,51.01691983,-114.1690957
Booster Juice,"10816 MacLeod Trail SE, Unit #516 (Willow Park), Calgary, Alberta, T2J5N8",(403) 265-5562,50.95695237,-114.0708495
Booster Juice,"355 Hespeler Road, Cambridge Centre Unit K107, Cambridge, Ontario, N1R 6B3",5196248371,43.3931,-80.3197
Booster Juice,"970 Franklin Boulevard, Unit 3A, Cambridge, Ontario, N1R 8R3",226-566-9829,43.392778,-80.302686
Booster Juice,"465 Merecroft Road, Unit E1A, Campbell River, British Columbia, V9W 6K6",250-914-3663,49.99938,-125.2471
Booster Juice,"6800 - 48 Ave, Unit #170, Camrose, Alberta, T4V 4T1",(780) 672-0065,53.01847426,-112.8632147
Booster Juice,"1125, Colonel By Dr, Ottawa, Ontario, K1S 5B6",613-520-2600;4496,45.384374,-75.698305
Booster Juice,"670 University Avenue, Charlottetown, Prince Edward Island, C1E 1H6",902-367-2824,46.264499,-63.145322
Booster Juice,"8249 Eagle Landing Parkway, Unit 316, Chilliwack, British Columbia, V2R 0P9",(604)701 6638,49.15271521,-121.9788301
Booster Juice,"6014 Vedder Rd, Unit 8A (Vedder Crossing), Chilliwack, British Columbia, V2R5M4",(604) 858-5531,49.11194035,-121.9570169
Booster Juice,"76 Manitoba Drive, Suite E, Clarenville, Newfoundland, A5A 1K6",(709) 466-2204,48.16279794,-53.98249409
Booster Juice,"#40, 80 Bow Street, Unit #40, Cochrane, Alberta, T4C 0T4",403-851-9250,51.18587758,-114.4672484
Booster Juice,"7825 51 Street, Cold Lake, Alberta, T9M 0B6",780-594-8115,54.4426,-110.20699
Booster Juice,"2929 Barnet Highway, Unit 1120, Coquitlam Center, Coquitlam, British Columbia, V3B 5R5",(604) 942-1865,49.27898838,-122.7987424
Booster Juice,"3195 Cliffe Avenue, Courtenay, British Columbia, V9N2L9",(250) 871-3786,49.66830499,-124.9779768
Booster Juice,"2100 J. Willowbrook Drive, Cranbrook, British Columbia, V1C7H2",(250) 489-3977,49.53125676,-115.7487152
Booster Juice,"6136 University Ave, Student Union Building, Halifax, Nova Scotia, B3H 4J2",902-494-2126,44.636758,-63.588961
Booster Juice,"1381 Danforth Avenue, Toronto, Ontario, M4J 1N2",416-461-6068,43.6822,-79.328
Booster Juice,"135 McClure Close, Dartmouth, Nova Scotia, B3B 0E4",902-481-2192,44.703016,-63.563299
Booster Juice,"10200 8th St, Dawson Creek, British Columbia, V1G 2E9",1-250-782-7339,55.7572422199999,-120.2285172
Booster Juice,"5150 Ladner trunk road , Delta, British Columbia, V4K1W3",(604) 946-9662,49.090152,-123.06398
Booster Juice,"7291 120 Street, Unit #A001291 (Scott 72 Shopping Centre), Delta, British Columbia, V4C 6P5",(604) 597-6400,49.13537287,-122.8914461
Booster Juice,"Unit #102 435 Trunk Road, Duncan, British Columbia, V9L 2P4",250-597-0405,48.777256,-123.700263
Booster Juice,"Student Centre, 2000 Simcoe Street N, Oshawa, Ontario, L1H 7K4",905-721-2000,43.9458,-78.8946
Booster Juice,"18265 Yonge Street, Unit 2, Building B5, East Gwillimbury, Ontario, L9N 0A2",(905) 235-5582,44.07350057,-79.48391633
Booster Juice,"2328 46th Avenue East (Edmonton International Airport) Edmonton, AB , Edmonton, Alberta, T9E 1K2",587-334-7440 ,53.32376,-113.57022
Booster Juice,"6823 - 177 Street, Edmonton, Alberta, T5T4K3",(780) 705-7791,53.50337194,-113.6254774
Booster Juice,"8623 - 112 Street, Edmonton, Alberta, T6G1K8",(780) 988-7824,53.52261078,-113.5205659
Booster Juice,"10088-102 Avenue, City Centre Mall East - Suite 131, Edmonton, Alberta, T5J2Y1",(780) 420-1666,53.54360283,-113.4926843
Booster Juice,"75 Street and 68 Avenue, CRU #4, Edmonton, Alberta,",,0,0
Booster Juice,"10111 104th Ave, D202C, Edmonton, Alberta, T5J 0J4",780-756-1660,53.54568,-113.494681
Booster Juice,"CRU 8, Post Security, P.O. Box 9860, Edmonton, Alberta, T9E 0V3",(780) 231-8172,53.30736827,-113.5847472
Booster Juice,"1000 Airport Rd, Edmonton, Alberta, T9E 0V3",780-851-2509,0,0
Booster Juice,"109 Street & Kingsway, Unit #K566, Edmonton, Alberta, T5G 3A6",780-706-6977 cell,53.5628696,-113.504238
Booster Juice,"137 Avenue , Unit 286 Londonderry Mall (upper level), Edmonton, Alberta, T5C 3C8",(780) 669-4181,53.60235266,-113.445365
Booster Juice,"10700 - 104 Ave NW, Kiosk #1 MacEwan University, Edmonton, Alberta, T5J 4S2",(780) 440-6770,53.54690435,-113.5036045
Booster Juice,"192 Manning Crossing Shopping Centre, Edmonton, Alberta, T5A 5A1",(780) 406-5797,53.60023072,-113.4248918
Booster Juice,"156th St & 87th Ave, Meadowlark, Edmonton, Alberta, T5R 5W9",(780) 444-4929,53.520374,-113.59292
Booster Juice,"6136 - 28 Ave, Edmonton, Alberta, T6L 6N4",(780) 490-7036,53.45933045,-113.4280223
Booster Juice,"11762 - 106 street, HP Centre, Edmonton, Alberta, T5G 2R1",780-471-8549,53.56772522,-113.5021599
Booster Juice,"15751 - 97 Street, Edmonton, Alberta, T5X 0C7",(780) 371-1830,53.61868109,-113.4894565
Booster Juice,"10108 - 109 Street, Edmonton, Alberta, T5J 1M7",(780) 424-9090,53.54142,-113.5087
Booster Juice,"516 Riverbend Square, Edmonton, Alberta, T6R2E3",(780) 988-2121,53.46845,-113.58674
Booster Juice,"10372 - 78 Avenue, Edmonton, Alberta, T6E6T2",(780) 706-6977 cell,53.514336,-113.49702
Booster Juice,"1707 - 102 Street NW, South Edmonton Common, Edmonton, Alberta, T6N 0B1",(780) 469-1305,53.44515718,-113.4892516
Booster Juice,"3912 Gateway Blvd., Edmonton, Alberta, T6J 7A9",(780) 437-7500,53.47403036,-113.4931677
Booster Juice,"8882 - 170 Street, Suite #1367, Edmonton, Alberta, T5T4M2",(780)443-0709,53.52272644,-113.6271709
Booster Juice,"13543 St. Albert Trail, Edmonton, Alberta, T5L4P3",(780) 488-8012,53.59717664,-113.5707344
Booster Juice,"10775 Leslie St #A404A, Richmond Hill, Ontario, L4S 0B2",905-770-4333,43.90005,-79.39465
Booster Juice,"21 Colonel Samuel Smith Park Drive, Etobicoke, Ontario, M8V 4B6",416 671 9030,43.59603476,-79.51515423
Booster Juice,"125 The Queensway, Unit B1, Etobicoke, Ontario, M8Y 1H6",416-428-6462,43.6299261253003,-79.4819958967828
Booster Juice,"265 Wincott Drive, Unit 2A, Etobicoke, Ontario, M9R 2R7",(416) 907-9505,43.67952707,-79.54477308
Booster Juice,"1675 Tenth Line Road, Unit #16, Orleans, Ontario, K1E 3P6",(613) 834-3083,45.46927497,-75.49182454
Booster Juice,"892 Tower Street South, 890B, Fergus, Ontario, N1M 3N7",(226) 383-8900,43.70253,-80.376274
Booster Juice,"9521 Franklin Ave, Unit #150, Fort McMurray, Alberta, T9H 3Z7",(780) 791-4140,56.72275938,-111.3724932
Booster Juice,"347 Powder Drive, Unit #130 (Timberlea), Fort McMurray, Alberta, T9K0M3",(780) 790-9500,56.75723,-111.45623
Booster Juice,"8700 - 84 Street, Fort Saskatchewan, Alberta, T8L 4P5",(780) 992-3145,53.683735,-113.235306
Booster Juice,"9119 - 96 A Street, Unit #1, Fort St John, British Columbia, V1J 6X6",(250) 785-5849,56.23752569,-120.8397201
Booster Juice,"1381 Regent Street, Unit #I020 (Regent Mall), Fredericton, New Brunswick, E3C 1A2",(506) 447-0389,45.93519794,-66.66360228
Booster Juice,"643 Boul. St-Rene Ouest., Unit 130, Gatineau, Quebec, J8T 8M4",(819) 561-1683,45.49086188,-75.67685059
Booster Juice,"210 Guelph Street, Unit 105, Georgetown, Ontario, L7G 4A9",289-499-2488,43.64998404,-79.90557994
Booster Juice,"10661 - 108A Street, Unit #101, Grande Prairie, Alberta, T8V 7X5",(780) 532-5200,55.17665291,-118.8218979
Booster Juice,"6815 Kateri Drive, Unit #102 (Mission Estates), Grande Prairie, Alberta, T8W0H1",(780) 357-9660,55.142143,-118.80053
Booster Juice,"11510 Westgate Drive, 103, Grande Prairie, Alberta, T8V 4E9",780-539-7700,55.171,-118.835966
Booster Juice,"42 St Andrews Avenue, Unit 2, Grimsby, Ontario, L3M 3S2",905-309-7864,43.1967,-79.5684
Booster Juice,"105 Clair Road East, Unit 5, Guelph, Ontario, N1L 1G6",519.341.3522,43.4995248,-80.18736171
Booster Juice,"Unit #P24A - Stone Road Mall, 435 Stone Road West, Guelph, Ontario, N1G 2X6",(519) 515-0005,43.51826864,-80.23920823
Booster Juice,"50 Stone Rd. E., University of Guelph Campus, Bldg 158, unit #22, Centre 6 Food Court, Guelph, Ontario, N1G 2W1",(519)824-4120,43.53062623,-80.22636584
Booster Juice,"278 Lacewood Drive, Halifax, Nova Scotia, B3M3N8",(902) 457-3326,44.66102468,-63.6557241
Booster Juice,"1 Bell Boulevard, Enfield, Nova Scotia, B2T 1K2",(902) 873-6527,44.88720819,-63.51491603
Booster Juice,"6140 Young Street, Unit 60, Halifax, Nova Scotia, B3K 0G2",902-484-3508,44.657471,-63.604338
Booster Juice,"Suite K006 Scotia Square, 5201 Duke Street, Halifax, Nova Scotia, B3J 1N9",(902) 422-2369,44.65008937,-63.5762395
Booster Juice,"1685 Main Street West, Unit #125, Hamilton, Ontario, L8S 1G5",905-527-6760,43.25663,-79.934447
Booster Juice,"2 King Street West, Unit #237, Hamilton, Ontario, L8P 1A2",(905) 523-0303,43.25710593,-79.86931026
Booster Juice,"999 Upper Wentworth Street, Unit 0223B Limeridge Mall, Hamilton, Ontario, L9A4X5",(905) 538-6510,43.21781723,-79.86156031
Booster Juice,"1280 Main Street, Hamilton, Ontario, L8S 4K1",905-525-9140 x24240,43.26341979,-79.91754108
Booster Juice,"1280 Main Street W, BYMAC Athletic Building, Hamilton, Ontario, L8S 4E8",905-525-9140 x24240,43.26513109,-79.91647897
Booster Juice,"E-Café/Booster Juice – Engineering Technology Building, 1280 Main St W, Hamilton, Ontario, L8S 4K1",905-525-9140 x24240,43.257931,-79.917068
Booster Juice,"135 Fennell Avenue W., Hamilton, Ontario, L9C 1E9",(905) 575-2265,43.23858634,-79.88859134
Booster Juice,"1400 Upper James Street, Unit #19, Hamilton, Ontario, L9B 1K3",289-755-3577,43.21025742,-79.89059822
Booster Juice,"590 Old Hope Princeton Way, Hope, British Columbia, V0X 1L4",604-869-2057,49.37571,-121.42933
Booster Juice,"205 Humber College Blvd., Concession Area C111A, Toronto, Ontario, M9W 5L7",(905) 751-7994,43.728996,-79.608215
Booster Juice,"1320 TCH West, Unit #Z002B, Kamloops, British Columbia, V1S 1J2",(250) 374-7721,50.65508937,-120.3714944
Booster Juice,"450 Lansdowne Street, Unit #201 (Lansdowne Village), Kamloops, British Columbia, V2C 1Y3",(250) 828-7113,50.67712102,-120.330825
Booster Juice,"700 Tranquille Road, Unit 46, Kamloops, British Columbia, V2B 3H9",250-376-6440,50.697559,-120.358036
Booster Juice,"1180 Columbia Street West, 105G , Kamloops, British Columbia, V2C 6R6",250-372-5842,50.66425791,-120.3557676
Booster Juice,"1101 Harvey Avenue, Capri Centre, Kelowna, British Columbia, V1V6E8",250-717-1709,49.88320859,-119.476473
Booster Juice,"2271 Harvey Avenue, Suite 410, Kelowna, British Columbia, V1Y 6H2",(250) 717-5257,49.87828332,-119.4402949
Booster Juice,"1612 Powick Road, unit 6, Kelowna, British Columbia, V1X 7G5",12507171700,49.88931,-119.42245
Booster Juice,"238 Dovedale Drive, Building C, Keswick, Ontario, L4P 0H3",905-989-0014,44.221177,-79.445824
Booster Juice,"945 Gardiners Road, Kingston, Ontario, K7M 7H4",613-507-7399,44.2561989,-76.57224374
Booster Juice,"284 Earl Street, Queen's Center, Kingston, Ontario, K7L 2H8",613-533-6000 x78283,44.22841123,-76.49473499
Booster Juice,"235-6 The Boardwalk, Kitchener, Ontario, N2N 0B1",519-576-8000,43.435844,-80.561328
Booster Juice,"655 Fairway Road South, Unit A2-2, Kitchener, Ontario, N2C 1X4",(519) 895-9067,43.41930695,-80.45048916
Booster Juice,"9103 Beaver Hill Road, Unit 7, LacLa Biche, Alberta, T0A 2C1",780 623 6546,54.769047,-111.94855
Booster Juice,"5030 AB-2A, Unit 1, Lacombe, Alberta, T4L 1K5",403-786-9083,52.464397,-113.727482
Booster Juice,"20159 - 88 Avenue, Unit #D101, Thunderbird Mall, Langley, British Columbia, V1M 0A4",(604) 888-2800,49.16601624,-122.6645817
Booster Juice,"700 Lawrence Ave West, 117B, Toronto, Ontario, M6A 3B4",416 785 5959,43.716281,-79.446762
Booster Juice,"288 Erie Street South, Unit C3, Leamington, Ontario, N8H3C5",(519) 324-9999,42.03523,-82.59941
Booster Juice,"5401 Discovery Way, Unit #107 (Leduc Common), Leduc, Alberta, T9E8N4",(780) 980-9308,53.26803738,-113.5659496
Booster Juice,"1007 - 3 Ave North, Lethbridge, Alberta, T1H 6R4",(403) 320-1781,49.70349607,-112.8327304
Booster Juice,"3115 - 26 Avenue North, Unit #50, Lethbridge, Alberta, T1H5P4",(403)330-3639,49.72755662,-112.7967514
Booster Juice,"2412 Fairway Plaza Road South, Lethbridge, Alberta, T1K6Z3",(403) 320-8633,49.66857894,-112.7955073
Booster Juice,"501 - 1st Avenue South, Unit #Z05, Lethbridge, Alberta, T1J 4L9",403-331-0039,49.69809125,-112.8403461
Booster Juice,"550 University Drive West, Unit #7, Lethbridge, Alberta, T1J 4T3",(403) 394-2468,49.69238783,-112.8932457
Booster Juice,"5202 - 12 Street, Unit #5, Lloydminster, Alberta, T9V 0W1",(780) 870-9201,53.25042101,-110.0092719
Booster Juice,"7305 - 44 Street, Lloydminster, Alberta, T9V 2X1",(780) 872-7560,53.27747843,-110.0516667
Booster Juice,"355 Wellington Street, Unit #130 - London Galleria, London, Ontario, N6A3N7",(226)777-7625,42.98318878,-81.24557393
Booster Juice,"1001 Fanshawe College Blvd, London, Ontario, N5Y 5R6",519-452-4430,43.0143663391718,-81.1985104980087
Booster Juice,"1421 Western Road, Recreation Centre, London, Ontario, N6G 4W4",519-661-2111 x85634,43.01353537,-81.2775751
Booster Juice,"1151 Richmond Street, Rm #72, University Community Centre (UCC), U of W ON, London, Ontario, N6A 3K7",(780) 440-6770,43.0085707,-81.27606133
Booster Juice,"671 Wonderland Road N, Unit A5-103, London, Ontario, N6H 0H9",226-667-5818,42.98452608,-81.29281295
Booster Juice,"3074 Wonderland road south, Unit D, London, Ontario, N6L1A6",519-668-7778,42.93616,-81.28073
Booster Juice,"720 Sackville Drive, Unit #117, Lower Sackville, Nova Scotia, B4E 1R8",902-865-6330,44.77143,-63.694753
Booster Juice,"5916 Malden Road, Lasalle, Ontario, N9H 0A4",226-221-8307,42.24632,-83.0598
Booster Juice,"20398 Dewdney Trunk Road, Unit #230 West Gate Centre, Maple Ridge, British Columbia, V2X 3E3",(604) 465-5888,49.22055669,-122.6556746
Booster Juice,"22709 Lougheed Hwy, Unit #580, Maple Ridge, British Columbia, V2X 2V5",6043804665,49.21729681,-122.5916684
Booster Juice,"7700 Markham Road, Unit MB, Markham, Ontario, L3S 4S1",(905) 554-8544,43.85328935,-79.256898090000007
Booster Juice,"9275 Markham Rd, Unit 24B, Markham, Ontario, L6E 1A3",905-554-0150,43.894048,-79.26409
Booster Juice,"8505 Warden Avenue, Markham, Ontario, L3R 0Y8",905-479-0707,43.85678,-79.33347
Booster Juice,"6590 Meadowvale Town Center Circle, unit J03, Mississauga, Ontario, L5N 2B7",905-542-2500,43.581821,-79.760361
Booster Juice,"3215 Dunmore Rd SE, Unit #108, Medicine Hat, Alberta, T1B 2H2",(403) 526-7688,50.008923,-110.64697
Booster Juice,"2000 Division Ave N, Unit 101, Medicine Hat, Alberta, T1C 1X9",(403) 487-4204,50.059746,-110.68718
Booster Juice,"6921 Derry Road, Milton, Ontario, L9T 7H5",905-864-0303,43.49690915,-79.87289151
Booster Juice,"1155 Maple Ave, Unit #2F1, Milton, Ontario, L9T 0A5",(905) 636-1144,43.5382797,-79.87125682
Booster Juice,"32555 London Ave, Unit #314 (Mission Junction), Mission, British Columbia, V2V 6M7",(604) 8261261,49.13070828,-122.318015
Booster Juice,"920 Southdown Road, Unit H6, Mississauga, Ontario, L5J 2Y4",(905) 916-8886,43.50745,-79.6315
Booster Juice,"224 Lakeshore Road W., Unit BB01, Mississauga, Ontario, L5H 1G6",(905) 274-0002,43.54693922,-79.59237855
Booster Juice,"1510 Dundas Street East, Unit 2 (Creekside Crossings), Mississauga, Ontario, L4X 1L4",905-276-7555,43.61116302,-79.57934433
Booster Juice,"5083 Dixie Road, Unit D5, Mississauga, Ontario, L4W 5K1",905-282-9999,43.63724345,-79.62207613
Booster Juice,"80 Courtney Park Drive East, Unit K6, Mississauga, Ontario, L5T 2Y3",905-795-7707,43.63711233,-79.69179949
Booster Juice,"6990 Financial Drive, Unit #3G, Mississauga, Ontario, L5N 8J4",905-567-6727,43.61105046,-79.74926284
Booster Juice,"801 Matheson Blvd. West, Unit #17, Mississauga, Ontario, L5V 2N6",(905) 507-0500,43.60673847,-79.69120329
Booster Juice,"100 City Centre Drive, Unit 1-712A, Mississauga, Ontario, L5B 2C9",416-570-8778,43.59321941,-79.64394918
Booster Juice,"136 Queen Street South, Unit 4, Mississauga, Ontario, L5M 1K8",905-997-8761,43.5829,-79.7161
Booster Juice,"3359 Mississauga Road North, Mississauga, Ontario, L5L1C6",(905)569-4950,43.54839106,-79.66205619
Booster Juice,"3160 Argentia Road, Unit #1, Mississauga, Ontario, L5N 0B1",905-824-5000,43.59294518,-79.78818556
Booster Juice,"3480 Rue Univerity, Montreal, Quebec, H3A 0E9",514-398-4311,45.506167,-73.577642
Booster Juice,"710 Main Street, Unit C, Moose Jaw, Saskatchewan, S6H 3K5",306-692-4292,50.39656653,-105.5352868
Booster Juice,"12 Merchant Drive., Goodlife Fitness Gym, Mount Pearl, Newfoundland, A1N 5J5",(709) 368-7996,47.50043107,-52.80983442
Booster Juice,"2000 Island Hwy North, Unit #160 (Brooks Landing), Nanaimo, British Columbia, V9T 4T7",(250) 585-2678,49.19106,-123.967026
Booster Juice,"6631 Island Hwy North, Woodgrove Mall, Nanaimo, British Columbia, V9T 4T7",(250) 933-2678,49.23617648,-124.0492645
Booster Juice,"50 Marketplace Ave., Unit #4A, Nepean, Ontario, K2J 5G3",1-613-415-7221,45.26982891,-75.74374483
Booster Juice,"800 McBride Boulevard, Unit 26B, New Westminster, British Columbia, V3L 2B8",(778) 397-2006,49.22256199,-122.9143317
Booster Juice,"16640 Yonge Street, Unit #7A, Newmarket, Ontario, L3X 2N8",+1 (905) 853-9595,44.0334,-79.4778
Booster Juice,"17600 Yonge Street, Unit FF19A, Newmarket, Ontario, L3Y 4Z1",(905)235-5593,44.05646695,-79.48423842
Booster Juice,"Rio Amazonas #221 oriente , Col. Del Valle - San Pedro Garza García , Monterrey, Nuevo León, 66220",+52 (81) 8335-0950,25.6600183,-100.363162
Booster Juice,"367 Cundles Road E, Barrie, Ontario, L4M 0G9",(705) 726-1110,44.41515,-79.6792
Booster Juice,"180 Shirreff Ave, #180, North Bay, Ontario, P1B 7K9",705-472-6444,46.332144,-79.464467
Booster Juice,"1277 Lynn Valley Road, Unit #161, North Vancouver, British Columbia, V7J2A1",(604) 980-5778,49.33643,-123.03904
Booster Juice,"333 Brooksbank Avenue, Unit #120, North Vancouver, British Columbia, V7J 3S8",(604) 980-5723,49.30823415,-123.0413438
Booster Juice,"4915 Bathurst Street, Bathurst & Finch, North York, Ontario, M2R1N2",416-224-8118,43.7726,-79.4424
Booster Juice,"1800 Sheppard Avenue East, Unit 2015, North York, Ontario, M2J 5A7",647-748-8987,43.77742786,-79.3449699
Booster Juice,"5700 Yonge Street, North York, Ontario, M2M 4K2",(416) 224-9393,43.78109225,-79.41666875
Booster Juice,"105 The Pond Road, Unit #70, North York, Ontario, M3J 0k9",647-245-5525,43.7687428,-79.5027172
Booster Juice,"808 York Mills Rd, Unit #34A, North York, Ontario, M3B 1X8",(416) 385-2880,43.75376671,-79.35900467
Booster Juice,"3401 Dufferin Street, Unit #FC-02 (Yorkdale Shopping Centre), North York, Ontario, M6A 2T9",(647) 462-6199,43.72634595,-79.45173423
Booster Juice,"230 North Service Road West, Unit P4020-2, Oakville, Ontario, L6M 2Y4",905-845-0078,43.4495,-79.7026
Booster Juice,"330 Dundas Street East, Unit #2, Oakville, Ontario, L6H 6Z9",(905) 257-4261,43.48751447,-79.71861181
Booster Juice,"489 Dundas Street West, Unit # 4, Oakville, Ontario, L6M 1L9",905 257 7040 ,43.465999,-79.74434
Booster Juice,"3513 Wyecroft Road, Unit #H8 (Burloak), Oakville, Ontario, L6L 0B6",(905) 465-3738,43.39569262,-79.74889353
Booster Juice,"243-200 Southridge Drive, Okotoks, Alberta, T1S0B2",(403) 995-9815,50.70694048,-113.9764335
Booster Juice,"502 Riddell Road, Unit #A2 (Westside Market Village), Orangeville, Ontario, L9W5L1",(519) 415-6678,43.90393728,-80.12073484
Booster Juice,"3220 Monarch Drive, Orillia, Ontario, L3V 8A2",705-323-9192,44.60955,-79.4527
Booster Juice,"110 Place d'Orleans Dr, Unit #1263, Orleans, Ontario, K1C 2L9",(613) 845-0061,45.47794567,-75.51501862
Booster Juice,"1393 Harmony Road North, Unit M-3, Oshawa, Ontario, L1K 0Z6",905-571-2815,43.940883,-78.84978
Booster Juice,"202 Ritson Road North, Unit B8, Oshawa, Ontario, L1G 1Z7",905-404-2289,43.905034,-78.858833
Booster Juice,"2670 Simcoe Street N., A6-2, Oshawa, Ontario, L1H 7K4",905-432-1100,0,0
Booster Juice,"160 Elgin Street, Ottawa, Ontario, K1A 1J4",613-668-1447,45.4197,-75.69322
Booster Juice,"1385 Woodroffe Ave, Building E, Ottawa, Ontario, K2G 1V8",(613) 727-4723,45.3501,-75.75631
Booster Juice,"2323 Riverside Drive, Unit #705, Ottawa, Ontario, K1H 8L5",613-667-5986,45.385642,-75.67761818
Booster Juice,"2121 Carling Ave., Unit #54, Ottawa, Ontario, K2A 1H2",(613) 321-0219,45.37274082,-75.77049192
Booster Juice,"1600 Heron Road, unit #8 , Ottawa, Ontario, K1V 2P5",613-260-2314,45.378977,-75.645903
Booster Juice,"324 West Hunt Club Road, Unit E2.4, Ottawa, Ontario, K2E 0B7",613-224-2111,45.33843997,-75.71459406
Booster Juice,"300 Earl Grey Drive, Unit #10A, Kanata, Ontario, K2T 1B8",(613) 270-9877,45.31181813,-75.91575398
Booster Juice,"1460 Merivale Road, Unit 7, Ottawa, Ontario, K2E 5P2",(613) 668-1868,45.3625239,-75.73560531
Booster Juice,"344 Slater Street, Unit 22A, Ottawa, Ontario, K1R 7Y3",613-238-4813,45.41781553,-75.70296767
Booster Juice,"50 Rideau Street, Unit #327A Rideau Centre, Ottawa, Ontario, K1N 9J7",(613) 569-0645,45.42420847,-75.69044355
Booster Juice,"2014 Ogilvie Road, Unit #2, Ottawa, Ontario, K1J 7N9",613-746-1010,45.436741,-75.604299
Booster Juice,"1200 St. Laurent Blvd, Unit Z016, Ottawa, Ontario, K1K 3B8",(613) 842-8511,45.42238639,-75.63795737
Booster Juice,"45 O'Connor Street, Unit #202, Ottawa, Ontario, K1P 1A5",(613) 780-9994,45.42161904,-75.69737448
Booster Juice,"International Airport, Ottawa Post Security , Ottawa, Ontario, K1V 9B4",(613) 248-2069,45.32244845,-75.66709699
Booster Juice,"1150 16 Street E, Unit 200, Owen Sound, Ontario, N4K 1Z3",519 376 2332,44.574,-80.924
Booster Juice,"1425 Topsail Road, Unit #2, Paradise, Newfoundland,",,0,0
Booster Juice,"1890 Bonanza Drive, Suite 108, Park City, Utah, 84068",435-615-0099,40.6612587,-111.4999037
Booster Juice,"2111 Main St., Unit #199 Cherry Lane Shopping Centre, Penticton, British Columbia, V2A 6W6",(250) 492-7136,49.47303366,-119.583745
Booster Juice,"Unit #168 290 Riverside Drive, Penticton, British Columbia, V2A 5Y5",778-622-0506 ,49.45491284,-120.5095269
Booster Juice,"A-06 1091 Chemong Road , Peterborough, Ontario, K9H7R8",705-745-3176,44.3261,-78.3395
Booster Juice,"2460 Brock Road, Unit C-10, Pickering, Ontario,",,0,0
Booster Juice,"650 Kingston Road, Unit 107, Pickering, Ontario, L1V 3N7",905-420-1010 ,43.81758692,-79.11827068
Booster Juice,"400 Capilano Road, Unit #5 (Suter Brook), Port Moody , British Columbia, V3H 0E1",778-355-7300,49.27913282,-122.8289081
Booster Juice,"602 Saskatchewan Avenue West, Unit 2, Portage La Prairie, Manitoba, R1N 0M6",204-692-1111,49.971826,-98.313488
Booster Juice,"216 Cornerstone, 800 - 15 Street East, Prince Albert, Saskatchewan, S6V 8E3",(306) 922-5547,53.201,-105.73173
Booster Juice,"5212 Domano Blvd, Unit #120, Prince George, British Columbia, V2N 4A1",(250) 964-8865,53.86809406,-122.7748907
Booster Juice,"1600 -15th Avenue, Unit #D104 (Parkwood Place), Prince George, British Columbia, V2L3X3",(250) 960-1099,53.91009291,-122.7592267
Booster Juice,"3055 Massey Drive, Unit FC7, Prince George, British Columbia, V2N 2S9",250 596 4550,53.896626,-122.77782
Booster Juice,"454 Reid Street, Quesnel, British Columbia, V2J2M6",(250) 991-0577,52.97986443,-122.4968383
Booster Juice,"6206A - 67 Street, Unit #1- ship to store #341, Red Deer, Alberta, T4P3W2",(403) 314-1410,52.28922527,-113.833924
Booster Juice,"3031 30 Ave, Red Deer, Alberta, T4R 2V7",,0,0
Booster Juice,"5250 - 22 Street, Unit #30A, Red Deer, Alberta, T4R2T4",(403) 309-5088,52.2391803,-113.8164019
Booster Juice,"100-400 Leva Ave , Red Deer, Alberta, T4R 1B9",(403) 358-5522,52.20956814,-113.8168423
Booster Juice,"374 Albert Street, Regina, Saskatchewan, S4R 2N7",306-347-1080,50.39686,-104.61824
Booster Juice,"2102 - 11th Ave, Unit #Z006 (Cornwall Centre), Regina, Saskatchewan, S4P 0J5",(306) 352-4666,50.45119081,-104.6109239
Booster Juice,"3806 Albert Street South, Regina, Saskatchewan, S4S 3R2",306-522-1080,50.418365,-104.618603
Booster Juice,"4621 Gordon Road, Unit B38-5, Regina, Saskatchewan, S4W 0B7",306-779-1080,50.405052,-104.646645
Booster Juice,"2122 Prince of Wales Drive, Regina, Saskatchewan, S4V 3A6",(306) 352-7277,50.44478898,-104.5366616
Booster Juice,"4400 Rochdale Blvd, Regina, Saskatchewan, S4X 4N9",306-352-5666,50.49745727,-104.6434513
Booster Juice,"3007 Gordon Road, Southland Mall, Regina, Saskatchewan, S4S 6H7",306-351-5179 cell,50.40218,-104.62375
Booster Juice,"11666 Steveston Highway, Unit 3150, Richmond, British Columbia, V7A 5J3",(604) 271-6661,49.13204136,-123.0948598
Booster Juice,"1122 NW Garden Valley Blvd, Suite 102, Roseburg, Oregon, 97471",(541) 672-5868,43.23028877,-123.3706317
Booster Juice,"3601-3669 Shelbourne St., Unit #20, Victoria, British Columbia, V8P 4H1",(250) 477-4314,48.45902329,-123.3321832
Booster Juice,"39 King Street, Saint John, New Brunswick,",506-672-5686,0,0
Booster Juice,"519 Westmorland Road, Unit K007, Saint John, New Brunswick, E2J 3W9",506-672-6765,45.30729089,-66.01605562
Booster Juice,"160 Trans Canada Hwy, Unit D, Salmon Arm, British Columbia, V1E 4R2",(250) 804-2810,50.70023009,-119.2823965
Booster Juice,"1380 London Road, Unit #FC8, Sarnia, Ontario, N7S 1P8",226-932-1643,42.98319428,-82.35274781
Booster Juice,"1623 - 8th Street East, Saskatoon, Saskatchewan, S7H 0T2",(306) 652-8445,52.11525913,-106.6314817
Booster Juice,"626 Broadway Ave, Unit 1A, Saskatoon, Saskatchewan, S7N 1A9",(306) 975-2003,52.11974474,-106.6570085
Booster Juice,"501A Nelson Road, University Heights Mall (Erindale), Saskatoon, Saskatchewan, S7S 1P4",(306)979-1296,52.15041921,-106.5686943
Booster Juice,"134 Primrose Drive, Unit #F-01, Saskatoon, Saskatchewan, S7K 5S6",(306) 955-6295,52.168716,-106.6369
Booster Juice,"201 1st Ave South, Unit #E03, Saskatoon, Saskatchewan, S7K1J9",(306) 975-9116,52.12740569,-106.6685319
Booster Juice,"1701 Preston Avenue, 120, Saskatoon, Saskatchewan, S7N4V2",306-249-5556,52.1475636139863,-106.620993935666
Booster Juice,"115 Betts Avenue, Unit 110, Saskatoon, Saskatchewan, S7M 1L2",(306) 651-1317,52.12704932,-106.7592951
Booster Juice,"215 Stonebridge Boulevard, 1A, Saskatoon, Saskatchewan, S7T 0G3",(306) 249-2552,52.084347,-106.64205
Booster Juice,"9 Campus Drive, Arts Buildings, Saskatoon, Saskatchewan, S7N 5A5",306-227-1290,52.13171,-106.63904
Booster Juice,"1900 Eglington Avenue East, Unit #5B, Scarborough, Ontario, M1L 2L9",1 (416) 751-2124,43.72725,-79.2932
Booster Juice,"4525 Kingston Road, Unit #H8, Scarborough, Ontario, M1E2P1",(416) 286-9088,43.77066813,-79.18415042
Booster Juice,"875 Morningside Ave, Toronto, Ontario, M1C 0C7",416-283-1675,43.79016407,-79.19333052
Booster Juice,"300 Borough Drive, Unit #4A, Scarborough, Ontario, M1P 4P5",(647) 748-3005,43.77689726,-79.25815206
Booster Juice,"1265 Military Trail, Scarborough, Ontario, M1C 1A4",(416) 287-8872,43.78376529,-79.18723539
Booster Juice,"Unit 104, 710 Second Line East, Sault Ste Marie, Ontario, P6B 4K3",705-450-5035,46.53876,-84.30764
Booster Juice,"975 Broadmoor Blvd, Unit #72, Sherwood Park, Alberta, T8A 5W9",(780) 449-3181,53.54029847,-113.3233529
Booster Juice,"101 Granada Blvd., Unit #307, Sherwood Park, Alberta, T8A 4W2",(780) 416-1633,53.52885693,-113.2894493
Booster Juice,"993 Fir Street, Unit 18, Sherwood Park, Alberta, T8A 4N5",(780) 467-2144,53.51352676,-113.322668
Booster Juice,"20202 - 66th Ave, Unit #365, Langley, British Columbia, V2Y 1P3",(604) 514-7800,49.12008947,-122.6640433
Booster Juice,"131 Century Crossing Road, Unit 118, Spruce Grove, Alberta, T7X 0C8",780-960-1720,53.54245864,-113.8818876
Booster Juice,"221 Jennifer Heil Way , Bay #2, Spruce Grove, Alberta, T7X 4J5",(780) 960-4770,53.55131151,-113.9364985
Booster Juice,"40230 Glenalder Place, Unit #C-7, Squamish, British Columbia, V8B 0G2",(604) 567-1955,49.73789272,-123.133501
Booster Juice,"2 Hebert Road, Unit #226, St Albert, Alberta, T8N5T8",(780) 460-7711,53.62242202,-113.6061943
Booster Juice,"5 Giroux Crossing, Unit #420, St Albert, Alberta, T8N 6J8",(780) 460-7499,53.65505648,-113.6304419
Booster Juice,"500 Glenridge Avenue, Brock I - Union Station, St Catharines, Ontario, L2S 3A1",(905) 688-5550 x4202,43.11856299,-79.24814438
Booster Juice,"500 Glenridge Avenue, Brock II - General Brock, St Catharines, Ontario, L2S 3A1",(905) 688-5550 x5079,43.11913478,-79.2504779
Booster Juice,"221 Glendale Avenue, Unit CRU #147, St Catharines, Ontario, L2T2K9",647-916-0679 cell,43.13501346,-79.22533326
Booster Juice,"333 Ontario Street, St Catharines, Ontario, L2R5L3",(905) 397-7469,43.1715,-79.2656
Booster Juice,"48 Kenmount Road, Avalon Mall , St Johns, Newfoundland, A1B1W3",(709) 754-1413,47.56107224,-52.75437588
Booster Juice,"50 Hamlyn Road, St Johns, Newfoundland, A1E 5X7",(709) 738-3043,47.53502421,-52.75313206
Booster Juice,"Memorial University of Newfoundland , 323 Prince Philip Dr. UC 3012K Student Centre, St Johns, Newfoundland, A1B 3X8",(709) 726-0303,47.57326008,-52.73520109
Booster Juice,"272 Torbay Road, Unit #210, St Johns, Newfoundland, A1A 3T2",(709) 722-7809,47.603065,-52.71425
Booster Juice,"1025 Talbot Street, St. Thomas, Ontario,",,0,0
Booster Juice,"400 Campbell Road, Servus Credit Union Place, St Albert, Alberta, T8N 0R8",(780) 458-7768,53.644753,-113.5748599
Booster Juice,"8B Brandt Street, Steinbach, Manitoba, R5G 1Y2",(204) 326 9035,49.5293616,-96.6916852
Booster Juice,"5547 Hazeldean Road, Building D2, Unit 1, Stittsville, Ontario, K2S 0P5",343-998-9591,45.28807463,-75.90507921
Booster Juice,"94 Hamilton Regional Road 8, Unit F5, Stoney Creek, Ontario, L8G 1E1",(905) 662-9020,43.22416,-79.74862
Booster Juice,"1791 Stone Church Road East, Unit #4006 (Heritage Greene), Stoney Creek, Ontario, L8J 0B4",(905) 560-9444,43.19354722,-79.81019685
Booster Juice,"1374 South Service Road, Unit 8, Stoney Creek, Ontario, L8E 5C5",9056430208,43.2147,-79.6396
Booster Juice,"5777 Main Street, Unit 5, Stouffville, Ontario, L4A 4R2",905-640-3737,43.9672,-79.2645
Booster Juice,"1060 Ontario Street unit 6A, Stratford, Ontario, N4Z 1A5",519-305-0660,43.3708727,-80.9448797
Booster Juice,"100 Ranch Market, Unit 125F, Strathmore, Alberta, T1P 0A8",(403) 901-0220,51.03886514,-113.3776713
Booster Juice,"1835 Regent Street, #2, Sudbury, Ontario, P3E 3Z7",(705) 522-2444,46.45281,-81.00518
Booster Juice,"1349 Lasalle Blvd., Unit Z031, Sudbury, Ontario, P3A 1Z2",(705) 521-1661,46.52051972,-80.9481695
Booster Juice,"1425 Kingsway Rd, #203B, Sudbury, Ontario, P3B 2E7",705-586-7890,0,0
Booster Juice,"10153 King George Highway, Unit #554 (Central City Mall), Surrey, British Columbia, V3T2W1",(604) 584-8800,49.18703808,-122.8491234
Booster Juice,"18640 Fraser Hwy, Unit #9, Surrey, British Columbia, V3S 7Y4",(604) 575-7741,49.1252678,-122.7058735
Booster Juice,"131 - 12080 Nordel Way, Surrey, British Columbia, V3W 1P6",(778) 565-3312,49.1609604,-122.8880308
Booster Juice,"15161 Highway 10, Unit #107 (Panorama Village), Surrey, British Columbia, V3S 9A5",(604) 576-0056,49.10477867,-122.8025734
Booster Juice,"15355 24th Ave, Unit #110, Surrey, British Columbia, V4A 2H9",(604) 542-8787,49.046097,-122.79846
Booster Juice,"#110 - 16555 Fraser Highway , Surrey, British Columbia, V4N 0E9",778-547-5747,49.15189,-122.7641
Booster Juice,"3715 - 47 Ave, Building E, Unit 435, Sylvan Lake, Alberta, T4S0C8",(403) 887-0187,52.30333053,-114.0760238
Booster Juice,"Terminal 3 - Pier A, Departures, SD22S, Toronto, Ontario, L5P 1B2",905-612-7313,43.685017,-79.61431503
Booster Juice,"1 Promenade Circle, Unit 153, Thornhill, Ontario, L4J 4P8",905-709-2666,43.8068,-79.4524
Booster Juice,"100 Arthur Street W., Thunder Bay, Ontario, P7E 5P6",807-285-0583,48.38049,-89.27894
Booster Juice,"955 Oliver Road, (Inside the Outpost), Thunder Bay, Ontario, P7B 5E1",(807) 285-1777,48.42157,-89.26242
Booster Juice,"619 Memorial Avenue, Unit A, Thunder Bay, Ontario, P7B3Z3",807-285-7722,48.417554,-89.24034
Booster Juice,"2 Queen Street East, Suite #110, Toronto, Ontario, M5C 3G7",(416) 913-4562,43.65265752,-79.37845927
Booster Juice,"20 Dundas Street West, Unit #F07, Toronto, Ontario, M5G 2C2",(416) 598-9494,43.65631796,-79.38276487
Booster Juice,"2296 Bloor Street West, Toronto, Ontario, M6S 3G3",(416)551-4396,43.64980188,-79.4836826
Booster Juice,"210 Princes' Boulevard, Exhibition Place, Toronto, Ontario, M6K3C3",(416) 393-6300,43.63455389,-79.41956344
Booster Juice,"777 Bay Street, M200a, Toronto, Ontario, M5G 2C8",416-212-1040,43.66065,-79.38538
Booster Juice,"#7 12 Richardson Street, Toronto, Ontario, M5A4J9",416-216-0990,0,0
Booster Juice,"2081 Steeles Avenue West, Unit #G3, Toronto, Ontario, M3J3N3",(416) 667-8881,43.78607856,-79.4741828
Booster Juice,"106 Front Street East, Unit 100, Toronto, Ontario, M5A 4K8",1-416-364-1713,43.65,-79.37088
Booster Juice,"200 Elizabeth Street, Kiosk R5 (Toronto General Hospital), Toronto, Ontario, M5G2C4",416-212-2435,43.65865699,-79.38868207
Booster Juice,"345 Bloor Street East, Unit #7, Toronto, Ontario, M4W 3J6",416-928-2772,43.67156553,-79.37858079
Booster Juice,"2 Bloor Street East, Unit #R10, Concourse Level HBC, Toronto, Ontario, M4W1A8",(647) 345-1183,43.67095276,-79.38470067
Booster Juice,"205 Humber College Blvd, Finch Campus, Food Emporium, Toronto, Ontario, M9W5L7",,43.72870157,-79.60798563
Booster Juice,"91 Laird Drive, Unit #1, East York, Ontario, M4G 3T7",(647) 352-5122,43.70617277,-79.36065194
Booster Juice,"128 Atlantic Ave, Unit 128 GF Liberty Village, Toronto, Ontario, M6K1X9",(416) 532-9222,43.63984,-79.42136
Booster Juice,"200 Wellington Street West, Unit #380, Toronto, Ontario, M5V 3C7",(416) 591-2227,43.64610469,-79.38718394
Booster Juice,"5150 Yonge Street, Unit G3, Toronto, Ontario, M2N 6L8",(416) 901-0595,43.76889,-79.4129899
Booster Juice,"Unit #EB2040, Terminal #1, Level #2, Toronto, Ontario, L5P 1B2",905-672-8484,43.68188982,-79.61241046
Booster Juice,"Terminal #1, Pier F, Unit #FD2255 & FC2054, Toronto, Ontario, L5P 1B2",(905) 671-0010,43.68091924,-79.61282708
Booster Juice,"J276, Node C Departures, Toronto, Ontario, L5P 1B2",905-612-7313,43.56198382,-79.62890625
Booster Juice,"40 King Street West, Unit #133, Toronto, Ontario, M5H3Y2",(647) 348-5813,43.64934946,-79.3785563
Booster Juice,"12 St.Clair Ave East, #4 Concourse Level, Toronto, Ontario, M4T 1L7",647-347-6878,43.688691532673,-79.3934134404754
Booster Juice,"90 Weston Road, Unit 105, Toronto, Ontario, M6N 0A6",(416) 767-7677,43.67417568,-79.46990936
Booster Juice,"25 York Street, Unit #A6 , Toronto, Ontario, M5J2V5",(416) 601-2277,43.64322536,-79.3812383
Booster Juice,"361A Old Finch Avenue, Toronto, Ontario, M1B 5K7",(780) 440-6770,43.822437,-79.18475
Booster Juice,"65 Front Street West, CRU #221, Toronto, Ontario, M5J 1E6",416-621-6767,43.645317,-79.38041
Booster Juice,"399 Bathurst Street, Western Hospital, Toronto, Ontario, M5T 2S8",(416) 913-6411,43.65365721,-79.40613631
Booster Juice,"1681 Lakeshore Blvd. East , Toronto, Ontario, M4L 3W6",416 802 9644,43.662757,-79.309838
Booster Juice,"2300 Yonge Street, Unit M16, Mezzanine Level, Toronto, Ontario, M4P 1E4",(416) 487-8600,43.70750538,-79.39889738
Booster Juice,"55 Queen Street South, Unit #7, Tottenham, Ontario, L0G 1W0",,0,0
Booster Juice,"911 Prince Street, Unit #2, Truro, Nova Scotia, B2N 1H6",902-843-2140,45.36644,-63.29264
Booster Juice,"4949 Canoe Pass Way, Unit #1610, Delta, British Columbia, V4M 0B2",604-383-0048,49.040835,-123.087419
Booster Juice,"6138 Student Union Blvd, Vancouver, British Columbia, V6T1Z1",604.742.3226,49.267471,-123.249975
Booster Juice,"W.F Mitchell Athletics Centre, 50 E Ring Rd., Guelph, Ontario, N1G 3B9",519 658 0735,0,0
Booster Juice,"4401 University Drive W, Lethbridge, Alberta, T1K 3M4",403-329-2334,49.67147,-112.86631
Booster Juice,"200 University Avenue, West, Waterloo, Ontario, N2L3G1",519-888-4567,43.471899,-80.545296
Booster Juice,"555 West Hastings Street, Unit #27, Upper Mall Level, Vancouver, British Columbia, V6B 4N6",(604) 428-6808,49.28468,-123.11189
Booster Juice,"3880 Grant McConachie Way, YVR DTB F&B #9, Richmond, British Columbia, V7B 0A4",(604) 273-3774,49.19393501,-123.1811445
Booster Juice,"2430 Commercial Drive, Vancouver, British Columbia, V5N 4B9",(604) 677-4869,49.26288016,-123.0694741
Booster Juice,"3555 Sawmill Crescent, Vancouver, British Columbia, V5S 4R7",(604) 434-1533,49.20618,-123.02851
Booster Juice,"2162 Western Parkway, Unit #106B (UBC Marketplace), Vancouver, British Columbia, V6T 1V6",(604) 568-6603,49.26305,-123.24114
Booster Juice,"8280 HWY #27, Unit B8, Vaughan, Ontario, L4H 0R9",(905) 856-8989,43.7846945,-79.62623038
Booster Juice,"9342 Bathurst Street, Unit #K01003A, Vaughan, Ontario, L6A 4N9",905 417 6050,43.84868043,-79.46098725
Booster Juice,"5100 Rutherford road unit 6, Woodbridge, Ontario, L4H 2J2",905-552-7788,43.817565,-79.602389
Booster Juice,"3621 Major Mackenzie Drive, Unit 1, Vaughan, Ontario, L4H 0A2",905-832-0088,43.84491674,-79.55504988
Booster Juice,"7600 Weston Road, Unit 66, Woodbridge, Ontario, L4L 8B7",(289) 622-1722,43.788635,-79.548449
Booster Juice,"5136 50th Avenue, Vermilion, Alberta, T9X 1B1",780-645-3351,54.3542,-110.858
Booster Juice,"3101 Highway #6, Unit 106, Vernon, British Columbia, V1T 9H6",236-426-4459,50.261692,-119.272519
Booster Juice,"4400 32nd Street, Unit #100 , Vernon, British Columbia, V1T9H2",(250) 542-6070,50.27588767,-119.2753027
Booster Juice,"1150 Douglas Street, Unit #101, Victoria, British Columbia, V8W 3M9",,48.4252,-123.3665
Booster Juice,"1644 Hillside Avenue, #21, Unit FCU #27, Victoria, British Columbia, V8T 2C5",(778) 433-9080,48.44583696,-123.335072
Booster Juice,"2401 C Millstream Rd, Unit #145 (Millstream Village), Victoria, British Columbia, V9B3R5",250-474-3862,48.46173241,-123.4953767
Booster Juice,"University Centre, PO Box 1700 STN CSC, Victoria, British Columbia, V8W 2Y2",250-415-1858,48.463907,-123.317203
Booster Juice,"3551 Uptown Blvd., CRU # I-133, Victoria, British Columbia, V8Z 0B9",250-388-0177,48.4556,123.3747
Booster Juice,"176 Wilson Street, Unit #110, Victoria, British Columbia, V9A 7N6",(250) 380-0096,48.43299444,-123.3812899
Booster Juice,"701 Centennial Boulevard, Warman, Saskatchewan, S0K 4S0",(306) 384-0405,52.3274213,-106.5805413
Booster Juice,"80 Dundas Street East, Unit #7, Waterdown, Ontario, L9H 7K6",(905) 689-4395,43.31717721,-79.91102714
Booster Juice,"247 King Street N., Unit #5, Waterloo, Ontario, N2J 2Y8",(519) 772-0213,43.47624589,-80.52544696
Booster Juice,"800 Niagara St. , Unit K5, Welland, Ontario, L3C 5Z4",905-732-7114 ,43.0156,-79.2466
Booster Juice,"3041 Louie Drive, Unit #503 (Governor's Landing), Westbank, British Columbia, V4T 3E2",(250)768-4064,49.83465131,-119.6185753
Booster Juice,"2002 Park Royal South, Unit KO13, West Vancouver, British Columbia, V7T 2W4",(604) 913-6807,49.32542319,-123.1371316
Booster Juice,"4910 55A Street, #102, Wetaskiwin, Alberta, T9A 0T4",780-312-1818,52.970809,-113.389624
Booster Juice,"601-617 Victoria Street West, Unit #103, Whitby, Ontario, L1N0E4",(905)493-3960,43.85897005,-78.94428808
Booster Juice,"80 Thickson Road S., Unit 7, Whitby, Ontario, L1N 7T2",(905) 493-6700,43.883373,-78.91334
Booster Juice,"30 Taunton Road East, Unit 3106, Whitby, Ontario, L1R 0A1",(905) 655-6487,43.91666136,-78.95626785
Booster Juice,"3843 Caxton Street, Mountain Strip Mall, Whitecourt, Alberta, T7S 1N8",780-779-9919,54.12682,-115.665245
Booster Juice,"200 Hamilton Blvd., Whitehorse, Yukon, Y1A 0A6",(867) 393-2723,60.73064,-135.09933
Booster Juice,"3100 Howard Avenue, Devonshire Mall - Unit K11, Windsor, Ontario, N8X 3Y8",(519) 969-4515,42.275262,-83.00136475
Booster Juice,"2000 Talbot Road, Windsor, Ontario, N9A 6S4",15192501647,42.246375,-83.018623
Booster Juice,"7546 Tecumseh Road East, Windsor, Ontario, N8T 1E9",(226) 674-3600,42.31399049,-82.93637447
Booster Juice,"32 University Avenue East, Windsor, Ontario, N9A 2Y4",(519) 962-8327,42.31796669,-83.03846326
Booster Juice,"401 Sunset Avenue, Windsor, Ontario, N9B 3P4",780-440-6770,42.30666649,-83.06615505
Booster Juice,"Unit 103, 155 Cargill Rd, Winkler, Manitoba, R6W1K2",204-3841315,49.18522,-97.93342
Booster Juice,"1441 Ellice Avenue, Brick Plaza, Winnipeg, Manitoba, R3G 0G3",(204) 414-9154,49.89456601,-97.19985399
Booster Juice,"1600 Kenaston Blvd, Unit #200, Winnipeg, Manitoba, R3P 0Y4",204-488-7334,49.82320711,-97.20794662
Booster Juice,"1615 Regent Ave W, Unit 640, Winnipeg, Manitoba, R2C5C6",(204) 415-4330,49.90188,-97.0691
Booster Juice,"1555 Regent Ave W, Unit T07A, Winnipeg, Manitoba, R2C 4J2",204-421-9119,49.899033,-97.060135
Booster Juice,"1379 McPhillips Street, Winnipeg, Manitoba, R2V 3C4",(204) 694-0580,49.9407680182735,-97.1583747865082
Booster Juice,"2425 Pembina Hwy, Unit #1, Winnipeg, Manitoba, R3T 2H4",(204) 809-0827,49.803574,-97.15755
Booster Juice,"584 Pembina Hwy, Unit 20, Winnipeg, Manitoba, R3M 3X7",(204) 421-9300,49.86499658,-97.14659942
Booster Juice,"1439 Henderson Highway, Unit 1C , Winnipeg, Manitoba, R2G 1N3",(204) 338-5444,49.9457429,-97.08359464
Booster Juice,"827 Dakota Street, Unit 1A, Winnipeg, Manitoba, R2M 4Z2",204-504-5544,49.83060748,-97.10600755
Booster Juice,"1225 St Mary's Road, Unit #75B, Winnipeg, Manitoba, R2M 5E5",(204) 255-7004,49.82829,-97.108955
Booster Juice,"360 Main Street, Box #39, Winnipeg, Manitoba, R3C 3Z3",(204) 943-2619,49.89383686,-97.13849974
Booster Juice,"547 Norwich Ave, Unit 2 , Woodstock, Ontario, N4S 7V8",519-539-1121,43.1129369,-80.738999
Booster Juice,"419 Byrne Road, Yellowknife, Northwest Territories , X1A 3G3",(867) 873-3872,62.446022,-114.401982
Booster Juice,"4700 Keele Street, York University Curtis Hall (Ross Building), Toronto, Ontario, M3J 1P3",416-736-2100 x30309,43.77333607,-79.50527648
Booster Juice,"150 Broadway Street, Unit 4, Cross Roads Plaza, Yorkton, Saskatchewan, S3N 3K4",(306) 782-0235,51.20934122,-102.4519177
