name,address,lat,lon
New York Fries,"8882 170 St NW, Edmonton, AB T5T 4M2, Canada",53.5224397,-113.6218712
New York Fries,"101 St & 102 St, Fort Saskatchewan, AB T8L 1T8, Canada",53.705178,-113.208632
New York Fries,"3292 Dunmore Rd SE Unit 206, Medicine Hat, AB T1B 2R4, Canada",50.00394110000001,-110.6472709
New York Fries,"3 St SE, Calgary, AB, Canada",51.0401996,-114.0553348
New York Fries,"1 Outlet Collection Way, Nisku, AB J4W 2S8, Canada",53.3022267,-113.5534179
New York Fries,"100 Anderson Rd SE, Calgary, AB T2J 3V1, Canada",50.9525539,-114.0662572
New York Fries,"11801 100 St, Grande Prairie, AB T8V 3Y2, Canada",55.18794270000001,-118.7920152
New York Fries,"4747 67 St, Red Deer, AB T4N 5V3, Canada",52.2884805,-113.8072121
New York Fries,"501 1 Ave S, Lethbridge, AB T1J 4L9, Canada",49.6987304,-112.8405995
New York Fries,"137 Ave NW & 66 St NW, Edmonton, AB T5C, Canada",53.5997845,-113.4428338
New York Fries,"6455 Macleod Trail SW, Calgary, AB T2H 0K8, Canada",50.9964781,-114.0741403
New York Fries,"9713 Hardin St, Fort McMurray, AB T9H 1L2, Canada",56.7253001,-111.3789122
New York Fries,"1801 Macleod Trail SE Lower Level Big Four Building, Calgary, AB, Canada",NA,NA
New York Fries,"5211 44 St, Lloydminster, AB T9V 0A7, Canada",53.2767557,-110.0126182
New York Fries,"2525 36 St SE, Calgary, AB T2B, Canada",51.030911,-113.9820163
New York Fries,"111 St NW & 51 Ave NW, Edmonton, AB T6H, Canada",53.48816290000001,-113.5171053
New York Fries,"109 Street & Princess Elizabeth Avenue, Edmonton, AB T5G 3H2, Canada",53.565563,-113.505388
New York Fries,"3625 Shaganappi Trail NW, Calgary, AB T3A 0E2, Canada",51.084709,-114.154918
New York Fries,"112 St NW, Edmonton, AB, Canada",53.5514315,-113.5139689
New York Fries,"8882 170 St NW, Edmonton, AB T5T 4M2, Canada",53.5224397,-113.6218712
New York Fries,"2331 66 St NW, Calgary, AB T3B, Canada",51.08744979999999,-114.1868534
New York Fries,"3800 Memorial Dr, Calgary, AB T2A, Canada",51.0577358,-113.9795596
New York Fries,"4900 Molly Banister Dr, Red Deer, AB T4R 1N9, Canada",52.2433592,-113.8102136
New York Fries,"83 St NW & 82 Ave NW, Edmonton, AB T6C, Canada",53.518092,-113.4550604
New York Fries,"261055 Crossiron Blvd, Rocky View County, AB T4A 0G3, Canada",51.2032209,-113.9930715
New York Fries,"2271 Harvey Ave, Kelowna, BC V1Y 6H2, Canada",49.879312,-119.4402135
New York Fries,"6551 Number 3 Rd, Richmond, BC V6Y 2B6, Canada",49.16600529999999,-123.1385914
New York Fries,"3055 Massey Dr, Prince George, BC V2N 2S9, Canada",53.8973582,-122.7774471
New York Fries,"4700 Kingsway, Burnaby, BC V5H 4M2, Canada",49.2283395,-122.9993675
New York Fries,"1644 Hillside Ave, Victoria, BC V8T 2C5, Canada",48.4461325,-123.3358263
New York Fries,"1360 Guildford Town Centre, Surrey, BC V3R 7C1, Canada",49.1890066,-122.8027041
New York Fries,"700 W Georgia St, Vancouver, BC V7Y 1K8, Canada",49.2827092,-123.1188238
New York Fries,"6631 Island Hwy W, Nanaimo H, BC V0R, Canada",49.4252331,-124.6545529
New York Fries,"32900 S Fraser Way, Abbotsford, BC V2S, Canada",49.05092459999999,-122.3123708
New York Fries,"5000 Canoe Pass Way, Tsawwassen, BC V4M 4G9, Canada",49.03788309999999,-123.0853445
New York Fries,"3147 Douglas St, Victoria, BC V8Z 6E3, Canada",48.447513,-123.3718397
New York Fries,"19705 Fraser Hwy, Langley City, BC V3A 7E9, Canada",49.1146628,-122.6741906
New York Fries,"2929 Barnet Hwy, Coquitlam, BC V3B 0G2, Canada",49.2798295,-122.7980735
New York Fries,"1320 West, Trans-Canada Hwy Unit 114B, Kamloops, BC V1S 1J2, Canada",50.6546087,-120.3714133
New York Fries,"1150 Douglas St, Victoria, BC V9A 6X5, Canada",48.4249452,-123.3657121
New York Fries,"2002 Park Royal S, West Vancouver, BC V7T 2W4, Canada",49.3252404,-123.1408636
New York Fries,"555 Sterling Lyon Pkwy, Winnipeg, MB R3P 2T3",NA,NA
New York Fries,"1485 Portage Ave, Winnipeg, MB R3G 0W4, Canada",49.8839366,-97.19881579999999
New York Fries,"1225 St Mary's Rd, Winnipeg, MB R2M 5E5, Canada",49.8292939,-97.11400929999999
New York Fries,"1555 Regent Ave W, Winnipeg, MB R2C 4J2, Canada",49.8986466,-97.0619887
New York Fries,"1570 18th St, Brandon, MB R7A 5C5, Canada",49.8261678,-99.9640658
New York Fries,"477 Paul St, Dieppe, NB E1A 4X5, Canada",46.0969902,-64.7578911
New York Fries,"54 Kenmount Rd, St. John's, NL A1B 1W2, Canada",47.5593614,-52.753607
New York Fries,"21 Micmac Blvd, Dartmouth, NS B3A, Canada",44.68634549999999,-63.5594474
New York Fries,"800 Grand Lake Rd, Sydney, NS B1P, Canada",46.1495707,-60.13761100000001
New York Fries,"7001 Mumford Rd, Halifax, NS B3L 2H8, Canada",44.6493029,-63.618185
New York Fries,"1680 Richmond St, London, ON N6G 2M9, Canada",43.0243382,-81.2814223
New York Fries,"500 Rexdale Blvd, Etobicoke, ON M9W 6K5, Canada",43.7206319,-79.6000253
New York Fries,"1560 Brimley Rd, Scarborough, ON M1P 5B4, Canada",43.7705368,-79.2618063
New York Fries,"289 ON-401, Cambridge, ON N3C 2V4, Canada",43.4329376,-80.2451248
New York Fries,"435 Stone Rd W, Guelph, ON N1G 2X6, Canada",43.5182747,-80.2387533
New York Fries,"221 Glendale Ave, St. Catharines, ON L2T 2K9, Canada",43.1360818,-79.2241032
New York Fries,"509 Bayfield St, Barrie, ON L4M 4Z8, Canada",44.4130869,-79.7080849
New York Fries,"5000 Hwy 7, Markham, ON L3R 4M9, Canada",43.8695391,-79.287043
New York Fries,"800 Niagara St, Welland, ON L3C 1M3, Canada",43.0157009,-79.2471049
New York Fries,"1355 Kingston Rd, Pickering, ON L1V 1B8, Canada",43.8361864,-79.08604150000001
New York Fries,"10 Rideau St, Ottawa, ON K1N 5W8, Canada",45.42545339999999,-75.693118
New York Fries,"1250 S Service Rd, Mississauga, ON L5E 1V4, Canada",43.5930256,-79.5689483
New York Fries,"2211 Northumberland County Rd 28, Campbellcroft, ON L0A 1B0, Canada",43.9718249,-78.2882552
New York Fries,"1200 St Laurent Blvd, Ottawa, ON K1K 3B8, Canada",45.4219466,-75.6387057
New York Fries,"499 Main St S, Brampton, ON L6Y 1N7, Canada",43.6661412,-79.7375339
New York Fries,"424 S Service Rd, Grimsby, ON L3M, Canada",43.2065958,-79.59924319999999
New York Fries,"355 Hespeler Rd, Cambridge, ON N1R 6B3, Canada",43.39375130000001,-80.32104199999999
New York Fries,"17600 Yonge St, Newmarket, ON L3Y 4Z1, Canada",44.056104,-79.4855044
New York Fries,"1000 Fort William Rd, Thunder Bay, ON P7B 2S4, Canada",48.4046542,-89.2436553
New York Fries,"645 Lansdowne St W, Peterborough, ON K9J 7Y5, Canada",44.2839183,-78.3306793
New York Fries,"390 N Front St, Belleville, ON K8P 3C9, Canada",44.189156,-77.3975287
New York Fries,"678 ON-401, Mallorytown, ON K0E 1R0, Canada",44.5055181,-75.83541830000001
New York Fries,"100 Bayshore Dr, Nepean, ON K2B 8C1, Canada",45.3469493,-75.80655809999999
New York Fries,"1800 Sheppard Ave E, North York, ON M2J 5A7, Canada",43.7779901,-79.3440914
New York Fries,"2277 Riverside Dr., Ottawa, ON K1H 7X6, Canada",45.3856281,-75.6774777
New York Fries,"550 King St N, Waterloo, ON N2L 5W6, Canada",43.4964081,-80.52567049999999
New York Fries,"9350 Yonge St, Richmond Hill, ON L4C 5G2, Canada",43.8546701,-79.43698409999999
New York Fries,"2 King St W, Hamilton, ON L8P 1A1, Canada",43.2583547,-79.87091149999999
New York Fries,"5100 Erin Mills Pkwy, Mississauga, ON L5M 4Z5, Canada",43.5586447,-79.7115912
New York Fries,"1105 Wellington Rd, London, ON N6E 1V4, Canada",42.93158649999999,-81.22468870000002
New York Fries,"100 City Centre Dr, Mississauga, ON L5B 2C9, Canada",43.5930784,-79.64249110000002
New York Fries,"1349 Lasalle Blvd, Sudbury, ON P3A 1Z3, Canada",46.5205995,-80.9483066
New York Fries,"75 Centennial Pkwy N, Hamilton, ON L8E 2P2, Canada",43.2308333,-79.7657856
New York Fries,"999 Upper Wentworth St, Hamilton, ON L9A 4X5, Canada",43.2176239,-79.86153329999999
New York Fries,"401225 ON-401, Woodstock, ON N4S 7W8, Canada",43.0665044,-80.79751510000001
New York Fries,"25 The West Mall, Etobicoke, ON M9C 1B8, Canada",43.6116933,-79.557183
New York Fries,"2121 Carling Ave, Ottawa, ON K2A 1H2, Canada",45.3731497,-75.76867940000001
New York Fries,"293 Bay St, Sault Ste. Marie, ON P6A 1X3, Canada",46.5124381,-84.3390775
New York Fries,"240 Leighland Ave, Oakville, ON L6H 3H6, Canada",43.461607,-79.6868686
New York Fries,"419 King St W, Oshawa, ON L1J 2H9, Canada",43.8907422,-78.87987009999999
New York Fries,"1500 Fisher St, North Bay, ON P1B 2H3, Canada",46.3146444,-79.44072469999999
New York Fries,"3401 Dufferin St, North York, ON M6A 2T9, Canada",43.7251083,-79.45280869999999
New York Fries,"1380 London Rd, Sarnia, ON N7S 3Y1, Canada",42.9824949,-82.3523053
New York Fries,"110 Place d'Orléans Dr, Orléans, ON K1E 2L9, Canada",45.4778861,-75.5160089
New York Fries,"777 Guelph Line, Burlington, ON L7R 3N2, Canada",43.3485131,-79.7935979
New York Fries,"260 Yonge St, Toronto, ON M5B 2H1, Canada",43.655583,-79.381312
New York Fries,"1 Promenade Cir, Thornhill, ON L4J 4P8, Canada",43.8064592,-79.45245709999999
New York Fries,"3100 Howard Ave, Windsor, ON N8X 3Y4, Canada",42.2743221,-83.0018047
New York Fries,"1 Bass Pro Mills Dr, Concord, ON L4K 5W4, Canada",43.82544679999999,-79.53842639999999
New York Fries,"84 Lynden Rd, Brantford, ON N3R 6B8, Canada",43.1732186,-80.2392675
New York Fries,"2960 Kingsway Dr, Kitchener, ON N2C 1X1, Canada",43.4243176,-80.438563
New York Fries,"12001 Hwy 400, King City, ON L7B 1A8",NA,NA
New York Fries,"945 Gardiners Rd, Kingston, ON K7M 7H4, Canada",44.2563363,-76.57217100000001
New York Fries,"900 Maple Ave, Burlington, ON L7S 2J8, Canada",43.3244847,-79.8188186
New York Fries,"6400 ON-400, Innisfil, ON L9S 3R7, Canada",44.2459319,-79.67136440000002
New York Fries,"1500 Riverside Dr, Timmins, ON P4R 1A1, Canada",48.4725396,-81.3822168
New York Fries,"25 Peel Centre Dr, Brampton, ON L6T 3R5, Canada",43.7154601,-79.72169819999999
New York Fries,"900 Dufferin St, Toronto, ON M6H 4E7, Canada",43.6574244,-79.4366501
New York Fries,"3003 Boulevard le Carrefour, Laval, QC H7T 1C8, Canada",45.5700323,-73.7497317
New York Fries,"6710 Rue Saint-Jacques, Montréal, QC H4B 1V8, Canada",45.4585105,-73.62621829999999
New York Fries,"2965 Gordon Rd, Regina, SK S4S 6H7, Canada",50.4024646,-104.6231499
New York Fries,"21st St E & 1 Ave S, Saskatoon, SK S7K 0B3, Canada",52.1274565,-106.6662588
New York Fries,"2102 11th Ave, Regina, SK S4P 3Y6, Canada",50.4506685,-104.6105615
New York Fries,"3310 8 St E, Saskatoon, SK S7H 5M3, Canada",52.1142149,-106.6009656
