name,address,phone,lat,lon
Wendy's,"1546 SCOTT ST, OTTAWA, ON, K1Y 4S8",0,45.40395,-75.73265
Wendy's,"535 TERMINAL AVE., OTTAWA, ON, K1G 0Z2",6132320890,45.4146799,-75.6437492
Wendy's,"1950 WALKLEY ROAD, OTTAWA, ON, K1H 1W1",6137390311,45.3826632,-75.6314759
Wendy's,"1511 INNES RD., OTTAWA, ON, K1B 1C5",6138013915,45.4160594,-75.604607
Wendy's,"2456 BANK STREET, OTTAWA, ON, K1A 0A1",6137387980,45.3531588,-75.6465446
Wendy's,"3880 INNES ROAD, OTTAWA, ON, K1W 1K9",6138013975,45.4525946,-75.5107201
Wendy's,"1170 PLACE DORLEANS DR, ORLEANS, ON, K1C 7K3",6138013974,45.4755196,-75.5189922
Wendy's,"3681 STRANDHERD DRIVE, NEPEAN, ON, K2J 4G8",6138439454,45.2711907,-75.7437491
Wendy's,"6 EDGEWATER DRIVE, KANATA, ON, K2L 1V8",6138013914,45.2950535,-75.8939656
Wendy's,"2 STAYE COURT, ARNPRIOR, ON, K7S 3G8",6136238910,45.423162,-76.3705426
Wendy's,"115 DUFFERIN STREET, PERTH, ON, K7H 3A5",6132677172,44.9070205,-76.2700012
Wendy's,"383 STEWART STREET, RENFREW, ON, K7V 1Y8",6134323403,45.479051,-76.6964876
Wendy's,"335 STEWART BLVD, BROCKVILLE, ON, K6V 5X3",6134982227,44.60098,-75.70443
Wendy's,"1230 PEMBROKE STREET WEST, PEMBROKE, ON, K8A 6X8",6138011228,45.8324118,-77.148104
Wendy's,"976 ST CHARLES AVE, VAUDREUIL DORION, PQ, J7V 8P5",4502181008,45.413143,-74.04062
Wendy's,"3361 PETAWAWA BLVD., PETAWAWA, ON, K8H 1X7",6138005151,45.8961518,-77.2792499
Wendy's,"17 WARNE CRESCENT, KINGSTON, ON, K7K 6Z5",6135474546,44.266547,-76.4994563
Wendy's,"3009 ST. CHARLES BOULEVARD, KIRKLAND, PQ, H9H 3B5",5145051547,45.4489908,-73.8548832
Wendy's,"1043 PRINCESS ST., KINGSTON, ON, K7L 1H3",6135490160,44.2436926,-76.5160538
Wendy's,"3600 SOURCES RD., DOLLARD ORMEAUX, PQ, H9B 1Z9",5146836263,45.4871534,-73.8007081
Wendy's,"485 GARDINERS ROAD, KINGSTON, ON, K7M 7W9",6133846885,44.2367938,-76.5681856
Wendy's,"2380 HYMUS BLVD., DORVAL, PQ, H9P 1J9",5145420722,45.4762708,-73.7886281
Wendy's,"900 DESSERTE AUTOROUTE 13 OUEST, LAVAL, PQ, H7X 3S9",4506899989,45.5287531,-73.7879589
Wendy's,"26586 VALENTINE DR., EVANS MILLS, NY, 13637",3158185088,44.04052214,-75.84069946
Wendy's,"251 DANJOU BLVD, CHATEAUGUAY, PQ, J6J 2R4",4502011132,45.3597911,-73.7229988
Wendy's,"122 ST. MARTIN BLVD., LAVAL, PQ, H7M 3Y8",4506694384,45.5804467,-73.7072687
Wendy's,"7340 DECARIE BLVD, MONTREAL, PQ, H4P 2N1",5147316748,45.4943619,-73.6544317
Wendy's,"8699 BOUL. NEWMAN, LASALLE, PQ, H8R 1Y9",5147987451,45.431139,-73.6345548
Wendy's,"5180 DECARIE BLVD., MONTREAL, PQ, H3X 2H9",4383802329,45.4841509,-73.6314355
Wendy's,"21182 SALMON RUN MALL LOOP W., WATERTOWN, NY, 13601",3157859190,43.979424,-75.952208
Wendy's,"419 STATE STREET, WATERTOWN, NY, 13601",3157889694,43.9737322,-75.9043149
Wendy's,"17 AIKENBRACK STREET, NAPANEE, ON, K7R 4C4",6133545532,44.2574081,-76.9614435
Wendy's,"5005 JEAN TALON EST, ST.LEONARD, PQ, H1S 3G6",5147279212,45.5756184,-73.5846778
Wendy's,"7295 DES GALERIES DANJOU, ANJOU, PQ, H1M 2W2",5143553230,45.5975336,-73.5627426
Wendy's,"PLACE PORTOBELLO 7200-7410 TASHEREAU BLVD, BROSSARD, PQ, J4W 1M9",4509238067,45.4610379,-73.4658977
Wendy's,"397 STATE ROUTE 3, PLATTSBURGH, NY, 12901",5185611912,44.6965268,-73.4871089
Wendy's,"350 NORTH FRONT STREET, BELLEVILLE, ON, K8P 3C7",6139679636,44.1868403,-77.3961027
Wendy's,"150 SIDNEY STREET, BELLEVILLE, ON, K8P 5L6",6139620222,44.158933,-77.398789
Wendy's,"177 STATE ROUTE 104, OSWEGO, NY, 13126",3153424177,43.4615615,-76.4831508
Wendy's,"110 PEARL STREET, ESSEX JUNCTION, VT, 05452",8028729099,44.4952177,-73.1226692
Wendy's,"705 ASHBURNHAM DRIVE, PETERBOROUGH, ON, K9L 1P7",7057492835,44.2890982,-78.2973819
Wendy's,"310 S 2ND ST, FULTON, NY, 13069",3155982991,43.3178679,-76.4125594
Wendy's,"1124 CHEMONG ROAD RR, PETERBOROUGH, ON, K9J 6X2",7057457629,44.3276396,-78.3390821
Wendy's,"961 LANSDOWNE ST. W., PETERBOROUGH, ON, K9J 1Z5",7057455253,44.2821441,-78.3426407
Wendy's,"401 ERIE BLVD, ROME, NY, 13440",3153394550,43.2126878,-75.4654446
Wendy's,"801 WILLIAM ST, COBOURG, ON, K9A 3A8",9053737003,43.9688519,-78.1889637
Wendy's,"5701 E. CIRCLE DRIVE, CICERO, NY, 13039",3154581722,43.1501263,-76.1212087
Wendy's,"7925 OSWEGO RD, LIVERPOOL, NY, 13090",3156222231,43.1547266,-76.2281626
Wendy's,"315 ORISKANY BLVD, YORKVILLE, NY, 13495",3157367442,43.1137603,-75.2773141
Wendy's,"3508 BREWERTON RD, SYRACUSE, NY, 13212",3154544702,43.1135762,-76.145677
Wendy's,"175 N. GENESSEE STREET, UTICA, NY, 13502",3157248355,43.1105764,-75.2183984
Wendy's,"131 GENESSEE STREET, ONEIDA, NY, 13421",3153632212,43.0785853,-75.6432348
Wendy's,"8505 SENECA TPKE, NEW HARTFORD, NY, 13413",3157324265,43.0809309,-75.3195773
Wendy's,"3798 JAMES STREET, SYRACUSE, NY, 13206",3154379531,43.0690553,-76.091185
Wendy's,"2100 PARK STREET, SYRACUSE, NY, 13208",3154728727,43.0727345,-76.1674319
Wendy's,"3260 ERIE BLVD. E, SYRACUSE, NY, 13214",3154464279,43.0495803,-76.0721603
Wendy's,"329 KENT STREET WEST, LINDSAY, ON, K9V 2Z7",7058788238,44.3510761,-78.7536934
Wendy's,"5309 W. GENESEE STREET, CAMILLUS, NY, 13031",3152951962,43.040038,-76.2713867
Wendy's,"155 HOWLAND DR, HUNTSVILLE, ON, P1H 2P9",7057896474,45.3437831,-79.224987
Wendy's,"187 WATERFRONT PLAZA, NEWPORT, VT, 05855",8023345717,44.9416423,-72.2051121
Wendy's,"212 GRANT AVE, AUBURN, NY, 13021",3152528818,42.9492517,-76.5469601
Wendy's,"987 RIDGE ROAD, WEBSTER, NY, 14580",5858725635,43.2083881,-77.4592218
Wendy's,"714 UPPER GLEN STREET, QUEENSBURY, NY, 12804",5187923939,43.3277942,-73.6674685
Wendy's,"510 W.UNION ST., NEWARK, NY, 14513",3153315922,43.0459525,-77.1096484
Wendy's,"3825 DEWEY AVE, GREECE, NY, 14616",5856214394,43.2402311,-77.6474015
Wendy's,"140 NORTH COMRIE AVENUE, JOHNSTOWN, NY, 12095",5187622245,43.0117944,-74.3599722
Wendy's,"3190 LATTA RD, ROCHESTER, NY, 14612",5852038591,43.253374,-77.698484
Wendy's,"1175 E. RIDGE RD., IRONDEQUOIT, NY, 14621",5852667523,43.1970807,-77.585602
Wendy's,"980 BOWMANVILLE AVENUE, BOWMANVILLE, ON, L1C 4Y4",9056239981,43.8970169,-78.6916244
Wendy's,"1844 EAST AVENUE, ROCHESTER, NY, 14610",5852445080,43.1455685,-77.5546315
Wendy's,"744 EAST MAIN ST, ROCHESTER, NY, 14605",5852325586,43.1605344,-77.5924726
Wendy's,"683 LAKE AV., ROCHESTER, NY, 14613",5852542860,43.1771133,-77.6313863
Wendy's,"2988 W RIDGE, GREECE, NY, 14626",5852256010,43.2111366,-77.7080342
Wendy's,"305 WEST COMMERCIAL, E.ROCHESTER, NY, 14445",5853854890,43.1148144,-77.4906481
Wendy's,"1889 SCUGOG STREET, PORT PERRY, ON, L9L 1H9",9059853399,44.1017667,-78.9382005
Wendy's,"557 MOSELEY ROAD, PERINTON, NY, 14450",5854257657,43.0718465,-77.443032
Wendy's,"3180 MONROE AVENUE, ROCHESTER, NY, 14618",5853831660,43.1061764,-77.5411458
Wendy's,"1550 MT HOPE AVE, ROCHESTER, NY, 14620",5852713030,43.1199457,-77.619402
Wendy's,"1362 HARMONY ROAD, OSHAWA, ON, L1H 7K5",9054044400,43.9403192,-78.8484116
Wendy's,"101 TOWNE SQUARE, AMSTERDAM, NY, 12010",5188436981,42.9613728,-74.1856665
Wendy's,"1951 BUFFALO RD., ROCHESTER, NY, 14624",5852471792,43.1481929,-77.7054694
Wendy's,"3050 WINTON ROAD, ROCHESTER, NY, 14623",5852920690,43.0941182,-77.5811584
Wendy's,"2640 SIMCOE STREET NORTH, UNIT A10.1, OSHAWA, ON, L1H 7K4",9054323030,43.966683,-78.904341
Wendy's,"24 CONGRESS ST, SARATOGA SPRINGS, NY, 12866",5185830210,43.0782375,-73.7879562
Wendy's,"566 JEFFERSON RD, ROCHESTER, NY, 14623",5852921390,43.0875956,-77.6290914
Wendy's,"7473 VICTOR-PITTSFORD ROAD, VICTOR, NY, 14564",5859248430,43.007806,-77.4448021
Wendy's,"323 KING ST W, OSHAWA, ON, L1J 2J8",9054380001,43.8945843,-78.8752632
Wendy's,"481 HAMILTON STREET, GENEVA, NY, 14456",3157892463,42.8561565,-77.0052458
Wendy's,"4640 LAKE ROAD, BROCKPORT, NY, 14420",5856375220,43.2028815,-77.9417337
Wendy's,"3200 CHILI AVE., ROCHESTER, NY, 14624",5858895046,43.1064897,-77.7485423
Wendy's,"4747 WEST HENRIETTA ROAD, ROCHESTER, NY, 14467",5853343450,43.0582922,-77.6529711
Wendy's,"368 LAKESHORE DRIVE, NORTH BAY, ON, P1A 2C2",7054727240,46.2801874,-79.4458673
Wendy's,"1601 STELLAR DRIVE, WHITBY, ON, L1N 9M1",9054329866,43.8723329,-78.9057264
Wendy's,"4150 BALDWIN ST. SOUTH, WHITBY, ON, L1R 3H8",9056552003,43.9187314,-78.9593089
Wendy's,"545 MEMORIAL AVE., ORILLIA, ON, L3V 7V5",7053255550,44.5866812,-79.4253561
Wendy's,"2 DOUGLAS ROAD, UXBRIDGE, ON, L9P 1S9",3655262012,44.0915852,-79.1321158
Wendy's,"1 PAISLEY CT., WHITBY, ON, L1N 9L2",9056651176,43.8670938,-78.9346853
Wendy's,"975 MCKEOWEN AVENUE, NORTH BAY, ON, P1B 9P2",7054761937,46.3338609,-79.4704831
Wendy's,"10 ELLEN POLIMENI BLVD, CANANDAIGUA, NY, 14424",5853948660,42.8773675,-77.2695239
Wendy's,"274 KINGSTON ROAD E., AJAX, ON, L1S 4S7",9054274555,43.8648273,-79.0127986
Wendy's,"157 CLINTON AVENUE, CORTLAND, NY, 13045",6077533710,42.6081861,-76.1661304
Wendy's,"80 BAYLY STREET WEST, AJAX, ON, L1S 1N9",9054272332,43.8437221,-79.021461
Wendy's,"13 SARATOGA ROAD, GLENVILLE, NY, 12302",5183935442,42.8499488,-73.9434917
Wendy's,"132 ERIE BLVD., SCHENECTADY, NY, 12305",5183743095,42.8121602,-73.9474538
Wendy's,"3 CLIFTON COUNTRY RD, CLIFTON PARK, NY, 12065",5183714700,42.8617575,-73.7814896
Wendy's,"742 KINGSTON ROAD, PICKERING, ON, L1V 1A8",9054219266,43.8210283,-79.1138018
Wendy's,"23600 WOODBINE AVE, KESWICK, ON, L4P 1J7",3655052006,44.2206107,-79.445766
Wendy's,"5892 MAIN ST, STOUFFVILLE, ON, L4A 2S8",9056405567,43.9687197,-79.260013
Wendy's,"1590 ALTAMONT AVENUE, ROTTERDAM, NY, 12303",5183552256,42.7830275,-73.9483309
Wendy's,"1517 ROUTE 9, HALFMOON, NY, 12065",5183838632,42.8408711,-73.7441947
Wendy's,"3421 STATE STREET, SCHENECTADY, NY, 12304",5183460252,42.7738849,-73.8958374
Wendy's,"9970 HIGHWAY 48, MARKHAM, ON, L6E 0E9",9052941880,43.9085872,-79.2684522
Wendy's,"8129 SHEPPARD AVENUE, SCARBOROUGH, ON, M1B 6A3",4162862104,43.8020084,-79.1980797
Wendy's,"1162 TROY-SCHENECTADY ROAD, LATHAM, NY, 12110",5187825488,42.769317,-73.8200901
Wendy's,"1152 DAVIS DRIVE, NEWMARKET, ON, L3Y 7V1",9058530849,44.0661346,-79.4283316
Wendy's,"2908 ELLESMERE ROAD, SCARBOROUGH, ON, M1E 4B8",4162089902,43.7832715,-79.204393
Wendy's,"628 YONGE STREET, BARRIE, ON, L4N 4E6",7057300268,44.3561671,-79.6470214
Wendy's,"258 PLAINFIELD RD, W.LEBANON, NH, 03784",6032987814,43.6276035,-72.3238756
Wendy's,"1770 CENTRAL AVENUE, COLONIE, NY, 12205",5186085565,42.7294078,-73.8469186
Wendy's,"44 MAIN ST, BATAVIA, NY, 14020",5853435858,42.9982641,-78.18569
Wendy's,"6281 STATE HIGHWAY 23, ONEONTA, NY, 13820",6074415006,42.4470678,-75.0507228
Wendy's,"17725 YONGE STREET, NEWMARKET, ON, L3Y 7C1",9058539861,44.060283,-79.4810679
Wendy's,"741 NEW LOUDEN RD., LATHAM, NY, 12110",5187854700,42.742198,-73.7613966
Wendy's,"4228 MIDLAND AVE., SCARBOROUGH, ON, M1V 4S7",4162982224,43.8254384,-79.2977057
Wendy's,"304 WELLINGTON ST EAST, AURORA, ON, L4G 1J5",9058419774,44.0036639,-79.4518419
Wendy's,"6 FAIRVIEW ROAD, BARRIE, ON, L4N 4P3",7057270233,44.3643009,-79.6959615
Wendy's,"4158 LAKEVILLE ROAD, GENESEO, NY, 14454",5852432210,42.7949637,-77.7953924
Wendy's,"450 BRYNE DRIVE, BARRIE, ON, L4N 9R1",7057354143,44.3348948,-79.6909439
Wendy's,"411 DUNLOP STREET WEST, BARRIE, ON, L4N 1C3",7057356470,44.3773865,-79.7155915
Wendy's,"32 BRIDGE STREET, BRADFORD, ON, L3Z 3H2",9057758887,44.1152056,-79.556154
Wendy's,"1335 CENTRAL AVE, ALBANY, NY, 12205",5184594700,42.7024515,-73.8148866
Wendy's,"1 CROSSGATE MALL RD, ALBANY, NY, 12203",5188692956,42.6892039,-73.850387
Wendy's,"8801 WOODBINE AVE, MARKHAM, ON, L3R 5W9",9054794880,43.8566108,-79.3591735
Wendy's,"1460 KENNEDY RD, SCARBOROUGH, ON, M1P 2L7",4167528195,43.7649537,-79.2814784
Wendy's,"7690 WOODBINE AVE, MARKHAM, ON, L3R 1A2",9059449198,43.8307407,-79.3537394
Wendy's,"326 ELMIRA RD, ITHACA, NY, 14850",6072723526,42.4261819,-76.5124288
Wendy's,"1070 MAJOR MACKENZIE DR. E, RICHMOND HILL, ON, L4C 9W4",9058835145,43.8765782,-79.4130126
Wendy's,"2501 VICTORIA PARK AVENUE, SCARBOROUGH, ON, M1T 1A1",4164972622,43.771899,-79.320602
Wendy's,"4 LEBOVIC AVENUE, SCARBOROUGH, ON, M1L 4V9",4167514834,43.7261512,-79.291834
Wendy's,"77 VANDENBURGH AVENUE, TROY, NY, 12180",5182669822,42.6967317,-73.6888931
Wendy's,"26 OVERLEA BLVD., TORONTO, ON, M4H 1A4",4164671600,43.7051165,-79.3505976
Wendy's,"103 VAN RENSSELAER AVENUE, RENSSELAER, NY, 12144",5189773691,42.655246,-73.692667
Wendy's,"5095 YONGE STREET, N.YORK, ON, M2N 6Z4",4162214866,43.7684613,-79.4123771
Wendy's,"261 ROUTE 9W, GLENMONT, NY, 12077",5184328900,42.6120395,-73.7884524
Wendy's,"5737 S. TRANSIT ROAD, LOCKPORT, NY, 14094",7164346439,43.14646,-78.6963697
Wendy's,"1600 LANGSTAFF ROAD, CONCORD, ON, L4K 3S3",9056696163,43.8243521,-79.4802079
Wendy's,"731 EASTERN AVENUE, TORONTO, ON, M4M 3H6",4164659904,43.6595818,-79.3290615
Wendy's,"9151 KEELE STREET, CONCORD, ON, L4K 5B4",9058321257,43.8359779,-79.5071961
Wendy's,"2151 STEELES AVE W, TORONTO, ON, M3J 3N2",4166505512,43.7858509,-79.4750803
Wendy's,"615 DUNDAS STREET EAST, TORONTO, ON, M5A 0C7",4163665626,43.6604034,-79.360629
Wendy's,"9801 JANE STREET, MAPLE, ON, L6A 3N9",9054179754,43.8484864,-79.5357891
Wendy's,"7235 KEELE ST, VAUGHAN, ON, L4K 5W5",9057382277,43.7885738,-79.4958019
Wendy's,"475 YONGE STREET, TORONTO, ON, M4Y 1X7",4169219045,43.6628201,-79.3833792
Wendy's,"612 COLUMBIA TURNPIKE, E.GREENBUSH, NY, 12061",5184777639,42.5973448,-73.708998
Wendy's,"1002 LAWRENCE AVE. W., N.YORK, ON, M6A 1C3",4167832574,43.7129914,-79.4613538
Wendy's,"482 QUEEN STREET WEST, TORONTO, ON, M5V 2B3",4163616355,43.64808,-79.40040001
Wendy's,"19 WESTERN BATTERY RD, TORONTO, ON, M6K 3S4",4165333456,43.6395495015292,-79.411524549801
Wendy's,"4114 HIGHWAY #7, WOODBRIDGE, ON, L4L 1A6",9058500961,43.787274,-79.5600191
Wendy's,"4100 STEELES AVE. WEST, VAUGHAN, ON, L4L 3S8",9052658212,43.76878,-79.5556426
Wendy's,"2277 SHEPPARD AVE WEST UNIT A1, TORONTO, ON, M9M 0G6",4165460756,43.734638,-79.533937
Wendy's,"2013 D LAWRENCE AVE WEST, TORONTO, ON, M9N 0A3",4162351462,43.7008214,-79.5116345
Wendy's,"2575 ST. CLAIR AVENUE WEST, UNIT 1, TORONTO, ON, M6N 4Z5",4167694113,43.667183,-79.491693
Wendy's,"25 WOODSTREAM BLVD, WOODBRIDGE, ON, L4L 7Y8",9052651160,43.7764137,-79.6047021
Wendy's,"157 YOUNG STREET, ALLISTON, ON, L9R 2A9",7054349936,44.1468094,-79.8864814
Wendy's,"2136 KIPLING, ETOBICOKE, ON, M9W 4K5",4167453118,43.7187488,-79.5706067
Wendy's,"1 QUEENSGATE BLVD., BOLTON, ON, L7E 1A1",9058573055,43.869182,-79.721238
Wendy's,"8960 HIGHWAY 50, BRAMPTON, ON, L6P 3A3",9057928719,43.7768277,-79.6545523
Wendy's,"1251 FRONT STREET, BINGHAMTON, NY, 13905",6077230233,42.1573274,-75.89643
Wendy's,"5250 DUNDAS STREET WEST, ETOBICOKE, ON, M9B 1A9",4162348666,43.638372,-79.5389097
Wendy's,"3180 NIAGARA FALLS BLVD, AMHERST, NY, 14228",7167430592,43.040853,-78.8249353
Wendy's,"6940 TRANSIT RD., WILLIAMSVILLE, NY, 14221",7166305982,42.9569309,-78.6975601
Wendy's,"570 KIPLING AVENUE, ETOBICOKE, ON, M8Z 5E7",4162528224,43.6153496,-79.5248335
Wendy's,"7748 ROUTE 53, BATH, NY, 14810",6076225502,42.376873,-77.362272
Wendy's,"3650 DERRY ROAD EAST, MISSISSAUGA, ON, L4T 3V7",9056714901,43.7153488,-79.6284728
Wendy's,"1569 THE QUEENSWAY, ETOBICOKE, ON, M8Z 1T8",4162517991,43.6176661,-79.5395988
Wendy's,"6301 SILVER DART DR, MISSISSAUGA, ON, L5P 1B2",9056718878,43.6858601,-79.6205279
Wendy's,"6585 AIRPORT RD, MISSISSAUGA, ON, L4V 1E5",9056787846,43.6958257,-79.6308773
Wendy's,"5244 MAIN ST., WILLIAMSVILLE, NY, 14221",7166263397,42.9611464,-78.7577315
Wendy's,"4050 MAPLE RD., AMHERST, NY, 14226",7168320855,42.9912712,-78.813048
Wendy's,"6020 PORTER ROAD, NIAGARA FALLS, NY, 14304",7162976088,43.1080794,-78.9945543
Wendy's,"9930 AIRPORT ROAD, BRAMPTON, ON, L6S 0C5",9054587651,43.7605313,-79.7193852
Wendy's,"7515 NIAGARA FALLS BOULEVARD, NIAGARA FALLS, NY, 14304",7162360300,43.087651,-78.9781874
Wendy's,"811 YOUNG ST, TONAWANDA, NY, 14150",7166932578,43.0027184,-78.8559536
Wendy's,"1520 AIMCO BLVD, MISSISSAUGA, ON, L4W 1H7",9056240453,43.6387177,-79.6238332
Wendy's,"2 INDUSTRIAL DRIVE, BINGHAMTON, NY, 13904",6076519035,42.101725,-75.8357517
Wendy's,"170 MAIN STREET, BINGHAMTON, NY, 13905",6077235711,42.1037917,-75.9306966
Wendy's,"1420 MIDWAY BLVD, MISSISSAUGA, ON, L5T 2S4",9055642373,43.6673476,-79.6649147
Wendy's,"4961 TRANSIT ROAD, DEPEW, NY, 14043",7162060003,42.8814473,-78.6962613
Wendy's,"3737 VESTAL PKWY, VESTAL, NY, 13850",6077987474,42.0965062,-75.9809603
Wendy's,"3362 MAIN STREET, BUFFALO, NY, 14214",7168623511,42.9550641,-78.8220817
Wendy's,"217 WASHINGTON AVE, ENDICOTT, NY, 13760",6077546124,42.0992474,-76.0475752
Wendy's,"2520 WALDEN AVENUE, CHEEKTOWAGA, NY, 14225",7162067599,42.907523,-78.755018
Wendy's,"8160 DIXIE ROAD, BRAMPTON, ON, L6T 5N9",9054510680,43.7018928,-79.712051
Wendy's,"533 FIRST STREET, COLLINGWOOD, ON, L9Y 4M3",7054459745,44.5016486,-80.2334078
Wendy's,"170 5TH AVE, OWEGO, NY, 13827",6076876785,42.0984312,-76.2340244
Wendy's,"70 BISCAYNE CRESCENT, BRAMPTON, ON, L6W 4S1",9054593431,43.6818395,-79.7146577
Wendy's,"1685 GRAND ISLAND BLVD, GRAND ISLAND, NY, 14072",7167736330,43.0078549,-78.9486533
Wendy's,"6439 THOROLD STONE RD, NIAGARA FALLS, ON, L2J 1B2",3654470063,43.11553,-79.10332
Wendy's,"495 YORK ROAD, NIAGARA ON LAKE, ON, L0S 1J0",9056411988,43.1602243,-79.1637153
Wendy's,"2230 ELMWOOD AVENUE, BUFFALO, NY, 14216",7168754166,42.9577868,-78.8788882
Wendy's,"44 BRITANNIA RD EAST, MISSISSAUGA, ON, L5K 2R8",9057124312,43.6264643,-79.6788756
Wendy's,"4850 CLIFTON HILL, NIAGARA FALLS, ON, L2E 6S8",9053584789,43.0909119,-79.0742137
Wendy's,"2123 GRAND CENTRAL AVE, HORSEHEADS, NY, 14845",6077969352,42.154651,-76.8218909
Wendy's,"3411 MAVIS ROAD, MISSISSAUGA, ON, L5C 1T7",9052767447,43.574785,-79.6447286
Wendy's,"390 STATE HWY 10, DEPOSIT, NY, 13754",6074674299,42.0557025,-75.4137491
Wendy's,"525 WELLAND AVE LINCOLN MALL ANNEX, ST.CATHARINES, ON, L2M 6P3",9056842717,43.175461,-79.2146464
Wendy's,"830 COUNTY ROAD 64, ELMIRA, NY, 14903",6077960183,42.1541543,-76.879714
Wendy's,"353 MAIN ST NORTH, BRAMPTON, ON, L6X 1N6",9054528915,43.6937577,-79.7712206
Wendy's,"360 DINGENS, BUFFALO, NY, 14206",7168243011,42.8783739,-78.8017479
Wendy's,"505 STEELES AVENUE WEST, BRAMPTON, ON, L6Y 0S6",9054529494,43.6559392,-79.7436348
Wendy's,"885 BRITANNIA ROAD WEST, MISSISSAUGA, ON, L5V 2X8",9058125012,43.6081853,-79.7011308
Wendy's,"345 LAKE STREET, ST.CATHARINES, ON, L2N 4H5",9059346421,43.181795,-79.2520615
Wendy's,"145 HARTZEL ROAD, ST.CATHARINES, ON, L2P 1N6",9057041010,43.1497456,-79.2151024
Wendy's,"8279 LUNDYS LANE, NIAGARA FALLS, ON, L2H 1H5",9053570666,43.089202,-79.1365336
Wendy's,"6948 MCLEOD ROAD, NIAGARA FALLS, ON, L2G 7K3",9053549976,43.069891,-79.1104165
Wendy's,"10041 MCLAUGHLIN ROAD, BRAMPTON, ON, L7A 2X5",9058400476,43.6975568,-79.7986783
Wendy's,"1051 MAIN STREET, BUFFALO, NY, 14209",7168837242,42.9030716,-78.8682532
Wendy's,"1059 PUTNEY ROAD, BRATTLEBORO, VT, 05301",8022589841,42.8829611,-72.5574033
Wendy's,"2021 RIDGE ROAD, W.SENECA, NY, 14224",7166755882,42.8290848,-78.777039
Wendy's,"6966 FINANCIAL DRIVE, MISSISSAUGA, ON, L5N 8J4",9058214538,43.609697,-79.7496755
Wendy's,"2400 DUNDAS ST WEST, MISSISSAUGA, ON, L5K 2R8",9058558953,43.5283872,-79.6749754
Wendy's,"275 FOURTH STREET RR 3, ST.CATHARINES, ON, L2R 6P9",9059881600,43.155972,-79.2671567
Wendy's,"165 GARRISON ROAD, FT.ERIE, ON, L2A 1M6",9058715621,42.9060152,-78.9188061
Wendy's,"5 S BUFFALO ST., CORNING, NY, 14830",6079360106,42.1548943,-77.0788818
Wendy's,"2655 EGLINTON AVE WEST, MISSISSAUGA, ON, L5M 7E1",9058282515,43.5558242,-79.7109879
Wendy's,"2304 ROYAL WINDSOR DRIVE, OAKVILLE, ON, L6J 7Y1",9058459025,43.4893271,-79.6513543
Wendy's,"3275 ORCHARD PARK RD, ORCHARD PARK, NY, 14127",7166776837,42.7957189,-78.7509376
Wendy's,"3513 MCKINLEY PKWY, BUFFALO, NY, 14219",7168262826,42.7890865,-78.8104543
Wendy's,"59 HIGHWAY 11B, NEW LISKEARD, ON, P0J 1P0",7056475414,47.5270814,-79.6736965
Wendy's,"556 HUBBARD AVENUE, PITTSFIELD, MA, 01201",4132426215,42.4686415,-73.1956724
Wendy's,"2355 TRAFALGAR RD, BLDG A1, OAKVILLE, ON, L6H 6N9",9052570071,43.4841213,-79.7136101
Wendy's,"100 FIFTH AVENUE, ORANGEVILLE, ON, L9W 5E8",5199424075,43.9303177,-80.0940199
Wendy's,"329 WINCHESTER ST., KEENE, NH, 03431",6033558405,42.9254134,-72.289692
Wendy's,"1530 NORTH SERVICE ROAD W, OAKVILLE, ON, L6M 4A1",9054653989,43.4262538,-79.7263402
Wendy's,"1753 ELMIRA STREET, SAYRE, PA, 18840",5708829907,41.9738312,-76.5407744
Wendy's,"5121 CAMP ROAD, HAMBURG, NY, 14075",7166495754,42.7483534,-78.8528131
Wendy's,"4711 ONTARIO STREET, BEAMSVILLE, ON, L0R 1B3",9055631452,43.1852552,-79.4765675
Wendy's,"530 NIAGARA ST N, WELLAND, ON, L3C 1L8",9057880930,43.0049963,-79.2524421
Wendy's,"156 LACONIA RD, TILTON, NH, 03276",6032869644,43.4597315,-71.5579113
Wendy's,"80 MARKET DRIVE, MILTON, ON, L9T 3H5",9056930657,43.5224403,-79.9008913
Wendy's,"5051 HARVESTER ROAD, BURLINGTON, ON, L7L 6S1",9056373964,43.3791128,-79.7667705
Wendy's,"1428 LAKE SHORE RD, GILFORD, NH, 03249",6035289666,43.563445,-71.4441645
Wendy's,"2515 APPLEBY LINE, BURLINGTON, ON, L7L 2Y5",9053358655,43.4070868,-79.8044054
Wendy's,"424 SOUTH SERVICE ROAD, GRIMSBY, ON, L3M 4E8",9053096071,43.206343,-79.5981869
Wendy's,"2387 FAIRVIEW RD., BURLINGTON, ON, L7R 2E3",9053331199,43.3455904,-79.8003242
Wendy's,"90 CLARENCE STREET, PORT COLBORNE, ON, L3K 4N0",3654570021,42.885673,-79.2530628
Wendy's,"138 FEDERAL STREET, GREENFIELD, MA, 01301",4134757142,42.5924964,-72.598592
Wendy's,"237 CENTENNIAL PARKWAY N., HAMILTON, ON, L8E 2X3",9055789982,43.2372971,-79.7607972
Wendy's,"145 PLAINS RD. E., BURLINGTON, ON, L7T 2C4",9056344882,43.3104822,-79.8485
Wendy's,"623 QUEENSTON ROAD, HAMILTON, ON, L8K 1J7",9055605310,43.2307996,-79.7756472
Wendy's,"1360 ULSTER AVENUE, KINGSTON, NY, 12401",8453822070,41.970837,-73.9880584
Wendy's,"244 HWY 20 SOUTH, STONEY CREEK, ON, L8J 2V6",9056620462,43.1894804,-79.768823
Wendy's,"963 GOLDEN MILE ROAD, TOWANDA, PA, 18848",5702656329,41.7706425,-76.419105
Wendy's,"1780 STONE CHURCH RD EAST, STONEY CREEK, ON, L8J 0K5",9055737483,43.1917798,-79.8128578
Wendy's,"869 UPPER JAMES STREET, HAMILTON, ON, L9C 3A3",9053889238,43.2268924,-79.8820083
Wendy's,"967 RYMAL ROAD, HAMILTON, ON, L8W 2M2",9053888988,43.1921389,-79.849361
Wendy's,"106 LOUDON ROAD, CONCORD, NH, 03301",6032241951,43.2125727,-71.513887
Wendy's,"1585 MAIN ST W., HAMILTON, ON, L8S 1E6",9055271464,43.2571557,-79.9289797
Wendy's,"1550 UPPER JAMES STREET, HAMILTON, ON, L9B 1K2",9053891787,43.2032459,-79.8941046
Wendy's,"950 TOWER ST, FERGUS, ON, N1M3N7",2263834848,43.69483,-80.3639
Wendy's,"977 GOLF LINKS ROAD, ANCASTER, ON, L9K 1K1",9056487963,43.2275457,-79.9441275
Wendy's,"36 WELLINGTON ST. EAST, GUELPH, ON, N1H 3R8",5198211882,43.5420061,-80.2444075
Wendy's,"292 STONE ROAD, GUELPH, ON, N1G 3C4",2263264878,43.5188446,-80.2342285
Wendy's,"1580 SOUTH MAIN STREET, MANSFIELD, PA, 16933",5706627511,41.7776027,-77.0713449
Wendy's,"415 WOODLAWN ROAD WEST, GUELPH, ON, N1H 7M1",5198210999,43.5449826,-80.3069526
Wendy's,"1411 16TH STREET EAST, OWEN SOUND, ON, N4K 1Z4",5193712979,44.5737857,-80.9209482
Wendy's,"1924 DOVER ROAD, EPSOM, NH, 03234",6037363324,43.228984,-71.3629416
Wendy's,"56 MARKET DR, ATHOL, MA, 01331",9785753600,42.5803384,-72.1831809
Wendy's,"376 RUSSELL STREET, HADLEY, MA, 01035",4135173968,42.3592931,-72.5488374
Wendy's,"1180 HIGHWAY #2 WEST, ANCASTER, ON, L9G 3K9",9056483244,43.1954973,-80.0215893
Wendy's,"1015 THE KINGSWAY, SUDBURY, ON, P3B 2E6",7055252731,46.5000466,-80.9631443
Wendy's,"17-25 PLEASANT ST, MONTICELLO, NY, 12701",8457919373,41.6553368,-74.6820133
Wendy's,"206 QUALITY DR, HOOKSETT, NH, 03106",6036685362,43.0475124,-71.4604264
Wendy's,"289 ARGYLE STREET SOUTH, CALEDONIA, ON, N3W 1K7",9057654368,43.059905,-79.962942
Wendy's,"225 FRANKLIN BLVD., CAMBRIDGE, ON, N1R 8H3",5197401287,43.3551139,-80.2859391
Wendy's,"430 HESPELER RD., CAMBRIDGE, ON, N1R 6J7",5196234700,43.3959349,-80.3247627
Wendy's,"447 N UNION ST, OLEAN, NY, 14760",7163725400,42.083952,-78.4303369
Wendy's,"153 ELM ST, MILFORD, NH, 03055",6036721600,42.8374291,-71.6637202
Wendy's,"1188 TEXAS PALMYRA HWY, HONESDALE, PA, 18431",5702519606,41.5539374,-75.2255747
Wendy's,"722 SECOND ST, MANCHESTER, NH, 03102",6036267081,42.9709453,-71.4775684
Wendy's,"4500 KING STREET EAST, KITCHENER, ON, N2P 2G4",5196500163,43.4058512,-80.3898397
Wendy's,"28 PEARSON BLVD, GARDNER, MA, 01440",9786303490,42.5661117,-71.9782242
Wendy's,"2-6 SOUTH HAMPTON ROAD, WESTFIELD, MA, 01085",4137294566,42.141547,-72.7340245
Wendy's,"860 CANDIA ROAD, MANCHESTER, NH, 03109",6032229074,42.9852203,-71.4124919
Wendy's,"11 SINCLAIR BLVD., BRANTFORD, ON, N3S 7X6",5197535578,43.16931,-80.2151173
Wendy's,"753 MAIN STREET, POUGHKEEPSIE, NY, 12603",8454528124,41.6970232,-73.9043212
Wendy's,"786 MEMORIAL DR., CHICOPEE, MA, 01020",4136120247,42.179239,-72.5777462
Wendy's,"10350 ROUTE 60, FREDONIA, NY, 14063",7166725226,42.450399,-79.3073046
Wendy's,"560 KING STREET NORTH, WATERLOO, ON, N2L 6L3",5197469554,43.4995909,-80.5304653
Wendy's,"221 WEBER STREET, WATERLOO, ON, N2J 3H5",5197462728,43.4769377,-80.5195364
Wendy's,"620 WEST STREET, BRANTFORD, ON, N3R 6M7",5197562414,43.1714041,-80.2483775
Wendy's,"2596 SOUTH ROAD, POUGHKEEPSIE, NY, 12601",8454542906,41.6672036,-73.9291719
Wendy's,"885 VIEWMONT DR., DICKSON CITY, PA, 18519",5705580776,41.4528043,-75.6403293
Wendy's,"631 AMHERST ST, NASHUA, NH, 03063",6035778706,42.803198,-71.5404448
Wendy's,"350 WESTMOUNT RD. WEST, KITCHENER, ON, N2M 5C4",5197453786,43.4406901,-80.5213705
Wendy's,"644 RIVERDALE STREET, W.SPRINGFIELD, MA, 01089",4132766512,42.1236579,-72.6263666
Wendy's,"198 WAKEFIELD ST, ROCHESTER, NH, 03867",6033325975,43.3174152,-70.9771487
Wendy's,"1290 SAINT JAMES AVE, SPRINGFIELD, MA, 01104",4132766442,42.1426349,-72.5748883
Wendy's,"685 FISCHER HALLMAN RD, KITCHENER, ON, N2E 1L7",5197452402,43.4153765,-80.5103579
Wendy's,"1170 ONEILL HIGHWY, DUNMORE, PA, 18512",5703474466,41.4353393,-75.6191305
Wendy's,"78 ICOMM DRIVE, BRANTFORD, ON, N3S 2X5",5197537708,43.1367409,-80.262038
Wendy's,"288 PARK STREET, W.SPRINGFIELD, MA, 01089",4132766426,42.1033052,-72.6245253
Wendy's,"484 CENTER ST, LUDLOW, MA, 01056",4133859074,42.17127,-72.47869
Wendy's,"1340 SPRINGFIELD STREET, FEEDING HILLS, MA, 01030",4132766488,42.0674673,-72.6766916
Wendy's,"944 WYOMING AVENUE, SCRANTON, PA, 18509",5709699009,41.4178494,-75.6544852
Wendy's,"757 BOSTON ROAD, SPRINGFIELD, MA, 01119",4132737780,42.1363778,-72.5193062
Wendy's,"14 GUSABEL AVE, NASHUA, NH, 03063",6035778719,42.7665455,-71.4945976
Wendy's,"56 CRYSTAL AVENUE, DERRY, NH, 03038",6034210284,42.8894789,-71.327409
Wendy's,"528 NORTH MAIN STREET, LEOMINSTER, MA, 01453",9788407415,42.549739,-71.7632212
Wendy's,"36 NASHUA RD, LONDONDERRY, NH, 03053",6034323920,42.8676982,-71.3467283
Wendy's,"1601 ROUTE 9, WAPPINGERS FALLS, NY, 12590",8452980167,41.5980623,-73.9116973
Wendy's,"46 E. HOLLIS STREET, NASHUA, NH, 03060",6035948838,42.7593137,-71.4578232
Wendy's,"1420 ALLEN ST., SPRINGFIELD, MA, 01118",4132737971,42.0948569,-72.5124076
Wendy's,"703 DAVIS STREET, SCRANTON, PA, 18505",5705586690,41.3771395,-75.6915106
Wendy's,"23 COMMERCIAL ROAD, LEOMINSTER, MA, 01453",9785374258,42.5342456,-71.7427222
Wendy's,"95 CALEF HIGHWAY, LEE, NH, 03824",6038681502,43.1499736,-71.0059288
Wendy's,"831 ROOSEVELT TRAIL, WINDHAM, ME, 04062",2078920270,43.8421539,-70.4444491
Wendy's,"1213 THORNDYKE ST, PALMER, MA, 01069",4132842809,42.1737936,-72.322475
Wendy's,"1340 MAIN ST, SANFORD, ME, 04073",2074905975,43.4157663,-70.7488143
Wendy's,"220 DIBBLE STREET, TORRINGTON, CT, 06790",8604821226,41.8209268,-73.0854225
Wendy's,"1417 ROUTE 300, NEWBURGH, NY, 12550",8455660726,41.5209444,-74.0708684
Wendy's,"441 ROUTE 211 E, MIDDLETOWN, NY, 10940",8453424141,41.4560575,-74.3841282
Wendy's,"115 CALEF ROAD, EPPING, NH, 03042",6036792326,43.0333067,-71.0716723
Wendy's,"1 NORTH GALLERIA DR, MIDDLETOWN, NY, 10941",8456735990,41.4526979,-74.3680446
Wendy's,"909 CENTRAL AVE., DOVER, NH, 03820",6037429967,43.220384,-70.88499
Wendy's,"2685 MEMORIAL HIGHWAY, DALLAS, PA, 18612",5706754008,41.3358547,-75.9610507
Wendy's,"86B ELM STREET, ENFIELD, CT, 06082",8602390043,41.9968329,-72.5844491
Wendy's,"172-176 DOLSON AVENUE, MIDDLETOWN, NY, 10940",8453426688,41.4278742,-74.4270381
Wendy's,"25 ELM STREET, FISHKILL, NY, 12524",8458968683,41.5343157,-73.8986692
Wendy's,"133 CENTER ST, AUBURN, ME, 04210",2077824572,44.1074148,-70.2254395
Wendy's,"2 BARNUM RD, AYER, MA, 01432",9787725650,42.5519679,-71.572733
Wendy's,"81 ELLA GRASSO TURNPIKE, WINDSOR LOCKS, CT, 06096",8602546910,41.9201885,-72.6704953
Wendy's,"103 HULST DR, MATAMORAS, PA, 18336",5704912191,41.3537916,-74.7235885
Wendy's,"316 N BROADWAY, SALEM, NH, 03079",6038981996,42.8000788,-71.2397343
Wendy's,"806607 OXFORD RD 29 UNIT #3, DRUMBO, ON, N0J 1G0",5194635088,43.22866,-80.60668
Wendy's,"408 WINDSOR HWY, VAILS GATE, NY, 12584",8455627474,41.4559811,-74.0569396
Wendy's,"45 PROSPECT HILL ROAD, E.WINDSOR, CT, 06088",8606402773,41.9188197,-72.6103419
Wendy's,"154 GODERICH ST., PORT ELGIN, ON, N0H 2C1",2262568402,44.42537,-81.39802
Wendy's,"55 S WYOMING AVE, EDWARDSVILLE, PA, 18704",5702882200,41.2562375,-75.9038734
Wendy's,"1355 E. 2ND ST., JAMESTOWN, NY, 14701",7166656798,42.1135738,-79.2116239
Wendy's,"359 KIDDER ST., WILKES BARRE, PA, 18702",5708261231,41.2496819,-75.8558173
Wendy's,"980 SCHECHTER DR., WILKES BARRE, PA, 18702",5709701952,41.236483,-75.8557711
Wendy's,"1460 MIDDLESEX STREET, LOWELL, MA, 01851",9784586320,42.6376017,-71.3439039
Wendy's,"5 ARLINGTON STREET, DRACUT, MA, 01826",9784522393,42.6688789,-71.3027997
Wendy's,"515 ALFRED ROAD, BIDDEFORD, ME, 04005",2072833426,43.4761971,-70.497982
Wendy's,"78 BROOKSIDE AVE, CHESTER, NY, 10918",8454692182,41.3578481,-74.2839959
Wendy's,"413 NORFOLK STREET N., SIMCOE, ON, N3Y 3P4",5194264800,42.8457219,-80.306612
Wendy's,"486 BROADWAY, METHUEN, MA, 01844",9786827827,42.7395475,-71.1969866
Wendy's,"617 WARREN AVE., PORTLAND, ME, 04103",2072535015,43.6867315,-70.3246734
Wendy's,"20 GRANBY ROAD, BLOOMFIELD, CT, 06002",8606400191,41.816662,-72.7086169
Wendy's,"132 DANBURY RD, NEW MILFORD, CT, 06776",8609150661,41.5557908,-73.4177529
Wendy's,"19 PLAISTOW RD, HAVERHILL, MA, 01830",9783744059,42.8111007,-71.1025232
Wendy's,"436 CHELMSFORD ST, LOWELL, MA, 01851",9784592985,42.6279655,-71.3218644
Wendy's,"528 MAIN STREET, SACO, ME, 04072",2072829921,43.5104368,-70.4341623
Wendy's,"492 LINCOLN STREET, WORCESTER, MA, 01605",5088522120,42.2944118,-71.7765233
Wendy's,"90 PLEASANT VALLEY STREET, METHUEN, MA, 01844",9786899302,42.7423872,-71.1610101
Wendy's,"1465 WOODBURY AVE, PORTSMOUTH, NH, 03801",6034307835,43.0886123,-70.7898957
Wendy's,"240 MAIN MALL ROAD, S.PORTLAND, ME, 04106",2077727656,43.6377945,-70.3341193
Wendy's,"211 CHARLTON ROAD, STURBRIDGE, MA, 01566",5083478702,42.1164469,-72.0658801
Wendy's,"327 EAST FAIRMOUNT AVENUE, LAKEWOOD, NY, 14750",7167630998,42.0995732,-79.3029504
Wendy's,"500 PARK AVENUE, WORCESTER, MA, 01610",5088319910,42.2532379,-71.8279829
Wendy's,"581 ROGERS ST, LOWELL, MA, 01852",9784592994,42.6313193,-71.2841554
Wendy's,"702 SOUTHBRIDGE STREET, WORCESTER, MA, 01610",5087551476,42.2430386,-71.8108889
Wendy's,"1247 FARMINGTON AVENUE, BRISTOL, CT, 06010",8603140777,41.698315,-72.9022855
Wendy's,"55 HAMPSHIRE STREET, LAWRENCE, MA, 01840",9786863555,42.7074884,-71.1651414
Wendy's,"205 US ROUTE 1, SCARBOROUGH, ME, 04074",2078832915,43.592902,-70.330424
Wendy's,"1665 ANDOVER STREET, TEWKSBURY, MA, 01876",9788580400,42.6422667,-71.2396357
Wendy's,"39 S MAIN ST, BRADFORD, MA, 01835",9783726291,42.771914,-71.0761534
Wendy's,"1007 LOYALSOCK AVE, MONTOURSVILLE, PA, 17754",5703683477,41.2614417,-76.9164795
Wendy's,"330 LARKIN DR, MONROE, NY, 10950",8457742747,41.3186909,-74.1464107
Wendy's,"306 PROSPECT AVE., HARTFORD, CT, 06106",8602008505,41.7551133,-72.7144893
Wendy's,"99 WINTHROP AVE, LAWRENCE, MA, 01843",9786820565,42.689072,-71.1487363
Wendy's,"688 SOUTH BRIDGE STREET, AUBURN, MA, 01501",5088329830,42.1843053,-71.8587291
Wendy's,"1175 DUNDAS STREET, WOODSTOCK, ON, N4S 8W3",5195390107,43.135957,-80.722119
Wendy's,"331 SOUTH ROAD, FARMINGTON, CT, 06032",8606060513,41.7265336,-72.7625135
Wendy's,"560 SOUTHWEST CUTOFF, WORCESTER, MA, 01607",5087931601,42.212417,-71.7969739
Wendy's,"312 BOSTON RD, N.BILLERICA, MA, 01862",9786634550,42.571991,-71.2769787
Wendy's,"1894 ROUTE 6, CARMEL, NY, 10512",8452259704,41.4140706,-73.668673
Wendy's,"145 TALCOTTVILLE ROAD, VERNON ROCKVILLE, CT, 06066",8602881439,41.8313713,-72.4948012
Wendy's,"176 BOSTON POST RD WEST, MARLBOROUGH, MA, 01752",5084815366,42.338695,-71.589084
Wendy's,"955 ONTARIO STREET, STRATFORD, ON, N5A 6W5",5192720822,43.3704321,-80.9488414
Wendy's,"171 NEW BRITAIN AVENUE, PLAINVILLE, CT, 06062",8608462003,41.6779904,-72.8447427
Wendy's,"105 BUCKLAND STREET, MANCHESTER, CT, 06042",8606471345,41.7996013,-72.55044
Wendy's,"115 POWDER MILL ROAD, MAYNARD, MA, 01754",9784610444,42.4385459,-71.4348596
Wendy's,"40 NEIDIGS DRIVE, MUNCY, PA, 17756",5705464998,41.2119596,-76.7663696
Wendy's,"570 NORWICH AVENUE, WOODSTOCK, ON, N4V 1C6",5195391337,43.1123837,-80.7372594
Wendy's,"300 TURNPIKE RD, WESTBOROUGH, MA, 01581",5083660081,42.2825225,-71.6471712
Wendy's,"570 LAFAYETTE RD UNIT, SEABROOK, NH, 03874",6034740402,42.891514,-70.8716065
Wendy's,"90 AIRPORT RD, HARTFORD, CT, 06114",8602008652,41.7384984,-72.6670986
Wendy's,"303 MAIN ST., E.HARTFORD, CT, 06118",8602008539,41.7431585,-72.6336933
Wendy's,"111 MAYNARD ST, WILLIAMSPORT, PA, 17701",5703265556,41.2332597,-77.0206752
Wendy's,"262 SPENCER STREET, MANCHESTER, CT, 06040",8606469410,41.7662844,-72.5721833
Wendy's,"1258 POCONO BLVD, MT.POCONO, PA, 18344",5708396664,41.1283399,-75.3616706
Wendy's,"260 BROAD STREET, MANCHESTER, CT, 06040",8609340997,41.7802598,-72.5349386
Wendy's,"167 THOMASTON AVENUE, WATERBURY, CT, 06702",2035759443,41.5611156,-73.0539362
Wendy's,"25 STOREY AVENUE, NEWBURYPORT, MA, 01950",9784621317,42.8216019,-70.9038643
Wendy's,"328 QUEEN STREET, SOUTHINGTON, CT, 06489",8607361162,41.625524,-72.8737789
Wendy's,"264 CIVIC CENTER DR, AUGUSTA, ME, 04330",2076239129,44.3482125,-69.7962901
Wendy's,"2384 BERLIN TNPK., NEWINGTON, CT, 06111",8608016194,41.686489,-72.7071063
Wendy's,"36 FEDERAL ROAD, BROOKFIELD, CT, 06804",2033060851,41.432766,-73.4136739
Wendy's,"910 WOLCOTT STREET, WATERBURY, CT, 06705",2035730163,41.5654883,-73.0078678
Wendy's,"331 HIGHWAY 17, MCKERROW, ON, P0P 1M0",7058691917,46.2866705,-81.7771025
Wendy's,"3009 EAST MAIN ST., CORTLANDT MANOR, NY, 10567",9145289828,41.3064634,-73.8764849
Wendy's,"359 TURNPIKE ROAD, SOUTHBOROUGH, MA, 01772",5084601300,42.2898837,-71.5579918
Wendy's,"15 TOPSHAM FAIR MALL ROAD, TOPSHAM, ME, 04086",2077250974,43.9391459,-69.9769127
Wendy's,"51 WESTERN AVE, AUGUSTA, ME, 04330",2076225328,44.3112494,-69.7857437
Wendy's,"1360 SILAS DEANE HIGHWAY, ROCKY HILL, CT, 06067",8607340392,41.6831548,-72.6536447
Wendy's,"123 E MAIN STREET, WEBSTER, MA, 01570",5089490212,42.0596014,-71.8659197
Wendy's,"1799 MERIDEN-WATERBURY TURNPIKE, SOUTHINGTON, CT, 06489",8607363662,41.56439,-72.90715
Wendy's,"1699 WORCESTER RD, FRAMINGHAM, MA, 01701",5086207360,42.2974498,-71.4839467
Wendy's,"60 PENNSYLVANIA EAST, WARREN, PA, 16365",8147232740,41.8433452,-79.1403539
Wendy's,"112 BURLINGTON MALL ROAD, BURLINGTON, MA, 01803",7812720866,42.4852342,-71.2177053
Wendy's,"52 MAIN STREET, N.READING, MA, 01864",9786643018,42.5698856,-71.1098052
Wendy's,"329 MAIN STREET, WATERVILLE, ME, 04901",2078725021,44.5652061,-69.636663
Wendy's,"555 NORTH HUNTER HIGHWAY, DRUMS, PA, 18222",5707888420,41.0560416,-75.9603427
Wendy's,"180 ROUTE 23, FRANKLIN, NJ, 07416",9738272190,41.1136823,-74.5801433
Wendy's,"2789 ROUTE 611, TANNERSVILLE, PA, 18372",5706201700,41.0432715,-75.3073847
Wendy's,"125 STATE ROUTE 9W, W.HAVERSTRAW, NY, 10993",8457863209,41.2007,-73.9839
Wendy's,"209 WEST STREET, CROMWELL, CT, 06416",8603440495,41.6021946,-72.6801536
Wendy's,"401 SIMCOE STREET, TILLSONBURG, ON, N4G 5V7",5196885183,42.8536913,-80.6937922
Wendy's,"303 W CENTRAL ST, NATICK, MA, 01760",5088720072,42.2816012,-71.3960584
Wendy's,"303 MONTVALE AVE, WOBURN, MA, 01801",7819370821,42.4792504,-71.1207783
Wendy's,"612 N. COURTLAND, E.STROUDSBURG, PA, 18301",5704201700,41.0160392,-75.1823678
Wendy's,"806 MAIN STREET, WALTHAM, MA, 02451",7818992795,42.3760588,-71.2425706
Wendy's,"865 EAST MAIN STREET, MERIDEN, CT, 06450",2038860345,41.5276649,-72.7747719
Wendy's,"950 WASHINGTON STREET, MIDDLETOWN, CT, 06457",8606327350,41.5542784,-72.6846882
Wendy's,"183 CENTRAL AVENUE, BLOOMSBURG, PA, 17815",5707841131,41.0159159,-76.4901514
Wendy's,"1931 NEW BERWICK HWY, BLOOMSBURG, PA, 17815",5707846933,41.009423,-76.421225
Wendy's,"128 CEDAR STREET, MILFORD, MA, 01757",5084785118,42.1620987,-71.5089596
Wendy's,"551 SUSQUEHANNA BLVD, HAZLE TWP, PA, 18202",5704591990,40.9809003,-76.0159285
Wendy's,"1133 N. 9TH STREET, STROUDSBURG, PA, 18360",5704245800,40.9882037,-75.2204061
Wendy's,"160 BANK STREET, SEYMOUR, CT, 06483",2034633963,41.398117,-73.078853
Wendy's,"69 NEWBURY STREET, PEABODY, MA, 01960",9785357505,42.5272193,-70.9936152
Wendy's,"66 PROVIDENCE PIKE, PUTNAM, CT, 06260",8608210264,41.9254462,-71.8765068
Wendy's,"320 ROUTE 59, AIRMONT, NY, 10901",8453698500,41.1114344,-74.0992112
Wendy's,"188 ENDICOTT ST, DANVERS, MA, 01923",9787748995,42.5479196,-70.9429228
Wendy's,"674 N COLONY RD, WALLINGFORD, CT, 06492",2037418126,41.4730158,-72.8153058
Wendy's,"777 BROADWAY, SAUGUS, MA, 01906",3393300001,42.476519593548,-71.0239450712017
Wendy's,"205 BELLEFONTE AVENUE, LOCK HAVEN, PA, 17745",5707489260,41.1358173,-77.4515275
Wendy's,"40 S CHURCH ST, HAZLETON, PA, 18201",5704549658,40.9531639,-75.9783782
Wendy's,"5A NORTHRIDGE DRIVE, N.WINDHAM, CT, 06256",8604569839,41.7403725,-72.1773068
Wendy's,"330 MIDDLESEX AVE., MEDFORD, MA, 02155",6172033014,42.414541,-71.079989
Wendy's,"1358 ROUTE 17 NORTH, RAMSEY, NJ, 07446",2017851079,41.0732327,-74.1411664
Wendy's,"90 EAST ROUTE 59, NANUET, NY, 10954",8456270264,41.0961769,-74.0077445
Wendy's,"3624 PALISADES CENTER DRIVE, W.NYACK, NY, 10994",8457271123,41.0964834,-73.955667
Wendy's,"5 NORTHUMBERLAND ST, DANVILLE, PA, 17821",5702751090,40.964672,-76.6169932
Wendy's,"116 BOSTON ST, LYNN, MA, 01904",7815961030,42.4747024,-70.95759
Wendy's,"1724 REVERE BEACH PARKWAY, EVERETT, MA, 02149",6173949768,42.4016564,-71.0443249
Wendy's,"91 LAFAYETTE ST, SALEM, MA, 01970",9787459545,42.5186416,-70.8929426
Wendy's,"4186 BUFFALO ROAD, ERIE, PA, 16510",8148994611,42.1451686,-80.006376
Wendy's,"377 LYNNWAY, LYNN, MA, 01901",7815989172,42.4573787,-70.9513582
Wendy's,"157-A MASSACHUSETTS AVENUE, BOSTON, MA, 02127",6172361550,42.3464059,-71.0876592
Wendy's,"1001 S. ST. MARYS RD, ST.MARYS, PA, 15857",8147817098,41.4006222,-78.5589516
Wendy's,"2195 DIXWELL AVENUE, HAMDEN, CT, 06514",2038004356,41.3702449,-72.9180461
Wendy's,"551 BOYLSTON STREET, BOSTON, MA, 02116",6172620727,42.3507521,-71.0760064
Wendy's,"19 WANAQUE AVE., POMPTON LAKES, NJ, 07442",9738353711,41.008272,-74.2943253
Wendy's,"728 ROUTE 15 S, LAKE HOPATCONG, NJ, 07849",9736636438,40.9583283,-74.5976159
Wendy's,"71 SUMMER STREET, BOSTON, MA, 02110",6175425719,42.3540981,-71.0589918
Wendy's,"709 NEW HAVEN AVENUE, DERBY, CT, 06418",2039540465,41.3122934,-73.0546658
Wendy's,"635 NORTH DERR DR., LEWISBURG, PA, 17837",5705247040,40.9702456,-76.8934073
Wendy's,"42 FURLONG DRIVE, REVERE, MA, 02151",7812891676,42.3983693,-70.9998498
Wendy's,"33 SAWMILL RIVER ROAD, HAWTHORNE, NY, 10532",9143477619,41.0944996,-73.8149311
Wendy's,"484 BRIDGEPORT AVE, SHELTON, CT, 06484",2039297561,41.2891057,-73.1121308
Wendy's,"1204 ROUTE 23 NORTH, BUTLER, NJ, 07405",9738382300,40.9907416,-74.3371354
Wendy's,"505 WEST CENTRAL STREET, FRANKLIN, MA, 02038",5085203196,42.0899342,-71.4183425
Wendy's,"5902 WATTSBURG ROAD, ERIE, PA, 16509",8148255897,42.0947071,-80.0084022
Wendy's,"160 UNIVERSAL DRIVE NORTH, NORTH HAVEN, CT, 06473",2037728391,41.3534634,-72.8710391
Wendy's,"530 AMERICAN LEGION HIGHWAY, ROSLINDALE, MA, 02131",6179832983,42.2872193,-71.1065795
Wendy's,"348 SOUTH MAIN STREET, COLCHESTER, CT, 06415",8605312237,41.5676397,-72.3266816
Wendy's,"105 E. 12TH ST., ERIE, PA, 16501",8144550640,42.12365,-80.07929
Wendy's,"75 WHALLEY AVE., NEW HAVEN, CT, 06511",2036845885,41.31423,-72.93476
Wendy's,"91 SAW MILL ROAD, ELMSFORD, NY, 10523",9145929888,41.0574529,-73.8176054
Wendy's,"77 EDDIE DOWLING HWY, N.SMITHFIELD, RI, 02896",4017651927,41.9808121,-71.514422
Wendy's,"411 HILLSDALE AVE, HILLSDALE, NJ, 07642",2017829317,41.002186,-74.0415024
Wendy's,"31 GODWIN AVENUE, MIDLAND PARK, NJ, 07432",2016891866,40.9836384,-74.1366669
Wendy's,"15 BOSTON POST ROAD, ORANGE, CT, 06477",2037959570,41.2806172,-72.9848613
Wendy's,"3 ROUTE 303, TAPPAN, NY, 10983",8453595633,41.0165011,-73.9443518
Wendy's,"50 INTERNATIONAL DRIVE SOUTH, FLANDERS, NJ, 07836",9734489500,40.8863083,-74.7087521
Wendy's,"637 HAMBURG TURNPIKE, WAYNE, NJ, 07470",9737909637,40.9556712,-74.2210723
Wendy's,"6696 SULLIVAN TRAIL, WIND GAP, PA, 18091",6108636188,40.8347372,-75.2966921
Wendy's,"1412 BOSTON PROVIDENCE TURNPIKE, NORWOOD, MA, 02062",7817690146,42.163187,-71.198596
Wendy's,"307 BAYFIELD RD, GODERICH, ON, N7A 3G8",5196122699,43.7325381,-81.7053707
Wendy's,"990 BLAKESLEE BLVD, LEHIGHTON, PA, 18235",6103773006,40.821566,-75.720337
Wendy's,"67 NEW CANAAN AVE, NORWALK, CT, 06850",2038462644,41.1263312,-73.4303519
Wendy's,"1560 ROUTE 23 NORTH, WAYNE, NJ, 07470",9738721400,40.9375315,-74.268702
Wendy's,"2004 DUNDAS STREET, LONDON, ON, N5V 3Z1",5194573286,43.0068655,-81.1694598
Wendy's,"2207 W. 12TH STREET, ERIE, PA, 16505",8144544441,42.1041051,-80.1318902
Wendy's,"149 WESTPORT AVENUE, NORWALK, CT, 06851",2033540821,41.1240097,-73.4004318
Wendy's,"301 STATE ROUTE 10, LEDGEWOOD, NJ, 07852",9739271886,40.8740119,-74.6488219
Wendy's,"657 N ROUTE 17, PARAMUS, NJ, 07652",2016891487,40.9637099,-74.0775148
Wendy's,"191 NEWPORT AVE, QUINCY, MA, 02170",6174722983,42.2690981,-71.0239305
Wendy's,"65 N. FRONTAGE ROAD, E.HAVEN, CT, 06512",2034699459,41.2866155,-72.878689
Wendy's,"207 MAIN STREET NORTH, EXETER, ON, N0M 1S3",5192351445,43.362029,-81.484432
Wendy's,"5901 PEACH STREET, ERIE, PA, 16509",8148682839,42.0659622,-80.0925958
Wendy's,"718 BRIDGEPORT AVENUE, MILFORD, CT, 06460",2038749556,41.210433,-73.0826573
Wendy's,"2162 FAIRFIELD AVENUE, BRIDGEPORT, CT, 06605",2033829689,41.1650624,-73.2195748
Wendy's,"496 CONNECTICUT AVE., NORWALK, CT, 06854",2038539584,41.0990309,-73.4432064
Wendy's,"219 MOUNTAIN AVE, HACKETTSTOWN, NJ, 07840",9088503836,40.8382499,-74.8229375
Wendy's,"676 HIGHBURY AVE, LONDON, ON, N5W 5R3",5194523080,42.9962293,-81.2030595
Wendy's,"505 RT 10 EAST, RANDOLPH, NJ, 07869",8623974200,40.8621318,-74.5692466
